Title,Address,City,State,Zip
ALABASTER,"1114 1st Street N
Suite 300",Alabaster,AL,35007
ALBERTVILLE,"128 AL-75
Unit #3",Albertville,AL,35951
ATHENS,"197 Hwy. 31N
Suite B",Athens,AL,35611
AUBURN,"2081 South College Street
Suite A",Auburn,AL,36832
CULLMAN,"1850 Cherokee Ave. SW
Suite C",Cullman,AL,35055
DAPHNE,29660 Hwy 181,Daphne,AL,36526
DOTHAN,"104 Rock Bridge Road
Suite 3",Dothan,AL,36303
DOTHAN,"1865 East Main Street
Suite 3",Dothan,AL,36301
FAIRHOPE,19678 S. Greeno Road,Fairhope,AL,36532
FOLEY,2070 S Mckenzie Street,Foley,AL,36535
GADSDEN,"404 E Meighan Blvd.
Suite 200",Gadsden,AL,35903
GARDENDALE,"626 Fieldstown Road
Suite 108",Gardendale,AL,35071
HOOVER,"1851 Montgomery Highway
Suite 113",Hoover,AL,35244
HOOVER,"5413 US-280
Suite 102",Hoover,AL,35242
WADDELL PLAZA,"6290 University Dr. NW
Suite B",Huntsville,AL,35806
VILLAGE ON WHITESBURG,"4800 Whitesburg Drive
Suite 20",Huntsville,AL,35802
MADISON CENTRE,"8000 Madison Blvd.
Suite D104",Madison,AL,35758
MADISON,"8135 Highway 72 West
Suite B",Madison,AL,35758
MOBILE,"7449 Airport Blvd
Suite C",Mobile,AL,36608
MOBILE,3151 Dauphin Street,Mobile,AL,36606
ALABASTER,"1114 1st Street N
Suite 300",Alabaster,AL,35007
ALBERTVILLE,"128 AL-75
Unit #3",Albertville,AL,35951
ATHENS,"197 Hwy. 31N
Suite B",Athens,AL,35611
AUBURN,"2081 South College Street
Suite A",Auburn,AL,36832
CULLMAN,"1850 Cherokee Ave. SW
Suite C",Cullman,AL,35055
DAPHNE,29660 Hwy 181,Daphne,AL,36526
DOTHAN,"104 Rock Bridge Road
Suite 3",Dothan,AL,36303
DOTHAN,"1865 East Main Street
Suite 3",Dothan,AL,36301
FAIRHOPE,19678 S. Greeno Road,Fairhope,AL,36532
FOLEY,2070 S Mckenzie Street,Foley,AL,36535
GADSDEN,"404 E Meighan Blvd.
Suite 200",Gadsden,AL,35903
GARDENDALE,"626 Fieldstown Road
Suite 108",Gardendale,AL,35071
HOOVER,"1851 Montgomery Highway
Suite 113",Hoover,AL,35244
HOOVER,"5413 US-280
Suite 102",Hoover,AL,35242
WADDELL PLAZA,"6290 University Dr. NW
Suite B",Huntsville,AL,35806
VILLAGE ON WHITESBURG,"4800 Whitesburg Drive
Suite 20",Huntsville,AL,35802
MADISON CENTRE,"8000 Madison Blvd.
Suite D104",Madison,AL,35758
MADISON,"8135 Highway 72 West
Suite B",Madison,AL,35758
MOBILE,"7449 Airport Blvd
Suite C",Mobile,AL,36608
MOBILE,3151 Dauphin Street,Mobile,AL,36606
ANCHORAGE,"2001 East 88th Avenue
Suite 104",Anchorage,AK,99507
EAGLE RIVER,12071 Old Glenn Highway,Eagle River,AK,99577
SUSITNA,"1451 E. Parks Highway
Suite 104",Susitna,AK,99654
ANTHEM,"39512 N. Daisy Mountain Drive
Suite 172",Anthem,AZ,85086
AVONDALE,10321 W. McDowell Rd.,Avondale,AZ,85392
BUCKEYE,"1177 S Watson Rd.
Suite 104",Buckeye,AZ,85326
BUCKEYE,"1775 N Verrado Way
Suite 101",Buckeye,AZ,85396
BULLHEAD CITY,"2179 Highway 95
Unit A101",Bullhead City,AZ,86442
CAVE CREEK,"5355 East Carefree Highway
Building B Suite 106",Cave Creek,AZ,85331
CHANDLER,"2780 W. Chandler Blvd.
Suite 3",Chandler,AZ,85224
CHANDLER,"4010 S Arizona Ave
Ste 1",Chandler,AZ,85248
CHANDLER,"5045 South Gilbert Rd.
Suite B-100",Chandler,AZ,85249
CHANDLER,"325 S Arizona Avenue
Suite 3",Chandler,AZ,85225
CHANDLER,"5055 West Ray Road
Unit 12",Chandler,AZ,85226
FLAGSTAFF,"2080 South Milton Road
Suite 400",Flagstaff,AZ,86001
GILBERT,75 East Rivulon Blvd,Gilbert,AZ,85297
GILBERT,"1887 E. Williams Field Road
#106",Gilbert,AZ,85295
GILBERT,"835 South Gilbert Road
Suite 103",Gilbert,AZ,85296
GILBERT,"753 N. McQueen Rd
Suite 101",Gilbert,AZ,85233
GILBERT,"3076 E Chandler Heights Rd.
Suite 103",Gilbert,AZ,85298
GLENDALE,"7410 West Bell Rd.
Suite 310-2",Glendale,AZ,85308
GLENDALE,"9455 West Glendale Ave
Suite 130",Glendale,AZ,85305
GLENDALE,"5929 W. Peoria Ave
Suite 107",Glendale,AZ,85302
GLENDALE,"20020 North 59th Avenue
Suite 107",Glendale,AZ,85308
GOODYEAR,"1550 North Dysart Rd.
Suite B7",Goodyear,AZ,85395
GREEN VALLEY,"18690 S. Nogales Hwy.
Suite 124",Green Valley,AZ,85614
KINGMAN,"3535 Stockton Hill Road
Suite E",Kingman,AZ,86409
LAKE HAVASU CITY,"1690 N McCulloch Blvd
Unit 104",Lake Havasu City,AZ,86403
LAVEEN,"5130 W. Baseline Rd
Ste. 104",Laveen,AZ,85339
MARANA,"5940 W. Arizona Pavilions Dr
Suite 100",Marana,AZ,85743
MARICOPA,21423 N. John Wayne Parkway,Maricopa,AZ,85139
MESA,"1939 S. Val Vista Drive
Ste. 107",Mesa,AZ,85204
MESA,"2119 N. Power Road
Suite 103",Mesa,AZ,85215
MESA,"10861 E. Baseline Road
Suite 107",Mesa,AZ,85209
MESA,"1155 South Power Road
Suite 107",Mesa,AZ,85206
MESA,"1003 North Dobson Road
Suite 102",Mesa,AZ,85201
MESA,"1139 S. Dobson Road
Unit 102",Mesa,AZ,85202
MESA,"4984 S Power Road
Suite 105",Mesa,AZ,85212
ORO VALLEY,"10592 N. Oracle Rd
Suite 150",Oro Valley,AZ,85737
PEORIA,"24920 N. Lake Pleasant Pkwy.
Suite 102",Peoria,AZ,85383
PEORIA,"8378 W Thunderbird Road
Suite B-105",Peoria,AZ,85381
PHOENIX,"4550 East Bell Road
Suite 194",Phoenix,AZ,85032
PHOENIX,"4605 East Chandler Blvd.
Suite 100",Phoenix,AZ,85048
PHOENIX,"2501 West Happy Valley Road
Suite H-108",Phoenix,AZ,85085
PHOENIX,"3350 N 7th Avenue
Suite 120",Phoenix,AZ,85013
PHOENIX,2415 E Baseline Rd.,Phoenix,AZ,85042
PHOENIX,"3141 E. Indian School Road
Suite 105",Phoenix,AZ,85016
PHOENIX,"245 East Bell Road
Ste. 9",Phoenix,AZ,85022
VILLAGE SQUARE II,"4603 East Cactus Road
Ste. 2A01",Phoenix,AZ,85032
PHOENIX,"6075 N 19th ave
Suite 103",Phoenix,AZ,85015
PHOENIX,"455 N. 3rd Street
Suite 1080",Phoenix,AZ,85004
PHOENIX,"3053 West Agua Fria Freeway
Suite #1",Phoenix,AZ,85027
PRESCOTT,"811 Whipple Street
Suite 2",Prescott,AZ,86301
PRESCOTT VALLEY,3081 N Glassford Hill Rd,Prescott Valley,AZ,86314
QUEEN CREEK,"20715 E Rittenhouse Rd
Suite 103",Queen Creek,AZ,85142
QUEEN CREEK,"40930 North Ironwood Road
Suite 112",Queen Creek,AZ,85140
SAN TAN VALLEY,"561 East Bella Vista Road
Suite 105",San Tan Valley,AZ,85143
SCOTTSDALE,"4020 North Scottsdale Road
#102",Scottsdale,AZ,85251
SCOTTSDALE,15807 E. Frank Lloyd Wright#125,Scottsdale,AZ,85260
SCOTTSDALE,7919 East Thomas Road,Scottsdale,AZ,85251
SCOTTSDALE,9280 E Via De Ventura,Scottsdale,AZ,85258
SCOTTSDALE,"23535 N. Scottsdale Road
Suite F-103",Scottsdale,AZ,85255
SCOTTSDALE,"9301 E. Shea Boulevard
F-104",Scottsdale,AZ,85260
SIERRA VISTA,"4177 East Highway 90
Suite 120",Sierra Vista,AZ,85635
SURPRISE,14071 West Bell Road,Surprise,AZ,85374
SURPRISE,16350 W Pat Tillman Blvd,Surprise,AZ,85387
SURPRISE,"13641 N Prasada Parkway
Suite 130",Surprise,AZ,85388
TEMPE,"555 North Scottsdale Rd.
Suite 103",Tempe,AZ,85281
TEMPE,"1537 W. Broadway Rd
Ste. 106",Tempe,AZ,85282
TEMPE,4715 S. Rural Road,Tempe,AZ,85282
TUCSON,"3400 East Speedway Blvd
Ste. 124",Tucson,AZ,85716
TUCSON,"6501 E. Grant Road
Unit 111",Tucson,AZ,85715
TUCSON,"4874 S Landing Way
Suite 180",Tucson,AZ,85714
TUCSON,"9172 S. Houghton Rd.
Suite 150",Tucson,AZ,85747
TUCSON,"5720 East Broadway Blvd.
Suite 100",Tucson,AZ,85711
TUCSON,"98 W River Road
Suite 150",Tucson,AZ,85704
TUCSON,"6811 North Thornydale Road
Suite 101",Tucson,AZ,85741
TUCSON,"9431 E 22nd Street
Suite 107",Tucson,AZ,85710
TUCSON,"3470 S Kino Parkway
Suite 160",Tucson,AZ,85713
TUCSON,"1710 W. Valencia Road
Suite 120",Tucson,AZ,85746
TUCSON,"3122 N. Campbell Avenue
Suite 140",Tucson,AZ,85719
YUMA,"11231 E. Commercial Center Loop
Suite 101",Yuma,AZ,85367
YUMA,"1580 S. 4th Avenue
Suite A",Yuma,AZ,85364
BENTON,"20770 I-30
Suite 130",Benton,AR,72019
BENTONVILLE,3316 SW I St.,Bentonville,AR,72712
CABOT,"290 South Rockwood Drive
Suite F",Cabot,AR,72023
CONWAY,"1120 East Oak Street
Suite 102",Conway,AR,72032
FAYETTEVILLE,"160 E Joyce Blvd
Suite 101",Fayetteville,AR,72703
FORT SMITH,4509 Phoenix Avenue,Fort Smith,AR,72903
JONESBORO,"3717 E Johnson Avenue
Suite E",Jonesboro,AR,72405
LITTLE ROCK,"19426 Cantrell Road
Suite 3",Little Rock,AR,72223
LITTLE ROCK,"6 Bass Pro Drive
Suite 200",Little Rock,AR,72210
LITTLE ROCK,"12319 Chenal Parkway
Suite B",Little Rock,AR,72211
NORTH LITTLE ROCK,"3901 Warden Road
Suite C",North Little Rock,AR,72116
NORTH LITTLE ROCK,"13101 Crystal Hill Road
Suite C",North Little Rock,AR,72113
ROGERS,"2301 West Pleasant Grove Road
Suite 105",Rogers,AR,72758
SPRINGDALE,"7022 West Sunset Avenue
Suite 3",Springdale,AR,72762
PICKUP & DELIVERY ONLY AVAILABLE ON BASE,MCAGCC Bldg. 1517 6th Street,29 Palms,CA,92278
ALPINE,"1730 Alpine Boulevard
Unit 205",Alpine,CA,91901
ANGEL STADIUM OF ANAHEIM,2000 Gene Autry Way,Anaheim,CA,92806
ANAHEIM,"111 E. Katella Avenue
Suite 30",Anaheim,CA,92802
IMPERIAL PROMENADE,"5675 E La Palma Avenue
Suite 185",Anaheim,CA,92807
APPLE VALLEY,"19179 Bear Valley Road
Ste. 8",Apple Valley,CA,92308
APPLE VALLEY,"18165 Highway 18
Suite 3",Apple Valley,CA,92307
ARROYO GRANDE,"1540 E Grand Ave.
Suite B",Arroyo Grande,CA,93420
AUBURN,11875 Willow Creek Drive,Auburn,CA,95603
AZUSA,"1240 W Foothill Blvd.
Unit B",Azusa,CA,91702
BAKER,71808 Baker Blvd.,Baker,CA,92309
HAGEMAN & COFFEE ROAD,4715 Coffee Road,Bakersfield,CA,93308
BAKERSFIELD,5120 Stockdale Hwy. Ste. B,Bakersfield,CA,93309
BAKERSFIELD,11350 Ming Ave,Bakersfield,CA,93311
GOSFORD RD AND STOCKDALE HWY,"200 Coffee Road
A-101",Bakersfield,CA,93309
BAKERSFIELD,"1211 Allen Rd.
#100",Bakersfield,CA,93314
BAKERSFIELD,"6326 Ashe Road
#300",Bakersfield,CA,93313
BALDWIN PARK,"13916 Garvey Avenue
Suite 102",Baldwin Park,CA,91706
BARSTOW,"2843 Lenwood Road
Unit C",Barstow,CA,92311
BEAUMONT,"1561 East 2nd Street
Suite 100",Beaumont,CA,92223
BELLFLOWER,"15919 Bellflower Blvd.
Unit B",Bellflower,CA,90706
BEVERLY HILLS,279 South Beverly Dr.,Beverly Hills,CA,90212
STATER BROS CENTER,"42173 1/2 Big Bear Blvd
Unit L",Big Bear Lake,CA,92315
BREA,"955 East Birch Street
Suite J, Brea Marketplace",Brea,CA,92821
BUENA PARK,5974 Orangethorpe Ave,Buena Park,CA,90620
"SOUTH BURBANK, VERDUGO AND HOLLYWOOD WAY",531-B North Hollywood Way,Burbank,CA,91505
"NORTH BURBANK, NEAR AIRPORT ON HOLLYWOOD WAY",3015 N Hollywood Way,Burbank,CA,91505
CABAZON,"48555 Morongo Trail
Tenant #4",Cabazon,CA,92230
CALABASAS,"26799 Agoura Rd.
Unit C-2",Calabasas,CA,91302
CAMARILLO,"370 N. Lantana
Suite H016",Camarillo,CA,93010
CAMARILLO,"5800 Santa Rosa Road
Suite 143",Camarillo,CA,93012
CAMP PENDLETON BASE ACCESS REQUIRED,"200 Vandegrift Blvd.
Bldg. 2010, Suite 204",Camp Pendleton,CA,92055
CAMP PENDLETON BASE ACCESS REQUIRED,"4154 Nelson Road Bldg 4154
Marine Corps Base",Camp Pendleton,CA,92055
CANYON COUNTRY PLAZA,19138 Soledad Canyon Road,Canyon Country,CA,91351
CARLSBAD,2604 ElCamino Real,Carlsbad,CA,92008
CARLSBAD,"2521 Palomar Airport Rd
Ste. 6-104",Carlsbad,CA,92011
CARLSBAD,"7625 Via Campanile
Suite 122",Carlsbad,CA,92009
CARLSBAD,"5620 Paseo Del Norte
Suite C-127",Carlsbad,CA,92008
CARLSBAD,"7110 Avenida Encinas
Suite 100",Carlsbad,CA,92011
CARLSBAD,"6943 El Camino Real
Suite F105",Carlsbad,CA,92009
CARMICHAEL,5154 Arden Way,Carmichael,CA,95608
CARPINTERIA,1054 Casitas Pass Road,Carpinteria,CA,93013
CARSON,20420 S Avalon Blvd,Carson,CA,90746
CERRITOS,11245 183rd Street,Cerritos,CA,90703
CERRITOS,12550 Artesia Blvd.,Cerritos,CA,90703
TOPANGA TOWN SQUARE,"9840E Topanga Canyon Blvd.
Topanga Town Square",Chatsworth,CA,91311
CHICO,605 Mangrove Ave.,Chico,CA,95926
CHINO,12152 Central Ave,Chino,CA,91710
CHINO,"8329 Pine Ave
Suite120",Chino,CA,91708
CHINO HILLS,3330 Grand Avenue,Chino Hills,CA,91709
CHULA VISTA,"2015 Birch Road
Ste 2001",Chula Vista,CA,91915
CHULA VISTA,"2315 Otay Lakes Rd
Suite 304",Chula Vista,CA,91915
CHULA VISTA,"1208 Broadway
Unit 103",Chula Vista,CA,91911
CITRUS HEIGHTS,5855 Sunrise Blvd.,Citrus Heights,CA,95610
CITY OF INDUSTRY,13350 Crossroads Parkway North,City of Industry,CA,91746
CLAREMONT,"2209 E. Baseline Rd.
Suite 500",Claremont,CA,91711
CLOVIS,"3762 E Shaw Ave
Suite #104",Clovis,CA,93619
VONS SHOPPING CENTER,"3170 N. Fowler Ave.
Suite 102",Clovis,CA,93611
CORNER OF HERNDON AVE.,"1840 Herndon Ave
Suite 103",Clovis,CA,93611
COMPTON,"1795 S. Alameda
Suite C",Compton,CA,90220
CONCORD,"5438 Ygnacio Valley Road
Suite 10",Concord,CA,94521
CORONA,"2150 California Ave
Ste. 112",Corona,CA,92881
CORONA,350 N. McKinley Street,Corona,CA,92879
COSTA MESA,2300 Harbor Boulevard,Costa Mesa,CA,92626
COSTA MESA,"270 E 17th Street
Suite 14",Costa Mesa,CA,92627
COTATI,"640 E. Cotati Ave.
Unit B",Cotati,CA,94931
CULVER CITY,4114 Sepulveda Blvd.,Culver City,CA,90230
DANA POINT,"34255 Pacific Coast Hwy.
Unit 118",Dana Point,CA,92629
DANVILLE,"301 Hartz Ave
Ste. 100",Danville,CA,94526
DELANO,"550 Woollomes Avenue
Suite 108",Delano,CA,93215
DEL MAR,2626A Del Mar Heights Road,Del Mar,CA,92014
DOWNEY,8855 Apollo Way,Downey,CA,90242
DOWNEY,9521 Lakewood Blvd.,Downey,CA,90240
DUARTE,"1411 Huntington Drive
Suite 20 & 30",Duarte,CA,91010
DUBLIN,3740 Fallon Road,Dublin,CA,94568
EASTVALE,"12569 Limonite Ave.
Ste. 320",Eastvale,CA,91752
EL CAJON,"141 Broadway
Ste B.",El Cajon,CA,92021
EL CAJON,"2514 Jamacha Rd
Suite 504",El Cajon,CA,92019
EL CAJON,"1299 E. Main Street
Suite 204",El Cajon,CA,92021
EL CENTRO,1002 N Imperial Avenue,El Centro,CA,92243
ELK GROVE,"7701 Laguna Blvd.
Suite 460",Elk Grove,CA,95758
EL MONTE,"10619 Valley Blvd.
Suite C",El Monte,CA,91731
EL SEGUNDO,530 A N. Sepulveda Blvd.,El Segundo,CA,90245
ENCINITAS,1070 N. El Camino Real,Encinitas,CA,92024
ENCINITAS,"138 Encinitas Blvd.
Suite 138",Encinitas,CA,92024
ENCINO,"16350 Ventura Blvd.
Suite C.",Encino,CA,91436
ESCONDIDO,1829 South Centre City Parkway,Escondido,CA,92025
ESCONDIDO,"1497 East Valley Parkway
Suite G",Escondido,CA,92027
FAIRFIELD,"251 Pittman Rd
Suite C",Fairfield,CA,94534
FAIR OAKS,"8921 Madison Avenue
Suite 3D",Fair Oaks,CA,95628
FALLBROOK,833 S Main Ave,Fallbrook,CA,92028
FOLSOM,703 E. Bidwell Street,Folsom,CA,95630
NEXT TO THE HILTON INN,"10515 Sierra Avenue
Ste. 200",Fontana,CA,92337
HIGHLAND VILLAGE,"16938 S. Highland Ave.
Suite A-300",Fontana,CA,92336
FONTANA,"15270 Summit Avenue
#300",Fontana,CA,92336
FOUNTAIN VALLEY PLAZA,"18120 Brookhurst St.
Ste. 7",Fountain Valley,CA,92708
FRENCH VALLEY,"35876 Winchester Rd.
Suite 100",French Valley,CA,92596
N. RIVERSIDE DR. & W HERNDON AVE.,"6709 N. Riverside Drive
Suite 101",Fresno,CA,93722
CORNER OF FRESNO ST.,8480 N. Friant Rd,Fresno,CA,93720
BLACKSTONE & BULLARD AVE.,5776 N. Blackstone Avenue,Fresno,CA,93710
FULLERTON,1911 W Malvern Ave,Fullerton,CA,92833
FULLERTON,"101 E. Orangethorpe Avenue
Suite B",Fullerton,CA,92832
GARDENA,1747 W. Artesia Blvd.,Gardena,CA,90248
GARDENA,"1400 W. Redondo Beach Blvd
Suite 110",Gardena,CA,90247
GARDEN GROVE,9808 Chapman Avenue,Garden grove,CA,92841
GILROY,"6845 Camino Arroyo
Suite 60",Gilroy,CA,95020
GLENDALE,813 Americana Way,Glendale,CA,91210
GLENDORA,"865 W. Route 66
Unit A",Glendora,CA,91740
GOLDEN VALLEY,19159 Golden Valley Road,Golden Valley,CA,91387
CAMINO REAL MARKETPLACE,7034 Market Place Dr.,Goleta,CA,93117
GOLETA,163 N Fairview Avenue,Goleta,CA,93117
GRANADA VILLAGE SHOPPING CENTER,"18131 Chatsworth Street
Granada Village Shopping Center",Granada Hills,CA,91344
HARBOR CITY,1640 Sepulveda Blvd.,Harbor City,CA,90710
GATEWAY CENTER,"5342 Rosecrans Ave.
Gateway Center",Hawthorne,CA,90250
HEMET,719 S. Sanderson Ave,Hemet,CA,92545
HERMOSA BEACH,"703 Pier Ave
Suite G",Hermosa Beach,CA,90254
HESPERIA,13255 Main St.,Hesperia,CA,92345
HIGHLAND,"27993 Greenspot Road
Suite 3",Highland,CA,92346
BEACH & ATLANTA,21004 Beach Blvd.,Huntington beach,CA,92648
HUNTINGTON BEACH,"6041 Bolsa Avenue
Unit 5",Huntington Beach,CA,92647
HUNTINGTON BEACH,"10035 Adams Avenue
Suite 111",Huntington Beach,CA,92646
IMPERIAL BEACH,"801 Palm Ave
Suite 101",Imperial Beach,CA,91932
INDIO,"42211 Jackson Street
Suite 102",Indio,CA,92203
INDIO,"49-870 Jefferson Street
Suite 106",Indio,CA,92201
IRVINE,"16525-G Von Karman Avenue
Von Karman Plaza",Irvine,CA,92606
IRVINE,17917 MacArthur Blvd,Irvine,CA,92614
IRVINE,4537 Campus Drive,Irvine,CA,92612
JURUPA VALLEY,"4190 Pyrite Street
Suite 105",Jurupa Valley,CA,92509
LA CANADA,"711 Foothill Blvd.
Suite B",La Canada,CA,91011
LA CRESCENTA,"3731 Foothill Blvd
Unit E",La crescenta,CA,91214
LADERA RANCH,"27702 Crown Valley Parkway
Suite F-2",Ladera ranch,CA,92694
LAGUNA BEACH,1350 S. Coast Hwy.,Laguna Beach,CA,92651
LAGUNA NIGUEL,"24006 Aliso Creek Rd.
Suite A18",Laguna Niguel,CA,92677
LAGUNA NIGUEL,"28051 Greenfield Drive
Suite G",Laguna Niguel,CA,92677
LAGUNA WOODS,24365-A El Toro Road,Laguna Woods,CA,92637
LA HABRA,1370 S. Beach Blvd.,La Habra,CA,90631
HERSCHEL & SILVERADO,7836 Herschel Avenue,La Jolla,CA,92037
LAKE ARROWHEAD,"28200 Highway 189
Suite F-190",Lake Arrowhead,CA,92352
LAKE ELSINORE,"31800 Grape Street
#B",Lake Elsinore,CA,92532
LAKE ELSINORE,18492 Dexter Avenue,Lake Elsinore,CA,92532
FOOTHILL RANCH SHOPPING CENTER,"45 Auto Center Drive
Foothill Ranch Shopping Center",Lake Forest,CA,92610
LAKE FOREST,"23572 El Toro Road
Suite B",Lake Forest,CA,92630
LAKESIDE,"9760 Winters Gardens Blvd.
Suite A & B",Lakeside,CA,92040
LAKEWOOD,4427 Candlewood Street,Lakewood,CA,90712
LA MESA,5163 Jackson Drive,La Mesa,CA,91942
LA MIRADA,"14873 Telegraph Road
Ste. B",La Mirada,CA,90638
LANCASTER,1006-A Commerce Center,Lancaster,CA,93534
LANCASTER,"44418 Valley Central Way
Suite A",Lancaster,CA,93536
LA QUINTA,"79174 Highway 111
Suite 104",La Quinta,CA,92253
LA VERNE,2212 Foothill Blvd.,La Verne,CA,91750
LEMON GROVE,7038 Broadway,Lemon Grove,CA,91945
LONE PINE,1900 South Main Street,Lone Pine,CA,93545
LONG BEACH,"301 E Ocean Blvd
Suite 155",Long Beach,CA,90802
LONG BEACH,1831 Ximeno Avenue,Long Beach,CA,90815
LONG BEACH,"3821 Lakewood Boulevard
Ste. 101",Long Beach,CA,90808
LONG BEACH,4260 Long Beach Blvd,Long Beach,CA,90807
LONG BEACH,141 East Willow Street,Long Beach,CA,90806
LONG BEACH,"6467 East Pacific Coast Highway
Suite E-1B",Long Beach,CA,90803
LONG BEACH,7675 Carson Street,Long Beach,CA,90808
LOS ANGELES,1020 Glendon Ave.,Los Angeles,CA,90024
BRENTWOOD PLACE,12003 Wilshire Boulevard,Los Angeles,CA,90025
MIRACLE MILE,"6361 Wilshire Blvd
Between San Vicente Blvd and Crescent Heights Blvd",Los Angeles,CA,90048
LOS ANGELES,"4700 W. Pico Blvd.
Suite D",Los Angeles,CA,90019
LOS ANGELES,5933 W. Century Blvd,Los Angeles,CA,90045
W 8TH & S HOPE,"801 S Hope Street
Suite C",Los Angeles,CA,90017
"HOLLYWOOD/LOS FELIZ, OFF HOLLYWOOD AND WESTERN","5453B Hollywood Blvd
Corner of Hollywood Blvd and Western Ave. in HollyWest Promenade",Los Angeles,CA,90027
LOS ANGELES,2601 Colorado Blvd,Los Angeles,CA,90041
LOS ANGELES,1609 Wilshire Blvd,Los Angeles,CA,90017
SILVERLAKE (BY TRADER JOES),"2664 Griffith Park Blvd
Corner of Griffith Park Blvd and Hyperion Ave. next to Trader Joes",Los Angeles,CA,90039
LOS ANGELES,11909 Olympic Blvd.,Los Angeles,CA,90064
LOS ANGELES INTERNATIONAL AIRPORT,"1 World Way-Los Angeles International Airport
Terminal 2, #233",Los Angeles,CA,90045
LOS ANGELES,"8985 Venice Blvd.
#C1-B",Los Angeles,CA,90034
LADERA HEIGHTS,6810 S La Tijera Blvd.,Los Angeles,CA,90045
LOS ANGELES,"1831 S. La Cienega Blvd.
Suite A",Los Angeles,CA,90035
"CENTURY CITY, CORNER OF WESTWOOD AND OLYMPIC","2215 Westwood Blvd.
Suite D",Los Angeles,CA,90064
LOS ANGELES,"3584 S Figueroa Street
Suite 2",Los Angeles,CA,90007
KOREATOWN (BETWEEN WILSHIRE BLVD/NORMANDIE),3452 Wilshire Blvd.,Los Angeles,CA,90010
ECHO PARK BEHIND WALGREENS,1325 Echo Park Avenue,Los Angeles,CA,90026
LOS ANGELES,"2365 E Century Boulevard
Suite C",Los Angeles,CA,90002
LOS GATOS,15527 Union Avenue,Los Gatos,CA,95032
MARINA DEL REY,"4020 Lincoln Blvd.
Ste. A",Marina Del Rey,CA,90292
MENIFEE,27774 Newport Road,Menifee,CA,92584
MISSION HILLS,10388 Sepulveda Blvd.,Mission hills,CA,91345
MISSION VIEJO VILLAGE CENTER,"25280-C Marguerite Parkway
Mission Viejo Village Plaza Shopping Center",Mission Viejo,CA,92692
MODESTO,"1809 McHenry Ave
Suite A",Modesto,CA,95350
MONROVIA,444 West Huntington Dr.,Monrovia,CA,91016
MONTCLAIR,9359 Central #B Avenue,Montclair,CA,91763
MONTEBELLO,"535 N. Montebello Blvd
Ste. 31",Montebello,CA,90640
MONTEREY PARK,2215 S. Atlantic Blvd.,Monterey Park,CA,91754
MOORPARK,"144 W. Los Angeles Ave.
Suite 103",Moorpark,CA,93021
MORENO VALLEY,"12625 Frederick Street
Ste. S-3",Moreno Valley,CA,92553
MORENO VALLEY,"26150 Iris Avenue
Suite 3",Moreno Valley,CA,92555
MURRIETA,"25359 Madison Ave
#109",Murrieta,CA,92562
MURRIETA,"27614 Clinton Keith Rd
Unit#101",Murrieta,CA,92562
VONS SHOPPING CENTER,"29910 Murrieta Hot Springs Rd
Suite M",Murrieta,CA,92563
NAPA,627 Trancas St.,Napa,CA,94558
NATIONAL CITY,404 Miles of Cars Way,National City,CA,91950
NEWBURY PARK,1610-2 Newbury Rd,Newbury Park,CA,91320
NEWBURY PARK,"761 North Wendy Drive
Unit 2",Newbury Park,CA,91320
NEWPORT BEACH,1318 Bison Avenue,Newport Beach,CA,92660
MARKETPLACE ON HAMNER,1411 Hamner Ave.,Norco,CA,92860
NORTH HOLLYWOOD,"4821 Lankershim Blvd
Suite 1",North Hollywood,CA,91601
NORTH HOLLYWOOD,"6160 Laurel Canyon Blvd.
Suite 130",North Hollywood,CA,91606
"NORTHRIDGE, TAMPA AND NORDHOFF",19350 C Nordhoff St.,Northridge,CA,91324
"NORTHRIDGE, BALBOA AND ROSCOE","8420 Balboa Blvd.
Unit 112",Northridge,CA,91325
NORWALK,"12623 Norwalk Blvd
Bldg A, Unit 1",Norwalk,CA,90650
OCEANSIDE,"4111 Oceanside Blvd
Suite 100",Oceanside,CA,92056
OCEANSIDE,4904 N. River Road,Oceanside,CA,92057
OCEANSIDE,302 Mission Ave,Oceanside,CA,92054
OCEANSIDE,"125 Old Grove Road
Suite 16",Oceanside,CA,92057
RELOCATING,423 E. Ojai Ave.,Ojai,CA,93023
ONTARIO,"1150 East Philadelphia Street
Ste. 105",Ontario,CA,91761
ONTARIO,"3420 E. Ontario Ranch Road
Suite 4",Ontario,CA,91761
TUSKATELLA CENTER,"1545 E. Katella Ave.
Tuskatella Center",Orange,CA,92867
ORANGE,763 S. Main Street,Orange,CA,92868
ORANGE,3428 E. Chapman Ave.,Orange,CA,92869
"ORANGE, STADIUM PROMENADE","1623 W. Katella Avenue
Suite 101",Orange,CA,92867
OXNARD,1231 South Victoria Ave.,Oxnard,CA,93035
PACIFIC GROVE,100 Country Club Gate Center,Pacific Grove,CA,93950
SIERRA COMMONS,"39604 10th St. West
Unit C, Sierra Commons",Palmdale,CA,93551
PALMDALE,"38029 47th Street E
Unit C",Palmdale,CA,93552
PALM DESERT,"72393 Hwy 111
Suite B",Palm Desert,CA,92260
PALM DESERT,"42175 Washington Street
Suite C3",Palm Desert,CA,92211
PALM DESERT,"73120 Dinah Shore Drive
Suite 102",Palm Desert,CA,92211
PALM SPRINGS,"2465 E. Palm Canyon Drive
Suite 1010",Palm Springs,CA,92264
PASADENA,122 S. Lake Avenue,Pasadena,CA,91101
PASADENA,3746 E. Foothill Blvd.,Pasadena,CA,91107
PASO ROBLES,"2301 Theatre Drive
Suite 100",Paso Robles,CA,93446
PERRIS,"1688 N. Perris Blvd.
Suite D1",Perris,CA,92571
PETALUMA,201 S. McDowell Boulevard,Petaluma,CA,94954
PICO RIVERA,8947 Washington Blvd.,Pico Rivera,CA,90660
VILLAGE CENTER AT ROSE,"850 N. Rose Drive
Suite C",Placentia,CA,92870
PLACERVILLE,"3964 Missouri Flat Road
Ste D",Placerville,CA,95667
PLEASANTON,"6654 Koll Center Parkway
Ste. 333",Pleasanton,CA,94566
POMONA,2071 Rancho Valley Drive,Pomona,CA,91766
PICK-UP AND DINE-IN NOT AVAILABLE,103 Exchange Place,Pomona,CA,91768
PORTER RANCH,"20101 West Rinaldi Street
Suite 110",Porter ranch,CA,91326
POWAY,12285 Scripps Poway Pkwy,Poway,CA,92064
POWAY,"14969 Pomerado Rd.
# E",Poway,CA,92064
POWAY,13305 Poway Road,Poway,CA,92064
RAMONA,"1664 Main Street
Suite D",Ramona,CA,92065
RANCHO CORDOVA,2808 Zinfandel Drive,Rancho Cordova,CA,95670
VINEYARD & FOOTHILL,"8880 Foothill Blvd.
Ste. 104",Rancho Cucamonga,CA,91730
RANCHO CUCAMONGA,"9659 Milliken Avenue
Suite D2",Rancho Cucamonga,CA,91730
SPRUCE AND FOOTHILL,10877 Foothill Blvd,Rancho Cucamonga,CA,91730
RANCHO CUCAMONGA,"12270 Baseline Road
Suite 520",Rancho Cucamonga,CA,91739
SENDERO MARKETPLACE,"30859 Gateway Place
Suite E-5",Rancho Mission Viejo,CA,92694
RANCHO SANTA MARGARITA,"29941 Aventura
Suite D",Rancho santa margarita,CA,92688
REDDING,"835 Browning St.
Unit B.",Redding,CA,96003
REDLANDS,10040 Alabama Street,Redlands,CA,92374
EAST REDLANDS - REDLANDS VILLAGE,1755 E. Lugonia Avenue,Redlands,CA,92374
REDLANDS,"400 W. Stuart Avenue
Suite 100",Redlands,CA,92374
KING HARBOR PLAZA,561 N. Pacific Coast Highway,Redondo Beach,CA,90277
RIALTO,186 E. Easton Street,Rialto,CA,92376
RIALTO,"1310 S. Riverside Ave.
#3A",Rialto,CA,92376
RIVERSIDE,497 E. Alessandro Blvd,Riverside,CA,92508
RIVERSIDE,"1201 University Avenue
Suite 103C",Riverside,CA,92507
RIVERSIDE,"3540 Riverside Plaza Drive
Suite 316",Riverside,CA,92506
RIVERSIDE,"22420 Van Buren Blvd.
Suite 400",Riverside,CA,92518
RIVERSIDE,"3522 Madison Street
Suite 105",Riverside,CA,92504
ROCKLIN,"5130 Commons Drive
Suite 111",Rocklin,CA,95677
ROLLING HILLS ESTATES,417 Silver Spur Rd.,Rolling Hills Estates,CA,90274
ROSEMEAD,3614 Rosemead Blvd,Rosemead,CA,91770
ROSEVILLE,"4201 Thrive Drive
Suite 130",Roseville,CA,95678
ROSEVILLE,"2030 Douglas Blvd.
Suite 18",Roseville,CA,95661
ROWLAND HEIGHTS,"17420 Colima Road
Suite W35",Rowland Heights,CA,91748
SACRAMENTO,"2912 Fulton Avenue
Suite F3",Sacramento,CA,95821
SACRAMENTO,624 Watt Avenue,Sacramento,CA,95864
SACRAMENTO,"2850 Del Paso Rd
Suite 100",Sacramento,CA,95834
SACRAMENTO,"8124 Delta Shores Circle South
Suite 130",Sacramento,CA,95832
SACRAMENTO,"4200 Florin Rd.
Suite B",Sacramento,CA,95823
SALINAS,1668 N. Main Street,Salinas,CA,93906
SAN CLEMENTE,641 Camino De Los Mares,San Clemente,CA,92673
SAN CLEMENTE,"800 South Avenida Pico
Suite S",San Clemente,CA,92673
SAN DIEGO,"8590 Rio San Diego Drive
Suite #109",San Diego,CA,92108
SAN DIEGO,"10764 Westview Parkway
Suite 101",San Diego,CA,92126
SAN DIEGO,3670 Rosecrans St.,San Diego,CA,92110
CROSSROADS CENTER,"7420 Clairemont Mesa Blvd.
Suite 106-107",San Diego,CA,92111
SAN DIEGO,"15805 Bernardo Center Dr.
#117",San Diego,CA,92127
SAN DIEGO,"6083 El Cajon Blvd.
#A",San Diego,CA,92115
SAN DIEGO,1975 Garnet Ave.,San Diego,CA,92109
SAN DIEGO,13173 Black Mountain Rd.,San Diego,CA,92129
SAN DIEGO,3943 Governor Drive,San Diego,CA,92122
SAN DIEGO,6545 Mission Gorge Road,San Diego,CA,92120
SAN DIEGO,"5657 Balboa Avenue
Suite 107",San Diego,CA,92111
SAN DIEGO,"9211 Clairemont Mesa Blvd.
Suite 104",San Diego,CA,92123
SAN DIEGO,3755 Murphy Canyon Rd.,San Diego,CA,92123
SAN DIEGO,"6906 Miramar Road
Suite E",San Diego,CA,92121
SAN DIEGO,"756 Dennery Road
Suite 203",San Diego,CA,92154
SAN DIEGO,"8726 Lake Murray Blvd.
#C1",San Diego,CA,92119
SAN DIEGO,"6030 Village Way
Suite 107",San Diego,CA,92130
SAN DIEGO,5971 Lusk Blvd.,San Diego,CA,92121
SAN DIEGO,4921 A Clairemont Drive,San Diego,CA,92117
SAN DIEGO,"7770 Regents Rd.
Suite 102",San Diego,CA,92122
SAN DIEGO,"3001 El Cajon Boulevard
Suite 100",San Diego,CA,92104
SAN DIMAS,466 N. Lone Hill Ave.,San Dimas,CA,91773
SAN FERNANDO,"1120 Truman Street
Suite 103",San Fernando,CA,91340
SAN JACINTO,"400 E. Esplanade Avenue
Suite B",San Jacinto,CA,92583
SAN JOSE,870-B Blossom Hill Road,San Jose,CA,95123
SAN JOSE,"1088 E. Brokaw Rd.
Suite 70",San Jose,CA,95131
SAN LUIS OBISPO,"3940 Broad Street
Suite 1",San Luis Obispo,CA,93401
CREEKSIDE MARKET,"595 Grand Ave.
F103",San Marcos,CA,92078
PLAZA SAN MARCOS,"730 Nordahl Road
Suite 105",San Marcos,CA,92069
SAN MATEO,2925 S. El Camino Real,San Mateo,CA,94403
SAN PABLO,30 D San Pablo Towne Center,San Pablo,CA,94806
SAN PEDRO,912 North Western Avenue,San Pedro,CA,90732
SANTA ANA,"3941 S. Bristol Street
Ste. G.",Santa Ana,CA,92704
SANTA BARBARA,3325 State Street,Santa Barbara,CA,93105
SANTA BARBARA,"199 S. Turnpike Rd.
Suite 102",Santa Barbara,CA,93111
SANTA CLARA,3937 Rivermark Plaza,Santa Clara,CA,95054
SANTA CLARITA,"19325 Plum Canyon Rd
Suite B",Santa Clarita,CA,91350
CENTRE POINTE MARKETPLACE,26557 Golden Valley Road,Santa Clarita,CA,91350
SANTA CRUZ,1820 Mission Street,Santa Cruz,CA,95060
SANTA FE SPRINGS,11514 Telegraph Road,Santa Fe Springs,CA,90670
SANTA FE SPRINGS,13352 Telegraph Road,Santa Fe Springs,CA,90670
CROSSROADS AT SANTA MARIA SHOPPING CENTER,"2358 S Bradley Rd.; Suite F-4
Crossroads at Santa Maria Shopping Ctr.",Santa Maria,CA,93455
SANTA MARIA,"1140 E. Clark Avenue
Suite 180",Santa Maria,CA,93455
SANTA MONICA,1447 Lincoln Blvd.,Santa Monica,CA,90401
SANTA ROSA,"2688 Santa Rosa Avenue
Unit B",Santa Rosa,CA,95407
SANTA ROSA,"919 Hopper Avenue
Suite C",Santa Rosa,CA,95403
SANTEE,"9331 Mission Gorge Road
Stuite 110",Santee,CA,92071
BOUQUET CENTER,"26510 Bouquet Canyon Rd.
Bouquet Center",Saugus,CA,91350
SCOTTS VALLEY,235A Mount Hermon Road,Scotts Valley,CA,95066
SEAL BEACH,"12430 Seal Beach Blvd.
Unit F",Seal Beach,CA,90740
SIGNAL HILL,"2150 E. Willow Street
Suite 9",Signal Hill,CA,90755
SIMI VALLEY,2790 Cochran Street,Simi Valley,CA,93065
SIMI VALLEY,"1197 E Los Angeles Ave
Unit A3 and A4",Simi Valley,CA,93065
SIMI VALLEY,"2902 Tapo Canyon Road
Suite C",Simi Valley,CA,93063
SOLANA BEACH,915 Lomas Santa Fe Dr.,Solana Beach,CA,92075
SOUTH GATE,"5840 Firestone Blvd.
Suite 112",South Gate,CA,90280
SOUTH PASADENA,462 Fair Oaks Avenue,South Pasadena,CA,91030
SPRING VALLEY,"937 Sweetwater Rd.
Suite 103",Spring Valley,CA,91977
STEVENSON RANCH,"25660 The Old Road
Unit 5B",Stevenson Ranch,CA,91381
SUNNYVALE,"1167 W. El Camino Real
Suite 101",Sunnyvale,CA,94087
SYLMAR,"12980 Foothill Boulevard
Suite #130",Sylmar,CA,91342
SHIRLEY PLAZA,"19458 Ventura Blvd.- Suite 1
Shirley Plaza",Tarzana,CA,91356
HOME DEPOT SHOPPING CENTER,32068 Temecula Pkwy,Temecula,CA,92592
PALM PLAZA SHOPPING CENTER,"26475 Ynez Rd.
Suite C.",Temecula,CA,92591
TEMECULA,"30680 Rancho California Road
Suite M3",Temecula,CA,92591
NORTH RANCH PLAZA,"3825 Thousand Oaks Blvd.
Unit P",Thousand Oaks,CA,91362
THOUSAND OAKS,"605 E. Janss Road
Unit A",Thousand Oaks,CA,91360
THOUSAND OAKS,2000 E. Avenida de Los Arboles,Thousand Oaks,CA,91362
TORRANCE,"24631 Crenshaw Blvd.
Suite M",Torrance,CA,90505
TORRANCE,20016 Hawthorne Blvd.,Torrance,CA,90503
TORRANCE,"23330 Hawthorne Blvd.
Suite B",Torrance,CA,90505
TORRANCE,"980 W 190th Street
Suite A3",Torrance,CA,90502
TRACY,2982 W. Grant Line Rd,Tracy,CA,95304
TUSTIN,13681 Newport Ave,Tustin,CA,92780
UPLAND,"1945 N. Campus Ave.
Suite A",Upland,CA,91784
UPLAND,367 S. Mountain Ave,Upland,CA,91786
VACAVILLE LEISURE TOWN RD & HWY I-80,1110 Leisure Town Rd,Vacaville,CA,95687
VACAVILLE,3035 Alamo Dr,Vacaville,CA,95687
TESORO VILLAGE,23872 Copper Hill Dr.,Valencia,CA,91354
RIVER OAKS PLAZA,24453 Magic Mountain Parkway,Valencia,CA,91355
VALENCIA,"24802 Orchard Village Road
Suite B",Valencia,CA,91355
VAN NUYS,14441 Burbank Blvd.,Van Nuys,CA,91401
VAN NUYS,"14523 Sherman Way
Suite B",Van Nuys,CA,91405
BETWEEN NAVY ST. & ROSE AVE.,"245 Main Street
Suite 3C",Venice Beach,CA,90291
VENTURA,"1145 S. Victoria Avenue
Space D",Ventura,CA,93003
RELOCATING,,Ventura,CA,93003
VENTURA,"5101 Telegraph Road
Suite 103",Ventura,CA,93003
VERNON,"2550 S. Alameda Street
#F",Vernon,CA,90058
VICTORVILLE,"14788 Bear Valley Road
Suite 200",Victorville,CA,92395
VICTORVILLE,12304 Palmdale Road,Victorville,CA,92392
VICTORVILLE,"15683 Roy Rogers Drive
Unit 303",Victorville,CA,92394
VISALIA,3301 Mooney Boulevard,Visalia,CA,93277
VISTA,"620 Hacienda Drive, Suite 103",Vista,CA,92081
VISTA,"1350 E. Vista Way
Suite 6",Vista,CA,92084
VISTA,2235 S. Melrose Drive,Vista,CA,92081
VISTA,"1850 University Drive
Suite 110",Vista,CA,92083
WALNUT CREEK,"1815 Ygnacio Valley Rd.
Suite E",Walnut Creek,CA,94598
WALNUT CREEK,"1280 Newell Hill Ave.
Suite #A",Walnut Creek,CA,94596
WATSONVILLE,"999 Main Street
Suite 2",Watsonville,CA,95076
WESTCHESTER,"8629 South Sepulveda Boulevard
Unit C",Westchester,CA,90045
WEST COVINA,2536 E. Workman Ave.,West Covina,CA,91791
WEST COVINA,"2200 South Azusa Ave
Suite 103",West Covina,CA,91792
WEST COVINA,1040 W Covina Parkway,West Covina,CA,91790
WEST HILLS,"22816 Vanowen Street
Suite F-C",West Hills,CA,91307
WEST HOLLYWOOD,"7100 Santa Monica Blvd.
Unit 153",West Hollywood,CA,90046
WESTLAKE VILLAGE,30817 E. Thousand Oaks Blvd.,Westlake Village,CA,91362
BEACH & HEIL,16470 Beach Blvd,Westminster,CA,92683
WHITTIER,5403 Norwalk Blvd.,Whittier,CA,90601
WHITTIER,13809 E. Whittier Blvd.,Whittier,CA,90605
WHITTIER,"11836 Whittier Blvd.
Suite D",Whittier,CA,90601
WILDOMAR SQUARE,"36250 Hidden Springs Road
Suite A",Wildomar,CA,92595
WOODLAND,"2000 E. Main Street
Suite H",Woodland,CA,95776
WOODLAND HILLS,22649 Ventura Blvd.,Woodland Hills,CA,91364
WOODLAND HILLS,21506 Victory Blvd.,Woodland Hills,CA,91367
YORBA LINDA,"18340 Yorba Linda Blvd.
Suite 101",Yorba Linda,CA,92886
YUBA CITY MARKETPLACE,"1074 Harter Parkway
Suite 103B",Yuba City,CA,95993
YUCAIPA,"33423 Yucaipa Boulevard
Space C",Yucaipa,CA,92399
ARVADA,15530 W. 64th Avenue,Arvada,CO,80007
ARVADA,"5324 Wadsworth Blvd.
Suite F",Arvada,CO,80002
AURORA,"3571 S. Tower Rd.
Unit E",Aurora,CO,80013
AURORA,"23870 E. Smoky Hill Rd
Suite 20",Aurora,CO,80016
VILLAGE ON THE PARK,"2456 S Parker Rd
Suite B",Aurora,CO,80247
AURORA,"13700 East Colfax Avenue
Suite H",Aurora,CO,80011
CASTLE ROCK,"4989 Factory Shops Blvd
Unit A-230",Castle Rock,CO,80108
CENTENNIAL,"6583 S Parker Road
Suite 200",Centennial,CO,80016
COLORADO SPRINGS,737 N Academy Blvd,Colorado Springs,CO,80909
COLORADO SPRINGS,1710 E Woodmen Rd,Colorado Springs,CO,80920
COLORADO SPRINGS,5855 Constitution Ave,Colorado Springs,CO,80915
COLORADO SPRINGS,559 S. 8th Street,Colorado Springs,CO,80905
COLORADO SPRINGS,1250 Interquest Parkway,Colorado Springs,CO,80921
VENETUCCI BLVD.,"4451 Venetucci Blvd
Suite 120",Colorado Springs,CO,80906
COLORADO SPRINGS,"3012 N Nevada Avenue
Unit #100",Colorado Springs,CO,80907
COLORADO SPRINGS,"7980 Woodmen Center Hts.
Ste. 110",Colorado Springs,CO,80908
COMMERCE CITY,"10430 Chambers Rd
Unit #1300",Commerce City,CO,80022
THE SHOPS AT 6TH & BROADWAY,"555 Broadway
Unit 9",Denver,CO,80203
DENVER,"1390 S. Colorado Blvd.
Suite 150",Denver,CO,80222
DENVER,8381 E. Northfield Blvd,Denver,CO,80238
DENVER,"6691 North Tower Road
#107",Denver,CO,80249
ENGLEWOOD,"4989 S. Broadway
Suite B",Englewood,CO,80113
ENGLEWOOD,"697 West Hampden Avenue
Suite 102",Englewood,CO,80110
ERIE,"2120 Village Vista Drive
Suite 170",Erie,CO,80516
FEDERAL HEIGHTS,"2690 W. 104th Ave
Suite 140",Federal Heights,CO,80234
FIRESTONE,"4265 City Centre Rd
Suite 100",Firestone,CO,80504
FORT COLLINS,"4709 S. Timberline Rd.
#103",Fort Collins,CO,80528
FOUNTAIN,"6825 Mesa Ridge Parkway
Ste. 150",Fountain,CO,80817
GRAND JUNCTION,"1201 Wellington Avenue
Suite 104",Grand Junction,CO,81501
GREELEY,"4365 Centerplace Drive
Suite 200",Greeley,CO,80634
SUNCREST PLAZA SHOPPING CENTER,"5137 South Yosemite St.
Suncrest Plaza Shopping Center",Greenwood Village,CO,80111
GREENWOOD VILLAGE,"8575 East Arapahoe Rd
Unit A",Greenwood Village,CO,80112
HIGHLANDS RANCH,"9362 S. Colorado Blvd.
Ste. 0-4",Highlands Ranch,CO,80126
JOHNSTOWN,4936 Thompson Parkway,Johnstown,CO,80534
LAFAYETTE,535 W South Boulder Road,Lafayette,CO,80026
LAKEWOOD,1509 Wadsworth Blvd,Lakewood,CO,80214
LAKEWOOD,180 S. Union Blvd.,Lakewood,CO,80228
LITTLETON,"7961 S. Broadway
Suite C",Littleton,CO,80122
LITTLETON,"10278 W Centennial Road
#102",Littleton,CO,80127
LONE TREE,"9400 Heritage Hills Circle
Ste. 300",Lone Tree,CO,80124
LONGMONT,1232 South Hover Road,Longmont,CO,80501
MAIN STREET MARKETPLACE,"1749 North Main Street
Suite B",Longmont,CO,80501
LOUISVILLE,"321 South McCaslin Blvd.
Suite C",Louisville,CO,80027
MONUMENT,"16152 Jackson Creek Parkway
Suite 120",Monument,CO,80132
PARKER,"18366 E. Lincoln Avenue
Suite 107",Parker,CO,80134
PARKER,"12235 Pine Bluffs Way
Suite 105",Parker,CO,80134
PUEBLO,"2009 South Pueblo Blvd
Unit B",Pueblo,CO,81005
THORNTON TOWN CENTER,"10005 Grant Street
Unit A",Thornton,CO,80229
WESTMINSTER,12003 N. Pecos Street,Westminster,CO,80234
WESTMINSTER,"10398 Reed Street
Suite 100",Westminster,CO,80021
WESTMINSTER,"7159 W. 88th Avenue
Unit 100",Westminster,CO,80021
WESTMINSTER,"14452 Orchard Parkway
Suite 500",Westminster,CO,80023
WHEAT RIDGE,"5095 Kipling Street
Suite 110",Wheat Ridge,CO,80033
WHEAT RIDGE,"3294 Youngfield Street
Suite E",Wheat Ridge,CO,80033
BRANFORD,845 West Main Street,Branford,CT,06405
BRISTOL,641 Farmington Ave,Bristol,CT,06010
BROOKFIELD,227 Federal Rd,Brookfield,CT,06804
CHESHIRE,"959 South Main Street
Suite B",Cheshire,CT,06410
COLCHESTER,95 Linwood Avenue,Colchester,CT,06415
DANBURY,72 Newtown Road,Danbury,CT,06810
DERBY,50 Pershing Dr.,Derby,CT,06418
ENFIELD,39 Hazard Ave,Enfield,CT,06082
FAIRFIELD,2189 Black Rock Turnpike,Fairfield,CT,06825
GLASTONBURY,"2941 Main Street
Unit B",Glastonbury,CT,06033
GREENWICH,1245 East Putnam Ave,Greenwich,CT,06878
GROTON,258 Route 12,Groton,CT,06340
GUILFORD,874 Boston Post Road,Guilford,CT,06437
HAMDEN,"2100 Dixwell Ave
Suite 400",Hamden,CT,06514
KENSINGTON,1041B Farmington Avenue,Kensington,CT,06037
MADISON,611 Boston Post Road,Madison,CT,06443
MANCHESTER,1500A Pleasant Valley Road,Manchester,CT,06042
TOWNLINE SQUARE,533 S. Broad Street,Meriden,CT,06450
MIDDLETOWN,808 Washington Street,Middletown,CT,06457
MILFORD,1599 Boston Post Road,Milford,CT,06460
MONROE,143 Purdy Hill Road,Monroe,CT,06468
NEWINGTON,12 B Fenn Road,Newington,CT,06111
NEW MILFORD,"169 Danbury Road
Suite 103",New Milford,CT,06776
NORTH HAVEN,410 Universal Drive,North Haven,CT,06473
NORTH HAVEN,146 Washington Ave.,North Haven,CT,06473
NORWALK,360 Connecticut Ave,Norwalk,CT,06854
NORWICH,"36-44 Town St
Unit 501 B",Norwich,CT,06360
OXFORD,"116 Main Street
Unit D102",Oxford,CT,06478
PLAINVILLE,359 New Britain Avenue,Plainville,CT,06062
RIDGEFIELD,"125 Danbury Road
Cops Hill Plaza",Ridgefield,CT,06877
ROCKY HILL,38 Town Line Road,Rocky Hill,CT,06067
SHELTON,795 Bridgeport Ave,Shelton,CT,06484
SIMSBURY,710 Hopmeadow Street,Simsbury,CT,06070
SOUTHINGTON,812 Queen Street,Southington,CT,06489
STAMFORD,1209 High Ridge Road,Stamford,CT,06905
TORRINGTON,1885 East Main Street,Torrington,CT,06790
MOHEGAN SUN,1 Mohegan Sun Blvd,Uncasville,CT,06382
WATERBURY,901 Wolcott Street,Waterbury,CT,06705
WATERFORD,909 Hartford Turnpike,Waterford,CT,06385
WATERTOWN,595 Straits Turnpike,Watertown,CT,06795
RELOCATING,"398 Post Road East
Suite 20",Westport,CT,06880
WILTON,35 Danbury Road,Wilton,CT,06897
CAMDEN,32 East Street,Camden,DE,19934
CHRISTIANA,3250 Fashion Center Blvd.,Christiana,DE,19702
DOVER,1211 North DuPont Hwy,Dover,DE,19901
MIDDLETOWN,1004-D Bunker Hill Road,Middletown,DE,19709
MILFORD,641 North Dupont Highway,Milford,DE,19963
MILLSBORO,"28662 Dupont Blvd.
Suite 3",Millsboro,DE,19966
NEWARK,1107 S. College Ave,Newark,DE,19713
THE GROVE,310 College Square,Newark,DE,19711
REHOBOTH BEACH,"18598 Coastal Highway
Unit 2",Rehoboth Beach,DE,19971
SEAFORD,"22822 Sussex Highway
Suite 18",Seaford,DE,19973
WILMINGTON,3604 Kirkwood Highway,Wilmington,DE,19808
DAKOTA CROSSINGS,"2440 Market Street NE
Suite #903",Washington,DC,20018
UNION STATION WASHINGTON D.C.,"50 Massachusetts Ave NE
Lower Level-L025",Washington,DC,20002
RHODE ISLAND ROW,"2300 Washington Pl. N.E.
Ste. 125",Washington DC,DC,20018
ALTAMONTE SPRINGS,"175 East Altamonte Drive
Unit 1030",Altamonte Springs,FL,32701
ALTAMONTE SPRINGS,"851 S. State Rd. 434
Suite 1020",Altamonte Springs,FL,32714
APOPKA,450 S. Hunt Club Blvd.,Apopka,FL,32703
APOPKA,"3050 Kelly Park Rd
#101",Apopka,FL,32712
ATLANTIC BEACH,763 Atlantic Blvd,Atlantic Beach,FL,32233
AVENTURA,"18719 Biscayne Boulevard
Suite 310",Aventura,FL,33180
SOMERSET SHOPPES,8903 Glades Road,Boca Raton,FL,33434
BOCA RATON,"7050 West Palmetto Park Road
Suite 32",Boca Raton,FL,33433
THE SHOPPES AT BLUE LAKE,1200 Yamato Rd.,Boca Raton,FL,33431
BONITA SPRINGS,"8951 Bonita Beach Road
Suite 250",Bonita Springs,FL,34135
BONITA SPRINGS,24830 S Tamiami Trail,Bonita Springs,FL,34134
BOYNTON SHOPS,"2260 Woolbright Rd.
Boynton Shops",Boynton Beach,FL,33426
BOYNTON BEACH,"1780 N Congress Ave
Ste. 700",Boynton Beach,FL,33426
CENTER POINT COMMONS SHOPPING CENTER,4020 14th St. W.,Bradenton,FL,34205
BRADENTON,"5820 Ranch Lake Blvd
Unit 106B",Bradenton,FL,34202
BRADENTON,4306 State Road 64 East,Bradenton,FL,34208
CAUSEWAY SHOPPES,10951 Causeway Blvd,Brandon,FL,33511
BRANDON,1248 E Brandon Blvd,Brandon,FL,33511
BRANDON,977 E. Bloomingdale Ave.,Brandon,FL,33511
BROOKSVILLE,12376 Cortez Blvd,Brooksville,FL,34613
CAPE CORAL,1751 NE Pine Island Road,Cape Coral,FL,33909
CAPE CORAL,1806 Del Prado Blvd. S.,Cape Coral,FL,33990
CELEBRATION,1651 Future Way,Celebration,FL,34747
CHAMPIONSGATE,8258 Championsgate Blvd.,Championsgate,FL,33896
CLEARWATER,2687 Roosevelt Blvd,Clearwater,FL,33760
CLEARWATER,2560B McMullen Booth Rd.,Clearwater,FL,33761
CLEARWATER,"2420 Gulf to Bay Boulevard
STE 103",Clearwater,FL,33765
CLERMONT,2441 S. Hwy 27,Clermont,FL,34711
COCOA BEACH,"5675 N. Atlantic Blvd.
Unit 115",Cocoa Beach,FL,32931
TURTLE CROSSING SHOPPING CENTER,4230 North State Rd 7,Coral Springs,FL,33073
CORAL SPRINGS,"1750 N. University Drive
Suite 114",Coral Springs,FL,33071
CRESTVIEW,"1375 North Ferdon Boulevard
Unit 110",Crestview,FL,32536
CRYSTAL RIVER,6826 W Gulf to Lake Hwy,Crystal River,FL,34429
DAVENPORT,"49591 US Highway 27
Suite 401",Davenport,FL,33897
DAVIE,4422 Weston Road,Davie,FL,33331
DAVIE,"5840 S University Dr.
Suite 104",Davie,FL,33328
DAYTONA BEACH,"1808 W. International Speedway Blvd.
Unit 401",Daytona Beach,FL,32114
DAYTONA BEACH,1425C Cornerstone Blvd.,Daytona Beach,FL,32117
E. HILLSBORO & FEDERAL,1069 E. Hillsboro Blvd,Deerfield Beach,FL,33441
HILLSBORO AND POWERLINE,3305 West Hillsboro Boulevard,Deerfield Beach,FL,33442
DELAND,2375 South Woodland Blvd.,DeLand,FL,32720
DELRAY BEACH,455-A NE 5th Avenue,Delray Beach,FL,33483
DESTIN,866 US 98,Destin,FL,32541
DORAL,10737 NW 58th Street,Doral,FL,33178
DORAL,"3737 NW 87th Ave
Suite 104",Doral,FL,33178
DUNEDIN,"1785 Main Street
Suite 102",Dunedin,FL,34698
ESTERO,"19521 Highland Oaks Drive
Suite 302",Estero,FL,33928
SADLER CROSSING,1464 Sadler Rd.,Fernandina Beach,FL,32034
FLEMING ISLAND,"1560 Business Center Dr
Suite 1B",Fleming Island,FL,32003
FORT LAUDERDALE (VICTORIA PARK),648 N Federal Highway,Fort Lauderdale (Victoria Park),FL,33304
FORT MYERS,"12377 S. Cleveland Ave.
Suite 18",Fort Myers,FL,33907
FORT MYERS,"6810 Shoppes at Plantation Drive
Suite 4",Fort Myers,FL,33912
FORT MYERS,"4600 Summerlin Rd.
Suite C3",Fort Myers,FL,33919
FORT MYERS,"7935 Dani Drive
Suite 140",Fort Myers,FL,33966
SABAL PALM PLAZA,2415 S US Highway1,Fort Pierce,FL,34982
FORT WALTON BEACH,167 Eglin Parkway NE,Fort Walton Beach,FL,32548
FREEPORT,"16400 US Highway 331 S
Unit #A2",Freeport,FL,32439
FT. LAUDERDALE,6300 N. Andrews Avenue,Ft. Lauderdale,FL,33309
FT. LAUDERDALE,4700 N Federal Highway,Ft. Lauderdale,FL,33308
GAINESVILLE,2015 NW 43rd St.,Gainesville,FL,32605
GAINESVILLE,3720 NW 13th Street,Gainesville,FL,32609
GAINESVILLE,2803 SW 42nd Street,Gainesville,FL,32608
GULF BREEZE,850 Gulf Breeze Parkway,Gulf Breeze,FL,32561
HALLANDALE BEACH,"800 E. Hallandale Beach Boulevard
Unit 9",Hallandale Beach,FL,33009
HOLLYWOOD,3267 Hollywood Blvd.,Hollywood,FL,33021
HOMESTEAD,3322 NE 8th Street,Homestead,FL,33033
INDIALANTIC,100 Fifth Avenue,Indialantic,FL,32903
INVERNESS,1070 West Main Street,Inverness,FL,34450
JACKSONVILLE,4261-5 Roosevelt Blvd.,Jacksonville,FL,32210
JACKSONVILLE,9700 Deer lake court,Jacksonville,FL,32246
JACKSONVILLE,3541-1 University Blvd W,Jacksonville,FL,32217
JACKSONVILLE,"7091 Collins Road
Suite 205",Jacksonville,FL,32244
JACKSONVILLE,"13820 Old St. Augustine Rd
Ste.137",Jacksonville,FL,32258
JACKSONVILLE,"8050 Phillips Hwy
Unit 4",Jacksonville,FL,32256
JACKSONVILLE,13423 Beach Blvd.,Jacksonville,FL,32246
JACKSONVILLE,"10991 San Jose Blvd.
Suite 6",Jacksonville,FL,32223
JACKSONVILLE,"9711 Applecross Road
Unit B",Jacksonville,FL,32222
JACKSONVILLE,"725 Nautica Drive
Suite 100",Jacksonville,FL,32218
JENSEN BEACH,"3189 NW Federal Hwy
Market Place Square",Jensen Beach,FL,34957
CHASEWOOD PLAZA ON INDIANTOWN & CENTRAL,"6390 West Indiantown Road
Suite 34",Jupiter,FL,33458
ABACOA PLAZA,"5500 Military Trail
Ste. 8",Jupiter,FL,33458
TJ MAXX PLAZA NEXT TO JOHNNY MANGOES,"71 East Indiantown Road
Suite 801",Jupiter,FL,33477
JUPITER FARMS,10128 W Indiantown Rd,Jupiter Farms,FL,33478
KEY WEST,2798 North Roosevelt Boulevard,Key West,FL,33040
KISSIMMEE,8126 W. Irlo Bronson Memorial Hwy.,Kissimmee,FL,34747
LADY LAKE,674 US Highway 441 N,Lady Lake,FL,32159
LAKE CITY,"2888 US Hwy 90 West
Suite 105",Lake City,FL,32055
LAKELAND,3801 US Highway 98N,Lakeland,FL,33809
LAKELAND,"3540 Harden Blvd
Suite 103",Lakeland,FL,33803
CORNERSTONE AT LAKE MARY,"819 Rinehart Road
Cornerstone at Lake Mary",Lake Mary,FL,32746
LAND O LAKES,2081 Collier Parkway,Land O Lakes,FL,34639
LAND O’LAKES,17790 Aprile Drive,Land O’Lakes,FL,34638
LARGO,"10500 Ulmerton Road
Suite 208",Largo,FL,33771
LAUDERHILL,5413 N University Dr,Lauderhill,FL,33351
LONGWOOD,"2401 West SR 434
Suite E149",Longwood,FL,32779
VAN DYKE COMMONS (LUTZ/ODESSA AREA),17471 N. Dale Mabry Hwy.,Lutz,FL,33548
LYNN HAVEN,"2105 Hwy. 77 South
Unit 5",Lynn Haven,FL,32444
MELBOURNE,"1515 Palm Bay Road
Unit 160",Melbourne,FL,32905
SARNO,1070 N. Wickham Road Suite 102A,Melbourne,FL,32935
MELBOURNE,90 West Hibiscus Blvd,Melbourne,FL,32901
SUNTREE LOCATION,"6395 North Wickham Rd
Suite B101",Melbourne,FL,32940
MERRITT ISLAND,700 E. Merritt Island Causeway,Merritt Island,FL,32952
SOUTH KENDALL SQUARE S/C,12536 SW 120th Street,Miami,FL,33186
MIAMI,"1700 NW 117th Place
#102",Miami,FL,33182
MIAMI,9001 SW 107th Ave,Miami,FL,33176
MIAMI,13668 SW 88th Street,Miami,FL,33186
MIAMI,5600 Blue Lagoon Drive,Miami,FL,33126
MIAMI LAKES,15145 NW 67th Ave,Miami Lakes,FL,33014
MINNEOLA,"1683 North Hancock Road
Suite #104",Minneola,FL,34715
MIRAMAR,2945 SW 160th Ave,Miramar,FL,33027
MIRAMAR RED ROAD,"11225 Miramar Parkway
Suite 220",Miramar,FL,33025
MOUNT DORA,17256 US Highway 441,Mount Dora,FL,32757
NAPLES,"1016 Immokalee Road
Unit 204",Naples,FL,34110
NAPLES,"5040 Tamiami Trail East
Suite 200",Naples,FL,34113
NAPLES,"6845 Collier Blvd
Suite 105",Naples,FL,34114
NAPLES,"9985 Business Circle
Unit 6",Naples,FL,34112
NAVARRE,"8191 Navarre Parkway
Unit 12B",Navarre,FL,32566
NEW PORT RICHEY,8263 Little Rd.,New Port Richey,FL,34654
THE VILLAGE AT MITCHELL RANCH,3252 Redeemer Way,New Port Richey,FL,34655
NICEVILLE,"1384 E. John Sims Pkwy
Suite 3",Niceville,FL,32578
NORTH PORT,17247 Tamiami Trail,North Port,FL,34287
OCALA,"2602 SW 19th Avenue Road
Suite 106",Ocala,FL,34471
OCALA,"8075 SW Hwy 200
Suite 121",Ocala,FL,34481
OCALA,2647 NE 35th Street,Ocala,FL,34479
OCALA,"2785 NW 49th Avenue
Suite 101",Ocala,FL,34482
OCOEE,"10588 W. Colonial Drive
Unit 105",Ocoee,FL,34761
OKEECHOBEE,611 West South Park St.,Okeechobee,FL,34972
OLDSMAR,"3860 Tampa Road
Unit A",Oldsmar,FL,34677
ORANGE CITY,2572 Enterprise Road,Orange City,FL,32763
ORANGE PARK,410 Blanding Blvd,Orange Park,FL,32073
SHOPPES AT WINDER OAKS,"6700 Conroy Rd., Suite 100A",Orlando,FL,32835
WATERFORD LAKES PLAZA,12420 Lake Underhill Rd,Orlando,FL,32828
UNIVERSITY SHOPPES,"3402 Technological Ave.
University Shoppes",Orlando,FL,32817
ORLANDO,"3042 W. Sandlake Rd.
Ste. 1B",Orlando,FL,32819
ORLANDO,2100 Edgewater Dr.,Orlando,FL,32804
ORLANDO,"13651 Hunters Oak Dr.
Suite 103",Orlando,FL,32837
ORLANDO,6607 S. Semoran Blvd.,Orlando,FL,32822
ORLANDO,"12278 Narcoossee Road
Suite 103",Orlando,FL,32832
ORLANDO INTL. AIRPORT GATES 100-129,9202 Jeff Fuqua Blvd.,Orlando,FL,32827
ORLANDO,"3155 S. Orange Avenue
Suite 104",Orlando,FL,32806
ORLANDO,"1675 North Avalon Park North Boulevard
Suite 120",Orlando,FL,32828
ORLANDO,"8675 Fenton St
Suite 110",Orlando,FL,32836
ORLANDO,"10208 Curry Ford Road
Suite 106",Orlando,FL,32825
ORMOND BEACH,"1474 W. Granada Blvd.
Ste. 25",Ormond Beach,FL,32174
OVIEDO,1797 E. Broadway Street,Oviedo,FL,32765
PACE,4792 Hwy 90,Pace,FL,32571
PALM BEACH,"3333 Northlake Blvd
Ste. 7",Palm Beach,FL,33403
PALM BEACH GARDENS EAST,11604 US Highway 1,Palm Beach Gardens,FL,33408
MIRASOL WALK - PALM BEACH GARDENS,"6231 PGA Boulevard
Suite 116",Palm Beach Gardens,FL,33418
PALM COAST,"250 Palm Coast Parkway
Suite 204",Palm Coast,FL,32137
PALM HARBOR,33130 US Hwy 19 N,Palm Harbor,FL,34684
PANAMA CITY,741 W 23rd Street,Panama City,FL,32405
PANAMA CITY BEACH,"15750 Panama City Beach Pkwy.
Unit 240",Panama City Beach,FL,32413
PARKLAND,7011 N. State Road 7,Parkland,FL,33073
PARRISH,"8980 US 301 N
Suite 130",Parrish,FL,34219
PINES VILLAGE,16030 Pines Blvd.,Pembroke Pines,FL,33027
PEMBROKE PINES,2124 N Flamingo Rd,Pembroke Pines,FL,33028
CORDOVA COMMONS,"1620 Airport Blvd
Suite 100A",Pensacola,FL,32504
PENSACOLA,"2150 West Nine Mile Rd
Suite B",Pensacola,FL,32534
PENSACOLA,"503 N Navy Blvd.
Unit D",Pensacola,FL,32507
PENSACOLA,"1670 E. Nine Mile Road
Suite B",Pensacola,FL,32514
PINECREST,9473 S. Dixie Highway,Pinecrest,FL,33156
THE SHOPPES AT PARK PLACE,7066 US Highway 19N,Pinellas Park,FL,33781
PLANTATION,6959 West Broward Blvd.,Plantation,FL,33317
PLANT CITY,"504 E Alexander Street
Suite 19",Plant City,FL,33563
POMPANO BEACH,"2350 N Federal Hwy
Suite 102",Pompano Beach,FL,33062
NOCATEE TOWNE CENTER,"152 Capital Green Drive
Suite 36",Ponte Vedra Beach,FL,32081
PORT CHARLOTTE,"1804 Tamiami Trl.
Suite E-6",Port Charlotte,FL,33948
DUNLAWTON SQUARE,"3843 South Nova Road
Dunlawton Square",Port Orange,FL,32127
PORT ST LUCIE,"262 SW Port St. Lucie Blvd.
Key Lime Plaza",Port St Lucie,FL,34984
PORT ST. LUCIE,1405 NW St. Lucie West Blvd,Port St. Lucie,FL,34986
INNOVATION PLAZA,"11200 SW Village Parkway
Suite 105",Port St. Lucie,FL,34987
PUNTA GORDA,"1001 Tamiami Trail
Unit 113",Punta Gorda,FL,33950
RIVERVIEW,10175 Big Bend Rd,Riverview,FL,33578
RIVERVIEW,9916 Upper Alafia Court,Riverview,FL,33578
ROYAL PALM BEACH,250 South State Road 7,Royal Palm Beach,FL,33414
TJ MAXX PLAZA,3820 S. Tuttle Ave.,Sarasota,FL,34239
SARASOTA,5867 Fruitville Road,Sarasota,FL,34232
SARASOTA,2031 Bahia Vista Street,Sarasota,FL,34239
SARASOTA,3414 Clark Rd.,Sarasota,FL,34231
SEBASTIAN,13513 US Highway 1,Sebastian,FL,32958
SEBRING,2066 US Hwy. 27 North,Sebring,FL,33870
SEMINOLE CITY CENTER,11167 Park Blvd - F,Seminole,FL,33772
SPRING HILL,1376 Pinehurst Drive,Spring Hill,FL,34606
ST. AUGUSTINE,"833 S Ponce de Leon Blvd
Unit 2",St. Augustine,FL,32084
ST. AUGUSTINE,"1077 A1A Beach Boulevard
Unit 30",St. Augustine,FL,32080
ST. AUGUSTINE,"70 Silver Forest Drive
Suite 105",St. Augustine,FL,32092
ST. CLOUD,4437 13th Street,St. Cloud,FL,34769
ST. JOHNS,"255 Rivertown Shops Drive
Suite 109",St. Johns,FL,32259
ST. PETE BEACH,4695 Gulf Blvd,St. Pete Beach,FL,33706
ST. PETERSBURG,"10304 Roosevelt Blvd. N
Corner of Roosevelt & Gandy Blvd.",St. Petersburg,FL,33716
ST. PETERSBURG,3832 Tyrone Boulevard North,St. Petersburg,FL,33709
ST. PETERSBURG,1700 4th Street N,St. Petersburg,FL,33704
INDIAN STREET SHOPPES,3321 SE Federal Hwy,Stuart,FL,34997
SUNRISE,"137 NW 136th Ave
Suite B-110",Sunrise,FL,33325
SUNRISE,10103 W. Oakland Park Boulevard,Sunrise,FL,33351
VARSITY SHOPPING CENTER,1801 West Tennessee St. #4,Tallahassee,FL,32304
TALLAHASSEE,"1355 Market St.
Ste. A-6",Tallahassee,FL,32312
MAHAN VILLAGE,"3122 Mahan Drive
Ste. 301",Tallahassee,FL,32308
TALLAHASSEE,1970 Gainesborough Drive #1,Tallahassee,FL,32311
OAK RAMBLE PLAZA,"14925 Bruce B Downs Blvd.
Suite 401",Tampa,FL,33613
MARKETPLACE NORTH,"14839 North Dale Mabry Highway
(Corner of W. Bearss Ave.)",Tampa,FL,33618
TAMPA,2121 W. Kennedy Blvd,Tampa,FL,33606
TAMPA,6917 Gunn Highway,Tampa,FL,33625
CARROLLWOOD CENTER (GREATER CARROLLWOOD AREA),10051 N Dale Mabry Highway,Tampa,FL,33618
TAMPA,"3684 W. Gandy Blvd.
Ste. 206",Tampa,FL,33611
TAMPA,9464 W Linebaugh Ave.,Tampa,FL,33626
TARPON SPRINGS,41042 US 19 North,Tarpon Springs,FL,34689
TEMPLE TERRACE,"8912 Bertha Palmer Blvd
Unit B",Temple Terrace,FL,33617
THE VILLAGES,274 Buena Vista Boulevard,The Villages,FL,32162
THE VILLAGES,659 Kristine Way,The Villages,FL,32163
TRINITY,10829 State route 54,Trinity,FL,34655
UNIVERSITY PARK,8210 Tourist Center Drive,University Park,FL,34201
JACARANDA PLAZA,1665 US 41 Bypass S,Venice,FL,34293
VERO BEACH,628 21st Street,Vero Beach,FL,32960
VERO BEACH,"1225 Us Hwy 1
Suite 1",Vero Beach,FL,32960
VERO BEACH,"5135 20th Street
Suite 102",Vero Beach,FL,32966
VIERA,"2338 Citadel Way
Suite 101",Viera,FL,32940
VILLAGE OF GOLF,"11800 South Military Trail
Suite 103",Village of Golf,FL,33436
SHOPPES AT NEW TAMPA,1662 Bruce B Downs Blvd,Wesley Chapel,FL,33544
WESLEY CHAPEL,28870 State Rd 54,Wesley Chapel,FL,33543
WEST BRADENTON,6737 Manatee Ave West,West Bradenton,FL,34209
VILLAGE COMMONS SHOPPING CENTER,"931 Village Blvd
Suite 907",West Palm Beach,FL,33409
WEST PALM BEACH,1900 Okeechobee Blvd.,West Palm Beach,FL,33409
WILDWOOD,"5625 Seven Mile Drive
Suite 108",Wildwood,FL,34785
WESTSIDE SHOPPES,"6507 Old Brick Road
Suite 140",Windermere,FL,34786
WINTER GARDEN,"10658 Avalon Rd
Unit 130",Winter Garden,FL,34787
WINTER GARDEN,"3310 Daniels Rd
Ste. 108",Winter Garden,FL,34787
WINTER HAVEN,610 Cypress Gardens Blvd.,Winter Haven,FL,33880
WINTER PARK,4004 Goldenrod Rd.,Winter Park,FL,32792
WINTER PARK,1150 South Orlando Ave.,Winter Park,FL,32789
WINTER PARK,1951 Aloma Avenue,Winter Park,FL,32792
WINTER SPRINGS,"5697 Red Bug Lake Road
Ste 14",Winter Springs,FL,32708
WINTER SPRINGS,"1194 Cliff Rose Dr
Suite D1194",Winter Springs,FL,32708
YULEE,"463913 State Road 200
Suite 7",Yulee,FL,32097
ZEPHYR COMMONS,7890 Gall Blvd.,Zephyrhills,FL,33541
ALPHARETTA,"4075 Old Milton Pkwy.
Suite 6",Alpharetta,GA,30005
ALPHARETTA,"12850 Alpharetta Highway
Suite 1000",Alpharetta,GA,30004
ALPHARETTA,"5665 Atlanta Highway
Suite 105",Alpharetta,GA,30004
ATHENS,"690 US Highway 29
Suite 125",Athens,GA,30601
ATLANTA,"55 Marietta Street NW
Suite 150",Atlanta,GA,30303
CHEROKEE PLAZA SHOPPING CENTER,3895 Peachtree Road North East,Atlanta,GA,30319
ATLANTA,3740 Roswell Road,Atlanta,GA,30342
ATLANTA,"2020 Howell Mill Road
Suite C",Atlanta,GA,30318
BRIGHTEN PARK,"2470 Briarcliff Rd.
Suite 45",Atlanta,GA,30329
VININGS VILLAGE SHOPPING CENTER,"4715 South Atlanta Road
Suite 304",Atlanta,GA,30339
ATLANTA,2014 Powers Ferry Road #300,Atlanta,GA,30339
EMBRY VILLAGE,3489A Chamblee Tucker Road,Atlanta,GA,30341
CAMP CREEK STATION,"6035 Bakers Ferry Rd.
Suite 280",Atlanta,GA,30336
ATLANTA,"227 Sandy Springs Place NE
Suite 102",Atlanta,GA,30328
ATLANTA,"Hartsfield-Jackson Atlanta Airport
Terminal C",Atlanta,GA,30324
ATLANTA,"1245 Caroline Street NE
Suite 100",Atlanta,GA,30307
ATLANTA,749 Sidney Marcus BLVD NE,Atlanta,GA,30324
ATLANTA,"1155 Mount Vernon Highway
Suite 1050",Atlanta,GA,30338
ATLANTA,"572 Hank Aaron Drive SE
Suite 1140",Atlanta,GA,30312
PEACHTREE CENTER-THE HUB,"225 Peachtree Street NE
Suite #: FC05",Atlanta,GA,30303
AUGUSTA,2823 Washington Rd.,Augusta,GA,30909
AUGUSTA,"466 Flowing Wells Rd
Suite 2",Augusta,GA,30907
AUGUSTA,"4103 Madeline Drive
Suite 108",Augusta,GA,30909
AUGUSTA,217 Robert C Daniel Jr Pkwy,Augusta,GA,30909
AUSTELL,"1680 East West Connector SW
Suite 104",Austell,GA,30106
BETHLEHEM,"920 Loganville Highway
Suite B",Bethlehem,GA,30620
BONAIRE,"794 Highway 96
Suite 202",Bonaire,GA,31005
BRASELTON,"5748 Old Winder Highway
Suite 200",Braselton,GA,30517
BREMEN,"1623 Alabama Ave. S
Suite B",Bremen,GA,30110
BRUNSWICK,"103 Village at Glynn Place
Unit 740",Brunswick,GA,31525
BUFORD,"2925 Buford Drive
Suite 1225",Buford,GA,30519
BUFORD,"3280 Hamilton Mill Road
Suite 301",Buford,GA,30519
RIVERSTONE VILLAGE,"149 Reinhardt College Pkwy.
Suite 4, Riverstone Village",Canton,GA,30114
CANTON,"2249 Cumming Hwy
Suite 108",Canton,GA,30115
CARROLLTON,"1670 US Hwy. 27
Suite 800",Carrollton,GA,30117
COAL MOUNTAIN,3675 Browns Bridge Road,Coal Mountain,GA,30028
COLUMBUS,"1640 Rollins Way
Ste. 400",Columbus,GA,31904
COLUMBUS,"4519 Woodruff Road
Suite 3",Columbus,GA,31904
COLUMBUS,"6901 Ray Wright Way
Suite L",Columbus,GA,31909
COLUMBUS,"8100 Veterans Pkwy
Suite 140",Columbus,GA,31909
CONYERS,1550 Hwy 138 E,Conyers,GA,30013
CORNELIA,216 Carpenters Cove Lane,Cornelia,GA,30531
COVINGTON,10333 Industrial Blvd.,Covington,GA,30014
CUMMING,"906 Marketplace Blvd.
Suite 103",Cumming,GA,30041
CUMMING,"3610 Era Dr
Suite A-3",Cumming,GA,30028
DACULA,"952 Harbins Road
Suite 403",Dacula,GA,30019
DALTON PLAZA,"1367 W. Walnut Ave
Dalton Plaza",Dalton,GA,30720
DAWSONVILLE,"145 Forest Boulevard
Suite 425",Dawsonville,GA,30534
DECATUR,"187 N. Arcadia Avenue
Suite 240",Decatur,GA,30030
DOUGLAS,"1301 Peterson Avenue South
Suite A",Douglas,GA,31533
DOUGLASVILLE,"9478 Hwy.5
Suite C",Douglasville,GA,30135
DULUTH,"3675 Satellite Blvd
Suite 735",Duluth,GA,30096
DUNWOODY,2458 Jett Ferry Road; Suite 220,Dunwoody,GA,30338
ELLENWOOD,"222 Fairview Road
Suite B",Ellenwood,GA,30294
ELLIJAY,"29 Highland Drive
Suite 101",Ellijay,GA,30540
EVANS,"4239 Washington Rd
Suite 7",Evans,GA,30809
FAIRBURN,"8030 Senoia Road
Suite 600",Fairburn,GA,30213
FAYETTEVILLE,"1175 Hwy 85 N
Suite 130",Fayetteville,GA,30214
FORT OGLETHORPE,1415 Dietz Road,Fort Oglethorpe,GA,30736
GAINESVILLE,"1134 Dawsonville Highway
Suite 102",Gainesville,GA,30501
GREENSBORO,"2485 Towne Center Parkway
Suite 103",Greensboro,GA,30642
GROVETOWN,"4010 Gateway Blvd.
Ste. 4",Grovetown,GA,30813
HINESVILLE,"849 West Oglethorpe Hwy
Suite 130",Hinesville,GA,31313
HIRAM,4373 Jimmy Lee Smith Pkwy,Hiram,GA,30141
HOLLY SPRINGS,"5341 Old Highway 5
Suite 203",Holly Springs,GA,30188
JASPER,"28 Bill Wigington Pkwy
Suite 102",Jasper,GA,30143
JEFFERSON,"85 Old Farm Road
Unit 150",Jefferson,GA,30549
JESUP,153 S. 1st. Street,Jesup,GA,31545
JOHNS CREEK,11300 Medlock Bridge Road,Johns Creek,GA,30097
JOHNS CREEK,"8483 Holcomb Bridge Road
Suite B",Johns Creek,GA,30022
JOHNS CREEK,"5855 State Bridge Rd
Suite 100",Johns Creek,GA,30097
JONESBORO,10359 Tara Boulevard,Jonesboro,GA,30236
KENNESAW,"840 Ernest W. Barrett Pkwy NW
Suite 122",Kennesaw,GA,30144
KENNESAW,3139 Cobb Parkway NW,Kennesaw,GA,30152
LAGRANGE,"2120 Vernon St
Suite 109",LaGrange,GA,30240
RELOCATING,,Lawrenceville,GA,
LAWRENCEVILLE,"938 Duluth Highway
Suite C-1",LAWRENCEVILLE,GA,30043
LITHIA SPRINGS,"639 Thornton Road
Suite 114",Lithia Springs,GA,30122
LOGANVILLE,"4211 Atlanta Hwy
Suite 300",Loganville,GA,30052
MACON,5005 Riverside Drive,Macon,GA,31210
MARIETTA,"2960 Shallowford Road
Suite 106",Marietta,GA,30066
MERCHANTS EXCHANGE,"4400 Roswell Road
Suite 148",Marietta,GA,30062
MARIETTA,"1050 E Piedmont Rd
Suite 124",Marietta,GA,30062
MARIETTA,"3805 Dallas Hwy. SW
Suite 814",Marietta,GA,30064
MARIETTA,"1721 Powder Springs Rd SW
Suite 108",Marietta,GA,30064
MARTINEZ,"403 Fury's Ferry Rd.
Suite 115",Martinez,GA,30907
MCDONOUGH,1504 Georgia Highway 20 W,McDonough,GA,30253
MCDONOUGH,2050 Jonesboro Road,McDonough,GA,30253
MILLEDGEVILLE,"2789 North Columbia Street
Suite F",Milledgeville,GA,31061
MONROE,700 Pavilion Pkwy,Monroe,GA,30656
MORROW,"7096 Mount Zion Blvd
Suite 400",Morrow,GA,30260
NEWNAN,"90 Glenda Trace
Suite O",Newnan,GA,30265
NEWNAN,733 Bullsboro Drive,Newnan,GA,30265
PEACHTREE CITY,"100 N Peachtree Parkway
Suite 14",Peachtree city,GA,30269
PEACHTREE CITY,612 Crosstown Drive,Peachtree City,GA,30269
PEACHTREE SQUARE NORTH,6050 Peachtree Pkwy. Ste 120,Peachtree Corners,GA,30092
PERRY,"1506 Sam Nunn Blvd.
Suite 5",Perry,GA,31069
POOLER & BENTON,246 Pooler Parkway,Pooler,GA,31322
POOLER,"1702 Pooler Pkwy
Suite 101",Pooler,GA,31322
POWDER SPRINGS,"3721 New MacLand Road
Suite 560",Powder Springs,GA,30127
RINCON,"100 West 12th St.
Suite 200",Rincon,GA,31326
ROME,1435 Turner McCall Boulevard,Rome,GA,30161
ROSWELL VILLAGE,665 Holcomb Bridge Road,Roswell,GA,30076
ROSWELL,"660 West Crossville Road
Suite 120",Roswell,GA,30075
SANDY SPRINGS,"8725 Roswell Rd
Suite C",Sandy Springs,GA,30350
SAVANNAH,"4679 US Highway 80 East
Suite A",Savannah,GA,31410
SAVANNAH,"7400 Abercorn St.
Suite 707",Savannah,GA,31406
SENOIA,"8080 Wells Street
Suite G",Senoia,GA,30276
SMYRNA,"3240 S. Cobb Drive, SE
Suite 1350",Smyrna,GA,30080
THE SHOPPES AT SCENIC HWY.,"2050 Scenic Hwy N
Suite B (Next to U-Haul)",Snellville,GA,30078
STATESBORO,"721 South Main Street
Ste. 1",Statesboro,GA,30458
STOCKBRIDGE,1009 Eagles Landing Parkway,Stockbridge,GA,30281
SUGAR HILL,"5885 Cumming Hwy NE
Suite 107",Sugar Hill,GA,30518
SUWANEE,"2615 Peachtree Parkway
Suite 110",Suwanee,GA,30024
SUWANEE,"3186 Lawrenceville Suwanee Road
Suite 4",Suwanee,GA,30024
TIFTON,1609 US Hwy. 82 West,Tifton,GA,31793
TUCKER,"4650 Hugh Howell Road
Building 500, Suite 230",Tucker,GA,30084
VALDOSTA,2941- A N. Ashley St.,Valdosta,GA,31602
WARNER ROBINS,133 Margie Drive,Warner Robins,GA,31093
WOODSTOCK,"2045 Towne Lake Parkway
Suite 110",Woodstock,GA,30189
WOODSTOCK,"12050 Hwy 92
Suite 144",Woodstock,GA,30188
HONOLULU,333 Keahole Street,Honolulu,HI,96825
HONOLULU,"4618 Kilauea Ave
#10",Honolulu,HI,96816
HONOLULU,"2615 S. King Street
Space No. 6",Honolulu,HI,96826
KAHULUI,140 Hookele Street,Kahului,HI,96732
KEALANANI PLAZA,"91-0710 Farrington Hwy.
Suite B-130",Kapolei,HI,96707
LAHAINA,"1221 Honoapiilani Highway
Suite B1",Lahaina,HI,96761
TOWN CENTER OF MILILANI,95-1249 Meheula Parkway,Mililani,HI,96789
PEARL CITY,"1000 Kamehameha Hwy.
Suite A",Pearl City,HI,96782
SCHOFIELD BARRACKS,"694 McCornack Road
Exchange Bldg. 694",Schofield Barracks,HI,96857
WAILUKU,"52 Maui Lani Parkway
#3100",Wailuku,HI,96793
AMMON,"2681 East Sunnyside Road
Suite E",Ammon,ID,83406
BOISE (W STATE ST),"7610 West State Street
Suite 102A",Boise,ID,83714
BOISE (BROADWAY AVE),"1624 S. Broadway Ave.
Suite120",Boise,ID,83706
BOISE (FAIRVIEW AVE),7166 W. Fairview Avenue,Boise,ID,83704
BURLEY,208 E 5th Street N,Burley,ID,83318
CALDWELL,"3018 Cleveland Blvd.
Suite 103",Caldwell,ID,83605
JEROME,393 Crossroads Point Blvd.,Jerome,ID,83338
KUNA,"1378 N. Meridian Road
Suite 120",Kuna,ID,83634
MERIDIAN (MCMILLAN RD),"1511 W. McMillan Road
Suite 170",Meridian,ID,83646
MERIDIAN (USTICK RD),"3340 North Eagle Road
Suite 101",Meridian,ID,83646
MERIDIAN (AMITY RD),"3106 E. Amity Road
Suite 120",Meridian,ID,83642
MOSCOW,"1850 Pullman Road
Suite B-1",Moscow,ID,83843
NAMPA (3RD ST S),1015 3rd Street,Nampa,ID,83651
NAMPA (N MERCHANT WAY),"16375 N. Merchant Way
Suite 160",Nampa,ID,83687
POCATELLO,544 E. Benton Street,Pocatello,ID,83201
STAR,51 N Union Street,Star,ID,83669
TWIN FALLS,"163 Cheney Drive West
Suite D",Twin Falls,ID,83301
ADDISON,"1435 West Lake Street
Unit B",Addison,IL,60101
ANTIOCH,489 E. IL-173,Antioch,IL,60002
AURORA,"1147 North Eola Road
Suite 103",Aurora,IL,60502
AURORA,2340 W. Indian Trail Rd.,Aurora,IL,60506
AURORA,"2948 Kirk Road
Suite 102",Aurora,IL,60502
BANNOCKBURN,"2565 Waukegan Road
Unit 132",Bannockburn,IL,60015
BARTLETT,959 S IL State Route 59,Bartlett,IL,60103
BELVIDERE,1920 Gateway Center Drive,Belvidere,IL,61008
BLOOMINGDALE,"383 West Army Trail Road
Suite 700",Bloomingdale,IL,60108
BLOOMINGTON,"305 N. Veterans Pkwy
#103",Bloomington,IL,61704
BOLINGBROOK,214 N. Weber Rd.,Bolingbrook,IL,60440
BRADLEY,"2070 N. State Route 50
Suite 600",Bradley,IL,60914
BUFFALO GROVE,171 McHenry Rd.,Buffalo Grove,IL,60089
CAROL STREAM,521 S Schmale Road,Carol Stream,IL,60188
CARPENTERSVILLE,123 S. Western Avenue,Carpentersville,IL,60110
CHAMPAIGN,"1712 W. Springfield Ave
Suite F",Champaign,IL,61821
CHARLESTON,200 W. Lincoln Avenue,Charleston,IL,61920
W ARCADE AND S WELLS,"200 West Monroe Street
Suite 120",Chicago,IL,60606
CHICAGO,203 E. Ohio St,Chicago,IL,60611
CHICAGO,3152 N. Broadway,Chicago,IL,60657
CHICAGO,4058A W. Peterson Ave.,Chicago,IL,60646
CHICAGO,1732 W. Lawrence Ave,Chicago,IL,60640
UNION STATION,225 South Canal Street,Chicago,IL,60606
CHICAGO,1962 N Milwaukee Ave,Chicago,IL,60647
CHICAGO,4359 W Irving Park Rd,Chicago,IL,60641
CHICAGO,6153 N Broadway,Chicago,IL,60660
CHICAGO,1421 W. Taylor Street,Chicago,IL,60607
CHICAGO,1223 West Fullerton Avenue,Chicago,IL,60614
CHICAGO,230 W. Hill Street,Chicago,IL,60610
CHICAGO,805N Milwaukee Avenue,Chicago,IL,60642
CHICAGO,3913 North Sheridan Road,Chicago,IL,60613
CHICAGO,3634 N Western Avenue,Chicago,IL,60618
CRESTWOOD,13422 Cicero Avenue,Crestwood,IL,60418
CRYSTAL LAKE,"5006 Northwest Hwy.
Ste E.",Crystal Lake,IL,60014
DANVILLE,"3655 N. Vermilion St
Suite A",Danville,IL,61832
DEERFIELD,"190 Waukegan Road
Unit A",Deerfield,IL,60015
DEKALB,103 N. Annie Glidden Rd,Dekalb,IL,60115
DIXON,1677 S. Galena Avenue,Dixon,IL,61021
DOWNERS GROVE,62A Ogden Ave,Downers Grove,IL,60515
EAST PEORIA,404 W. Washington St #4051,East Peoria,IL,61611
EDWARDSVILLE,"1990 Troy Road
Unit A",Edwardsville,IL,62025
EFFINGHAM,1000 W Fayette Ave,Effingham,IL,62401
ELKS GROVE VILLAGE,178 Biesterfield Rd,Elks Grove Village,IL,60007
ELMHURST,297 North York Street,Elmhurst,IL,60126
FAIRVIEW HEIGHTS,"6570 N Illinois Street
Unit B",Fairview Heights,IL,62208
FLOSSMOOR,"3760 Vollmer Road
Unit B-102",Flossmoor,IL,60422
FRANKFORT,21055 La Grange Road,Frankfort,IL,60423
FRANKLIN PARK,2830 Mannheim Road,Franklin Park,IL,60131
GENEVA,"1770 S. Randall Rd.
Suite C",Geneva,IL,60134
GLEN ELLYN,711 Roosevelt,Glen Ellyn,IL,60137
WILLOW CREEK CENTER,"2149 Willow Road
Willow Creek Center",Glenview,IL,60025
GURNEE,"6310 Grand Avenue
Suite 400",Gurnee,IL,60031
HOFFMAN ESTATES,"4610 Hoffman Blvd.
(Rt. 59 & 90)",Hoffman Estates,IL,60192
HOMER GLEN,14009A S Bell Road,Homer Glen,IL,60491
HUNTLEY,12860 Rt. 47,Huntley,IL,60142
JOLIET,4706 Caton Farm Road,Joliet,IL,60586
THE RANDALL ROAD SHOPS,"285 N. Randall Road
Suite A-2",Lake in the Hills,IL,60156
LAKEMOOR,27450 IL Route 120,Lakemoor,IL,60051
LAKE ZURICH,737 W Route 22,Lake Zurich,IL,60047
LISLE,"1032 Maple Avenue
Maple Terrace",Lisle,IL,60532
LOCKPORT,16541 West 159th Street,Lockport,IL,60441
MACHESNEY PARK,1513 West Lane Rd.,Machesney Park,IL,61115
MATTOON,1021 Charleston Avenue E,Mattoon,IL,61938
MCHENRY,1787 N. Richmond Road,McHenry,IL,60051
MOLINE,3918 16th Street,Moline,IL,61265
MORRIS,1731 North Division Street,Morris,IL,60450
MOUNT PROSPECT,106 E. Kensington Rd.,Mount Prospect,IL,60056
NAPERVILLE,"2555 W. 75th Street
Suite 121",Naperville,IL,60540
NAPERVILLE,111 E. Ogden Ave,Naperville,IL,60563
NAPERVILLE,"1315 South Naper Boulevard
Suite 105",Naperville,IL,60540
NEW LENOX,527 East Lincoln Highway,New Lenox,IL,60451
NILES,"5691 W. Touhy Ave.
Unit 22",Niles,IL,60714
NORMAL,"701 S. Main St
Unit C",Normal,IL,61761
OAKBROOK TERRACE,"17W 637 Roosvelt Rd.
Ste 4C",Oakbrook Terrace,IL,60181
OAK LAWN,4807 W. 95th Street,Oak Lawn,IL,60453
ORLAND PARK,"15625 S. La Grange Road
Suite B",Orland Park,IL,60462
OSWEGO,2428 Route 34,Oswego,IL,60543
PALATINE,783 E Dundee Rd.,Palatine,IL,60074
PALOS HEIGHTS,12801 Harlem Ave,Palos Heights,IL,60463
CORNER OF WASHINGTON ST.,147 S Northwest Hwy,Park Ridge,IL,60068
PERU,4341 Venture Drive,Peru,IL,61354
PLAINFIELD,"13400 S. Route 59
Suite 126",Plainfield,IL,60585
QUINCY,3013 Broadway St,Quincy,IL,62301
RANTOUL,"812 Broadmeadow Rd
Suite 100",Rantoul,IL,61866
ROBINSON,"1302 E Main Street
Unit C",Robinson,IL,62454
ROCKFORD,6284 E. State Street,Rockford,IL,61108
ROLLING MEADOWS,1450 Golf Rd,Rolling Meadows,IL,60008
ROMEOVILLE,412 S. Weber Road,Romeoville,IL,60446
ROUND LAKE BEACH,536 East Rollins Road,Round Lake Beach,IL,60073
SCHAUMBURG,1257 East Higgins Road,Schaumburg,IL,60173
SCHAUMBURG,2568 W. Schaumburg Rd.,Schaumburg,IL,60194
SCHAUMBURG,"108 E. Golf Road
Unit B-1",Schaumburg,IL,60173
SHILOH,3284 Greenmount Crossing Dr.,Shiloh,IL,62269
SOUTH ELGIN,469 Redington Drive,South Elgin,IL,60177
SPRINGFIELD,2318 W. Wabash Ave,Springfield,IL,62704
ST. CHARLES,2540 E. Main St,St. Charles,IL,60174
TINLEY PARK,7228 West 191 Street,Tinley Park,IL,60487
VERNON HILLS,"1640 North Milwaukee Avenue
Suite 200",Vernon Hills,IL,60061
WAUKEGAN,982 S Waukegan Road,Waukegan,IL,60085
WHEATON,2115 W Roosevelt Road,Wheaton,IL,60187
WILMETTE,"3207 Lake Ave.
Suite 8A",Wilmette,IL,60091
WOODSTOCK,935 Country Club Rd,Woodstock,IL,60098
ANDERSON,4770 S. Scatterfield Road,Anderson,IN,46013
AVON,10445 U.S. Route 36,Avon,IN,46123
BLOOMINGTON,2618 East 10th Street,Bloomington,IN,47408
CARMEL,2271 Pointe Parkway,Carmel,IN,46032
CHARLESTOWN,9401 County Road 403,Charlestown,IN,47111
CLARKSVILLE,"1305 Veterans Parkway
Suite 200",Clarksville,IN,47129
CROWN POINT,10714 Broadway,Crown Point,IN,46307
EVANSVILLE,"939 N Burkhardt Rd
Suite A",Evansville,IN,47715
FORT WAYNE,6408 W. Jefferson Blvd.,Fort Wayne,IN,46804
FORT WAYNE,10020 Lima Road,Fort Wayne,IN,46818
GREENFIELD,1785 Melody Ln,Greenfield,IN,46140
MT. COMFORT PLAZA,"2776 North 600 West
Unit C",Greenfield,IN,46140
GREENSBURG,404 East Freeland Road,Greensburg,IN,47240
GREENWOOD,"1675 W Smith Valley Rd
Suite A-3",Greenwood,IN,46142
INDIANAPOLIS,"5025 E. 82nd Street
Suite 1700",Indianapolis,IN,46250
INDIANAPOLIS,"6815 S. Emerson Ave.
Suite F",Indianapolis,IN,46237
INDIANAPOLIS,8235 E 96th Street,Indianapolis,IN,46256
RIVER STATION CENTER,5530 East Hwy. 62,Jeffersonville,IN,47130
INSIDE THE PAVILION,"210 South Creasy Lane
Suite 2150",Lafayette,IN,47905
MISHAWAKA,5718 N. Main Street,Mishawaka,IN,46545
MUNCIE,236 W McGalliard Road,Muncie,IN,47303
MUNSTER,8153 Calumet Avenue,Munster,IN,46321
NEW ALBANY,404 W Daisy Lane,New Albany,IN,47150
NEWBURGH,"8850 High Pointe Drive
Suite A",Newburgh,IN,47630
NOBLESVILLE,"11150 E 146th St.
Suite 120",Noblesville,IN,46060
SCHERERVILLE,37 U.S. Highway 41,Schererville,IN,46375
SOUTH BEND,"315 West Ireland Road
Suite 104",South Bend,IN,46614
TERRE HAUTE,3420B S. US Hwy 41,Terre Haute,IN,47802
WEST LAFAYETTE,401 N. Russell Street,West Lafayette,IN,47906
NEXT TO KROGER,"10725 N. Michigan Rd.
Suite A",Zionsville,IN,46077
AMES,537 Lincoln Way,Ames,IA,50010
ANKENY,"1510 SW Vintage Parkway
Suite 200",Ankeny,IA,50023
BETTENDORF,5261 Competition Drive,Bettendorf,IA,52722
CEDAR FALLS,"618 Brandilynn Blvd
Suite 7",Cedar Falls,IA,50613
CEDAR RAPIDS FOUNTAINS,"5240 Edgewood Rd NE
Suite 600",Cedar Rapids,IA,52411
CEDAR RAPIDS WESTDALE,"2380 Edgewood Road SW
Suite 100",Cedar Rapids,IA,52404
CLINTON,"2900 South 25th Street
Suite C1",Clinton,IA,52732
CLIVE,"12851 University Ave.
Ste. 200",Clive,IA,50325
CORALVILLE,"3268 Crosspark Road
Suite 105",Coralville,IA,52241
COUNCIL BLUFFS,"3825 Denmark Drive
Suite 700",Council Bluffs,IA,51501
DAVENPORT,"2124 E. Kimberly Road
Suite 150B",Davenport,IA,52807
DAVENPORT,"4451 E. 53 St
Suite 300",Davenport,IA,52807
DES MOINES,4117 Merle Hay Rd,Des Moines,IA,50310
DES MOINES,2809 E. University Ave,Des Moines,IA,50317
DES MOINES,4319 Fleur Drive,Des Moines,IA,50321
DUBUQUE,"3500 Dodge Street
Suite 130",Dubuque,IA,52003
DUBUQUE,"4855 Asbury Road
Suite 1",Dubuque,IA,52002
MARION,"6095 Carlson Way
Suite B",Marion,IA,52302
MUSCATINE,"415 Cleveland St
Suite C",Muscatine,IA,52761
SPENCER,1400 12th Avenue,Spencer,IA,51301
SPIRIT LAKE,"1306 18th Street
Suite D",Spirit Lake,IA,51360
WASHINGTON,120 E. Jefferson Street,Washington,IA,52353
WEST DES MOINES,"5901 Mills Civic Pkwy
Suite 3160",West Des Moines,IA,50266
DERBY,"1918 North Rock Road
Suite 800",Derby,KS,67037
LAWRENCE,4801 Bauer Farm Dr,Lawrence,KS,66049
LENEXA,16151 W 87th Terrace,Lenexa,KS,66219
MERRIAM,"8703 Shawnee Mission Parkway
Suite 102",Merriam,KS,66202
OLATHE,15018 S.Black Bob Rd.,Olathe,KS,66062
OVERLAND PARK,15901 Antioch Road,Overland Park,KS,66223
OVERLAND PARK,9220 Metcalf Avenue,Overland Park,KS,66212
PRAIRIE VILLAGE,7628 State Line Road,Prairie Village,KS,66208
SHAWNEE,15810 Shawnee Mission Parkway,Shawnee,KS,66217
BROOKFIELD PLAZA,"2121 SW Wanamaker Rd
Suite 115",Topeka,KS,66614
WICHITA,"2564 North Greenwich Road
Suite 550",Wichita,KS,67226
WICHITA,"2616 N Maize Rd
Suite 100",Wichita,KS,67205
WICHITA,"4521 E. 21st Street N
Suite 101",Wichita,KS,67208
ALEXANDRIA,6925 Alexandria Pike,Alexandria,KY,41001
BARDSTOWN,231 Kentucky Home Square,Bardstown,KY,40004
BOWLING GREEN,"1713 Scottsville Road
Suite D",Bowling Green,KY,42104
ELIZABETHTOWN,143 Towne Drive,Elizabethtown,KY,42701
MT. ZION CROSSING,"310 Mt Zion Road
Suite 1",Florence,KY,41042
FLORENCE,"1035 Vandercar Way
Ste. 100",Florence,KY,41042
FRANKFORT,"101 Jett Blvd
Suite 200",Frankfort,KY,40601
FT. MITCHELL,"2501 Dixie Highway, US 42",Ft. Mitchell,KY,41017
GEORGETOWN,"100 Ikebana Path
Suite F",Georgetown,KY,40324
GLASGOW,360 N Rogers Wells Blvd,Glasgow,KY,42141
HENDERSON,"500 N Green Street
Suite 502",Henderson,KY,42420
HOPKINSVILLE,2916 B Fort Campbell Blvd,Hopkinsville,KY,42240
LAGRANGE,"2028 KY Route 53
Suite 7",LaGrange,KY,40031
LEXINGTON,"867 South Broadway
Suite#120",Lexington,KY,40504
LEXINGTON,"2200 War Admiral Way
Suite 175",Lexington,KY,40509
LEXINGTON,2901 Richmond Road,Lexington,KY,40509
LEXINGTON,"3901 Fountainblue Lane
Suite 140",Lexington,KY,40513
DORSEY PLAZA,10266 Shelbyville Road,Louisville,KY,40223
SPRINGHURST TOWNE CENTER,10521 Fischer Park Drive,Louisville,KY,40241
LOUISVILLE,1983 Hurstbourne Parkway,Louisville,KY,40220
LOUISVILLE,3013 Poplar Level Road,Louisville,KY,40217
LOUISVILLE,7941 Bardstown Rd.,Louisville,KY,40291
NEWPORT PLAZA SHOPPING CENTER,"86 B Carothers Rd.
Newport Plaza Shopping Center",Newport,KY,41071
GATEWAY PLAZA,"16472 Ft. Campbell Blvd.
Gateway Plaza",Oak Grove,KY,42262
RICHMOND,"2139 Lantern Ridge Drive
S500",Richmond,KY,40475
SHELBYVILLE,1607 Midland Trail,Shelbyville,KY,40065
SHEPHERDSVILLE,"418 Adam Shepherd Parkway
Suite 104",Shepherdsville,KY,40165
BATON ROUGE,"7415 Corporate Blvd.
Suite 910",Baton Rouge,LA,70809
BATON ROUGE,"7770 Bluebonnet Blvd
Suite D",Baton Rouge,LA,70810
BATON ROUGE,"6556 Siegen Lane
Unit 2",Baton Rouge,LA,70809
BATON ROUGE,"3535 Perkins Road
Suite 370",Baton Rouge,LA,70808
BOSSIER CITY,2650 Beene Boulevard,Bossier City,LA,71111
CENTRAL,"14375 Grand Settlement Blvd
Suite B",Central,LA,70818
COVINGTON,"69284 LA-21
Suite 200",Covington,LA,70433
DENHAM SPRINGS,"27800 Juban Road
Suite 2",Denham Springs,LA,70726
ELMWOOD,"1126 S. Clearview Parkway
Suite E",Elmwood,LA,70123
GONZALES,"503 W. Highway 30
Suite C",Gonzales,LA,70737
HAMMOND,1823B SW Railroad Avenue,Hammond,LA,70403
HARVEY,"1801 Manhattan Boulevard
Suite E",Harvey,LA,70058
LAFAYETTE,"4701 Ambassador Caffery Parkway
Suite B-4",Lafayette,LA,70508
LAFAYETTE,"4533 Johnston Street
Suite 200",Lafayette,LA,70503
LAKE CHARLES,"3723 Nelson Road
Suite 300",Lake Charles,LA,70605
MANDEVILLE,3323 US Highway 190,Mandeville,LA,70471
METAIRIE,4316 Veterans Memorial Boulevard,Metairie,LA,70006
PORT ALLEN,"3235 Hwy 1 South
Suite D",Port Allen,LA,70767
SLIDELL,"1290 Front Street
Suite 4",Slidell,LA,70458
THIBODAUX,347 North Canal Boulevard,Thibodaux,LA,70301
YOUNGSVILLE,"1911 Chemin Metairie Parkway
Suite 6",Youngsville,LA,70592
AUBURN,600 Center Street,Auburn,ME,04210
AUGUSTA,"1 Stephen King Drive
Suite 20",Augusta,ME,04330
BANGOR,479 Stillwater Avenue,Bangor,ME,04401
BRUNSWICK,172 Bath Road,Brunswick,ME,04011
FALMOUTH,240 US-1,Falmouth,ME,04105
PORTLAND,1100 Brighton Avenue,Portland,ME,04102
SACO,507 Main Street,Saco,ME,04072
SCARBOROUGH,"550 Gallery Blvd.
Suite C",Scarborough,ME,04074
TOPSHAM,51 Topsham Fair Mall Road,Topsham,ME,04086
WINDHAM,795 Roosevelt Trail,Windham,ME,04062
ABERDEEN,"983 Beards Hill Road
Suite H",Aberdeen,MD,21001
ANNAPOLIS,"2496 Riva Road
Unit 440",Annapolis,MD,21401
ASPEN HILL,13878 Georgia Avenue,Aspen Hill,MD,20906
BALTIMORE,7976 Honeygo Blvd.,Baltimore,MD,21236
BALTIMORE,"3611 Washington Blvd
Suite 101",Baltimore,MD,21227
YARD 56,"5601 Eastern Ave.
Unit 505",Baltimore,MD,21224
BALTIMORE,1520 Havenwood Road,Baltimore,MD,21218
BEL AIR,573 Baltimore Pike,Bel Air,MD,21014
BERLIN,11347 Samuel Bowen Boulevard,Berlin,MD,21811
BOWIE,6844 Race Track Road,Bowie,MD,20715
BOWIE,"10201 Martin Luther King Jr. Hwy.
Suite 150",Bowie,MD,20720
BRANDYWINE,"15805 Robert Crain Highway Southwest
Space C",Brandywine,MD,20613
BURTONSVILLE,15614 Old Columbia Pike,Burtonsville,MD,20866
CAMBRIDGE,"2711 Ocean Gateway
Suite A",Cambridge,MD,21613
CAPITOL HEIGHTS,"9100 Alaking Court
Suite 110",Capitol Heights,MD,20743
CLINTON,8797 Branch Avenue,Clinton,MD,20735
COCKEYSVILLE,11331 York Road,Cockeysville,MD,21030
COLUMBIA,"9851 Broken Land Pwky
Suite 300",Columbia,MD,21046
DENTON,35 Denton Plaza,Denton,MD,21629
DISTRICT HEIGHTS,"5412 Silver Hill Road
Suite 2",District Heights,MD,20747
DUNDALK,"1401 Merritt Blvd
Suite I",Dundalk,MD,21222
SHOPPES AT APPLE GREENS,10107 Ward Road,Dunkirk,MD,20754
EDGEWATER,"11 Lee Airpark Dr
Suite 400",Edgewater,MD,21037
ELKRIDGE,6630 Marie Curie Drive,Elkridge,MD,21075
ELLICOTT CITY,"9338 Baltimore National Pike
Suite C",Ellicott City,MD,21042
FORT WASHINGTON,"9500 Livingston Road
Suite 102",Fort Washington,MD,20744
FREDERICK,"5599 Spectrum Drive
Suite 101",Frederick,MD,21703
KENTLANDS SQUARE,249 Kentlands Blvd.,Gaithersburg,MD,20878
WAUGH CHAPEL TOWNE CENTER,"1404 S. Main Chapel Way
Suite 102",Gambrills,MD,21054
MILESTONE VILLAGE CENTER,"21040-F Frederick Rd.
Milestone Village Center",Germantown,MD,20876
GLEN BURNIE,6640 Ritchie Highway,Glen Burnie,MD,21061
GREENBELT,"6000 Greenbelt Road
Space 67",Greenbelt,MD,20770
HAGERSTOWN,18015 Garland Groh Blvd.,Hagerstown,MD,21740
HAGERSTOWN,1370 Dual Highway,Hagerstown,MD,21740
HAMPSTEAD,2320 Hanover Pike,Hampstead,MD,21074
HANOVER,"7645 Arundel Mills Blvd.
# 50",Hanover,MD,21076
LA PLATA,"105 Drury Drive
Suite A",La Plata,MD,20646
CENTRE AT LAUREL,"13600 Baltimore Ave.
Suite #301",Laurel,MD,20707
LAUREL,"3569 Russett Green East
Unit 107",Laurel,MD,20724
MOUNT AIRY SHOPPING CTR.,413 E. Ridgeville Boulevard,Mount Airy,MD,21771
SHOPPES AT NEW CARROLLTON,8310E Annapolis Road,New Carrollton,MD,20784
NORTH SALISBURY,"2420 N. Salisbury Boulevard
Unit 12",North Salisbury,MD,21801
SEVEN OAKS SHOPPING CENTER,"2288 Blue Water Boulevard
Suite 600-A",Odenton,MD,21113
OLNEY,3494 Olney Laytonsville Rd.,Olney,MD,20832
OWINGS MILLS,9402 Reisterstown Road,Owings Mills,MD,21117
OWINGS MILLS,10200 Mill Run Circle,Owings Mills,MD,21117
OXON HILL,"6017 Oxon Hill Road
Suite F",Oxon Hill,MD,20745
PASADENA,"3201 Mountain Road
Suite 119",Pasadena,MD,21122
RIVERDALE PARK,6761 45th St.,Riverdale Park,MD,20737
ROCKVILLE,895 - D Rockville Pike,Rockville,MD,20852
ROCKVILLE,14933-L Shady Grove Road,Rockville,MD,20850
SALISBURY,1405 S. Salisbury Blvd.,Salisbury,MD,21801
SEVERNA PARK MARKETPLACE,551 Ritchie Highway,Severna Park,MD,21146
SILVER SPRING,"12255 Prosperity Drive
Suite 105",Silver Spring,MD,20904
SYKESVILLE,"6400 Ridge Road
Suite B1",Sykesville,MD,21784
TIMONIUM,1942 York Rd,Timonium,MD,21093
TOWSON,1254 Putty Hill Avenue,Towson,MD,21286
URBANA,"3278 Bennett Creek Ave
Unit B",Urbana,MD,21704
WALDORF,"3728 Crain Highway
Unit 103",Waldorf,MD,20603
WESTMINSTER,"265 Baltimore Blvd.
Suite 3",Westminster,MD,21157
WHEATON,"2800 University Blvd.
Suite D.",Wheaton,MD,20902
WOODMORE,"2019 St. Joseph’s Drive
Suite 106",Woodmore,MD,20721
ATTLEBORO,228 Washington Street,Attleboro,MA,02703
BEDFORD,"186 Great Road
Suite #6",Bedford,MA,01730
BEVERLY,"55 Dodge Street
Suite A208",Beverly,MA,01915
BOURNE,2 Bridge Approach Street,Bourne,MA,02532
BRIGHTON,466 B Washington Street,Brighton,MA,02135
BROCKTON,"21 Torrey Street
Suite #15C",Brockton,MA,02301
BURLINGTON,50 Summit Drive,Burlington,MA,01803
DEDHAM,395 Providence Highway,Dedham,MA,02026
FAIRHAVEN,215 Huttleston Ave,Fairhaven,MA,02719
FALL RIVER,"450 William S Canning Blvd.
Unit 9",Fall River,MA,02721
FRAMINGHAM,"571 Worcester Road
Unit D9",Framingham,MA,01701
FRANKLIN,471-W. Central St.,Franklin,MA,02038
GARDNER,"320 West Broadway
Unit 3",Gardner,MA,01440
HANOVER,1810 Washington Street,Hanover,MA,02339
HINGHAM,400 Lincoln Street,Hingham,MA,02043
HUDSON,"48 Highland Commons East
Suite 400",Hudson,MA,01749
HYANNIS,793 Iyannough Road,Hyannis,MA,02601
LONGMEADOW,"819 Williams Street
Unit M",Longmeadow,MA,01106
MANSFIELD,"333 School Street
Suite 130",Mansfield,MA,02048
MARLBOROUGH,42 Boston Post Rd. West,Marlborough,MA,01752
MAYNARD,3-8 Digital Way,Maynard,MA,01754
MEDWAY,"67B Main Street
Suite 102",Medway,MA,02053
METHUEN,"90 Pleasant Valley St
Suite 703",Methuen,MA,01844
MILFORD,"128 Medway Rd
Suite 7",Milford,MA,01757
NEW BEDFORD,"81 Coggeshall Street
Unit H",New Bedford,MA,02746
MARKETPLACE SHOPS,35 Storey Avenue,Newburyport,MA,01950
NEWTON,55 Needham Street,Newton,MA,02461
NORTH DARTMOUTH,"85 Faunce Corner Mall Road
Unit C",North Dartmouth,MA,02747
NORWOOD,1415 Boston Providence Turnpike,Norwood,MA,02062
PEMBROKE,"117 Old Church Street
Unit 2",Pembroke,MA,02359
PLAINVILLE,84 Taunton Street,Plainville,MA,02762
PLYMOUTH,"53 Commerce Way
Suite 5",Plymouth,MA,02360
QUINCY,479 Washington Street,Quincy,MA,02169
RANDOLPH,31 Warren Street,Randolph,MA,02368
RAYNHAM,325 New State Highway Rt. 44,Raynham,MA,02767
SAUGUS,741 Broadway,Saugus,MA,01906
SEEKONK,"20 Commerce Way
Unit 10A",Seekonk,MA,02771
SHREWSBURY,"120 Boston Turnpike
Unit #19",Shrewsbury,MA,01545
SOMERSET,554 Grand Army Highway,Somerset,MA,02726
REDSTONE SHOPPING CENTER,69 Main Street,Stoneham,MA,02180
STOUGHTON,421 Washington Street,Stoughton,MA,02072
VINNIN SQUARE PLAZA,"425 Paradise Road
Suite 9",Swampscott,MA,01907
SWANSEA,"581 G.A.R. HWY
Unit 1",Swansea,MA,02777
WALPOLE,965 Old Post Road,Walpole,MA,02081
WAREHAM,"12 Tobey Road
(intersection of Tobey Road & Cranberry Hwy)",Wareham,MA,02571
WATERTOWN,108 Bond Square,Watertown,MA,02472
WESTBOROUGH,1 Oak Street,Westborough,MA,01581
WORCESTER,187 Madison Street,Worcester,MA,01610
WORCESTER,70 Gold Star Boulevard,Worcester,MA,01606
ADRIAN,1376 Division Street,Adrian,MI,49221
ANN ARBOR,2561 Jackson Avenue,Ann Arbor,MI,48103
AUBURN HILLS,"2041 North Squirrel Road
Unit 3",Auburn Hills,MI,48326
BAY CITY,"803 N Euclid Avenue
Suite 1A",Bay City,MI,48706
BENTON HARBOR,1963 M-139,Benton Harbor,MI,49022
BIG RAPIDS,15190 Isabella Drive,Big Rapids,MI,49307
BIRMINGHAM,33745 Woodward Avenue,Birmingham,MI,48009
BLOOMFIELD HILLS,"6450 Telegraph Rd
Suite 102",Bloomfield Hills,MI,48301
BLOOMFIELD TOWNSHIP,2510 S Telegraph Rd,Bloomfield Township,MI,48302
BRIGHTON,9974 East Grand River Ave.,Brighton,MI,48116
CANTON,42448 Ford Road,Canton,MI,48187
CHESTERFIELD,27351 23 Mile Rd.,Chesterfield,MI,48051
CLARKSTON,"Dixie Hwy. & S. Main Street
Suite B",Clarkston,MI,48346
CLINTON TOWNSHIP,24830 William P. Rosso Highway,Clinton Township,MI,48036
DAVISON,1053 North Irish Road,Davison,MI,48423
DEARBORN,22439 Michigan Ave.,Dearborn,MI,48124
DEARBORN HEIGHTS,26352 Ford Road,Dearborn Heights,MI,48127
FARMINGTON HILLS,33220 West 12 Mile Road,Farmington Hills,MI,48334
FENTON,"3409 Owen Road
Suite 100",Fenton,MI,48430
FERNDALE,23058 Woodward Ave,Ferndale,MI,48220
FLINT,5009 Miller Road,Flint,MI,48507
FORT GRATIOT,"4865 24th Ave
Unit 600",Fort Gratiot,MI,48059
FRASER,34727 Utica Road,Fraser,MI,48026
FRUITPORT,"1664 East Sternberg Road
Suite A2",Fruitport,MI,49444
GAYLORD,"1241 W. Main Street
Suite 5",Gaylord,MI,49735
GRAND BLANC,"1048 E. Hill Road
Suite 1",Grand Blanc,MI,48439
GRAND BLANC,12720 S. Saginaw Street,Grand Blanc,MI,48439
GRAND HAVEN,452 North Beacon Blvd.,Grand Haven,MI,49417
GRAND RAPIDS,"2321 East Beltline Ave NE
SuiteC",Grand Rapids,MI,49525
GRANDVILLE,4533 Ivanrest Ave SW,Grandville,MI,49418
GREENVILLE,1720 West Washington Street,Greenville,MI,48838
GROSSE POINTE,19419 Mack Ave,Grosse Pointe,MI,48236
HOLLAND,12465 James Street,Holland,MI,49424
KALAMAZOO,4315 West Main Street,Kalamazoo,MI,49006
KENTWOOD,3464 28th Street S.E.,Kentwood,MI,49512
LAKE ORION,606 North Lapeer Rd.,Lake Orion,MI,48362
LANSING,5851 W Saginaw Hwy,Lansing,MI,48917
LANSING,401 N. Clippert Street,Lansing,MI,48912
LAPEER,802 South Main Street,Lapeer,MI,48446
LATHRUP VILLAGE,17655 W 12 Mile Road,Lathrup Village,MI,48076
LIVONIA,13215 Middlebelt Rd,Livonia,MI,48150
LIVONIA,37294 Six Mile Road,Livonia,MI,48152
MACOMB,20813 Hall Rd.,Macomb,MI,48044
MADISON HEIGHTS,40 East 14 Mile Rd,Madison Heights,MI,48071
MIDLAND,1917 S Saginaw Road,Midland,MI,48640
MILFORD,164 South Milford Road,Milford,MI,48381
MONROE,2078 North Telegraph Road,Monroe,MI,48162
MOUNT PLEASANT,"5655 E Pickard Rd
Suite B",Mount Pleasant,MI,48858
NOVI,26425 Novi Road,Novi,MI,48375
OKEMOS,3490 Okemos Road,Okemos,MI,48864
OWOSSO,2420 E. Main Street,Owosso,MI,48867
PITTSFIELD,"3650 Carpenter Rd
Ste. F",Pittsfield,MI,48197
PLYMOUTH,1500 S. Sheldon Road,Plymouth,MI,48170
PORTAGE,6156 S. Westnedge Avenue,Portage,MI,49002
PORT HURON,"1420 24th St
Unit A",Port Huron,MI,48060
S. ROCHESTER & WABASH,2670 S. Rochester Road,Rochester Hills,MI,48307
ROCHESTER HILLS,3208 Walton Blvd,Rochester Hills,MI,48309
ROCKFORD,2887 10 Mile Road NE,Rockford,MI,49341
ACROSS FROM MACOMB MALL,32098 Gratiot Ave,Roseville,MI,48066
SHELBY,12161 23 Mile Road,Shelby,MI,48315
SOUTHFIELD,23089 Greenfield Road,Southfield,MI,48075
ST. CLAIR SHORES,23981 Harper Ave.,St. Clair Shores,MI,48080
STERLING HEIGHTS,14828 Hall Rd.,Sterling Heights,MI,48313
STERLING HEIGHTS,35382 VanDyke,Sterling Heights,MI,48312
TAYLOR,9877 Telegraph Rd,Taylor,MI,48180
TRAVERSE CITY,110 Munson Ave,Traverse City,MI,49686
TROY,644 W. Big Beaver Road,Troy,MI,48084
WALKER,3454 Alpine Ave,Walker,MI,49544
WARREN,5773 E 12 Mile Road,Warren,MI,48092
WATERFORD,4403 Highland Road,Waterford,MI,48328
WEST BLOOMFIELD,6480 Orchard Lake Road,West Bloomfield,MI,48322
WEST BRANCH,"2909 Cook Road
Suite 104",West Branch,MI,48661
WOODHAVEN,23106 Allen Road,Woodhaven,MI,48183
WYOMING,"2380 Health Drive SW
Suite 104",Wyoming,MI,49519
ALBERT LEA,2524 Bridge Ave,Albert Lea,MN,56007
ALBERTVILLE,5703 Lachman Ave NE,Albertville,MN,55301
APPLE VALLEY,"14750 Cedar Avenue
Suite 120",Apple Valley,MN,55124
BAXTER,"14203 Edgewood Drive
Suite B-2",Baxter,MN,56425
BLAINE,10340 Baltimore Street NW,Blaine,MN,55449
BLAINE,"4190 108th Avenue NE
Suite 100",Blaine,MN,55449
BLOOMINGTON,"3701 W Old Shakopee Road
Suite 100",Bloomington,MN,55431
BROOKLYN PARK,5901 94th Ave. North,Brooklyn Park,MN,55443
BUFFALO,1101 MN-25,Buffalo,MN,55313
BURNSVILLE,1404 County Road 42 W.,Burnsville,MN,55337
CHAMPLIN,"11995 Business Park Boulevard
Suite 101",Champlin,MN,55316
CHANHASSEN,"945 W. 78th St.
Suite 120",Chanhassen,MN,55317
RIVERDALE VILLAGE,3473 River Rapids Dr.,Coon Rapids,MN,55448
COTTAGE GROVE,"8800 Point Douglas Road South
Suite 800",Cottage Grove,MN,55016
DULUTH,"905 West Central Entrance
Suite 1",Duluth,MN,55811
DULUTH,1303 W. Arrowhead Road,Duluth,MN,55811
EAGAN,"3405 Promenade Ave.
Suite 300",Eagan,MN,55123
EAGAN,"2105 Cliff Road
#600",Eagan,MN,55122
EAGAN,855 Vikings Parkway,Eagan,MN,55121
EDEN PRAIRIE,"13250 Technology Drive
Suite 100",Eden Prairie,MN,55344
EDINA,6559 York Ave South,Edina,MN,55435
EDINA,4949 W. 77th Street,Edina,MN,55435
FARIBAULT,1431 4th Street NW,Faribault,MN,55021
FERGUS FALLS,"3302 Highway 210 Lane West
Suite 1",Fergus Falls,MN,56537
FOREST LAKE,708 Lake Street South,Forest Lake,MN,55025
FRIDLEY,5300 Central Ave NE,Fridley,MN,55421
FRIDLEY,"8094 University Avenue NE
Suite 1",Fridley,MN,55432
GOLDEN VALLEY,"8525 Golden Valley Road
Suite 100",Golden Valley,MN,55427
HASTINGS,1217 Vermillion St,Hastings,MN,55033
HOPKINS,525 Blake Road North,Hopkins,MN,55343
LAKEVILLE,18437 Orchard Trail,Lakeville,MN,55044
LINO LAKES,"7114 Otter Lake Road
Suite 120",Lino Lakes,MN,55038
MANKATO,1924 Adams St.,Mankato,MN,56001
MANKATO,510 South Riverfront Drive,Mankato,MN,56001
MAPLE GROVE,16375 County Road 30,Maple Grove,MN,55311
MAPLEWOOD,2645 White Bear Ave N,Maplewood,MN,55109
MINNEAPOLIS,1504 West Lake Street,Minneapolis,MN,55408
MOORHEAD,814 30th Avenue S,Moorhead,MN,56560
NORTHFIELD,118 Water Street N.,Northfield,MN,55057
NORTH OAKS,119B Village Center Drive,North Oaks,MN,55127
OWATONNA,1045 Frontage Road West,Owatonna,MN,55060
PLYMOUTH,"3505 Vicksburg Lane
#500",Plymouth,MN,55447
RICHFIELD,1625 East 66th Street,Richfield,MN,55423
ROCHESTER,"2665 Commerce Drive NW
Suite 300",Rochester,MN,55901
ROCHESTER,416 Crossroads Drive,Rochester,MN,55902
ROGERS,"13135 Main Street
Suite 300",Rogers,MN,55374
ROSEMOUNT,15059 Canada Avenue W,Rosemount,MN,55068
ACROSS FROM ROSEDALE MALL,2339 Fairview Avenue,Roseville,MN,55113
SAVAGE,7444 Egan Drive,Savage,MN,55378
SHAKOPEE,4045 Dean Lakes Blvd.,Shakopee,MN,55379
ST. ANTHONY VILLAGE,"2704 Highway 88
Suite 130",St. Anthony Village,MN,55418
ST CLOUD,3959 2nd Street S,St Cloud,MN,56301
STILLWATER,"1754 Market Drive
Suite 100",Stillwater,MN,55082
ST. LOUIS PARK,"1650 Park Place Blvd
Ste. 106",St. Louis Park,MN,55416
ST. PAUL,"472 Hamline Ave N
Suite 100",St. Paul,MN,55105
VADNAIS HEIGHTS,"925 East County Rd E
Suite 140",Vadnais Heights,MN,55127
WACONIA,"10720 W 10th Street
Suite 106",Waconia,MN,55387
WOODBURY,"7455 Currell Blvd
#102",Woodbury,MN,55125
WOODBURY,"429 Commerce Drive
#600",Woodbury,MN,55125
W. ST. PAUL,1705 S. Robert St.,W. St. Paul,MN,55118
D'IBERVILLE,3821B Promenade Pkwy,D'iberville,MS,39540
FLOWOOD,264 Dogwood Blvd,Flowood,MS,39232
GLUCKSTADT,"1091 Gluckstadt Rd
Suite D",Gluckstadt,MS,39110
GULFPORT,15260 Crossroads Pkwy,Gulfport,MS,39503
MADISON,"1060 US Highway 51
Suite A-1",Madison,MS,39110
MERIDIAN,"300 N. Frontage Road
Suite 400",Meridian,MS,39301
OLIVE BRANCH,"6518 Goodman Road
Suite 110",Olive Branch,MS,38654
STARKVILLE,"831 Highway 12 West
Suite A",Starkville,MS,39759
BELTON,906 E North Avenue,Belton,MO,64012
BLUE SPRINGS,1209 NE Coronado Drive,Blue Springs,MO,64014
CHESTERFIELD,17273 Chesterfield Airport Rd,Chesterfield,MO,63005
GRINDSTONE PARKWAY,"1101 Grindstone Parkway
Suite 105",Columbia,MO,65201
WORLEY STREET,"2001 West Worley Street
Suite 100",Columbia,MO,65203
CREVE COEUR,12520 Olive Blvd.,Creve Coeur,MO,63141
DES PERES,12113 Manchester Rd,Des Peres,MO,63131
JEFFERSON CITY,"2111 Missouri Blvd.
Suite A",Jefferson City,MO,65109
JOPLIN,"1702 S. Rangeline Road
Suite B",Joplin,MO,64804
KANSAS CITY,5903 NW Barry Road,Kansas City,MO,64154
KIRKWOOD,1230 S. Kirkwood Road,Kirkwood,MO,63122
LEE'S SUMMIT,"940 NW Blue Parkway
101 Lee's Summit",Lee's Summit,MO,64086
LEE'S SUMMIT,1634 SE Blue Parkway,Lee's Summit,MO,64063
MARYLAND HEIGHTS,"12676 Dorsett Rd
Suite A",Maryland Heights,MO,63043
OFALLON,2508 Hwy K,OFallon,MO,63368
OZARK,1940 W. Retail Lane,Ozark,MO,65721
ROLLA,"1051 N. Bishop Avenue
Suite A",Rolla,MO,65401
SIKESTON,"600 N. Main Street
Suite H",Sikeston,MO,63801
SPRINGFIELD,1903 S Glenstone Ave,Springfield,MO,65804
SPRINGFIELD,1008 East Battlefield Road,Springfield,MO,65807
ST. ANN,991 Northwest Plaza Dr,St. Ann,MO,63074
ST. CHARLES,2012 Zumbehl Road,St. Charles,MO,63303
ST. JOSEPH,"3508 N Belt Highway
Suite D",St. Joseph,MO,64506
ST LOUIS,5450 South Lindbergh St,St Louis,MO,63123
ST LOUIS,5684 Telegraph Road,St Louis,MO,63129
UNIVERSITY CITY,8626 Olive Boulevard,University City,MO,63132
WEBSTER GROVES,"8567 Watson Rd.
Suite B",Webster Groves,MO,63119
WENTZVILLE,"1570 Wentzville Parkway
Suite 105",Wentzville,MO,63385
BELGRADE,"203 West Madison Ave.
Suite D",Belgrade,MT,59714
BILLINGS,"1020 Shiloh Crossing Blvd.
Suite 2",Billings,MT,59102
BILLINGS,"315 Main Street
Suite 200",Billings,MT,59105
BILLINGS,"1640 Grand Avenue
Suite A",Billings,MT,59102
BOZEMAN,1531 West Main Street,Bozeman,MT,59715
FOUR CORNERS,"85 Milltown Loop
Unit C",Bozeman,MT,59718
GREAT FALLS,"413 3rd Street NW
Suite 2",Great Falls,MT,59404
KALISPELL,"2415 Highway 93 North
Suite 2",Kalispell,MT,59901
MISSOULA,"3275 North Reserve Street
Suite E",Missoula,MT,59808
BELLEVUE,10110 South 15th Street,Bellevue,NE,68123
LA VISTA,12434 Southport Parkway,La Vista,NE,68128
LINCOLN,"5001 O Street
Ste. B",Lincoln,NE,68510
LINCOLN,"2801 Pine Lake Road
Suite G",Lincoln,NE,68516
NORTH PLATTE,"201 Platte Oasis Parkway
Suite 2",North Platte,NE,69101
OMAHA,"1303 S. 72nd Street
Suite 109",Omaha,NE,68124
OMAHA,"203 N. 180th Street
Suite 102",Omaha,NE,68118
PAPILLION,"9820 S. 71st Plaza
#105",Papillion,NE,68133
CARSON CITY,"956 Topsy Lane
Suite 102",Carson City,NV,89705
HENDERSON,10520 S. Eastern Ave.,Henderson,NV,89052
HENDERSON,"55 N. Stephanie St.
Suite 110",Henderson,NV,89074
HENDERSON,"2345 Via Inspirada Parkway
Suite 120",Henderson,NV,89044
HENDERSON,815 E Lake Mead Pkwy,Henderson,NV,89015
HENDERSON,"691 Marks Street
Suite C",Henderson,NV,89014
HENDERSON,"3458 St. Rose Parkway
Suite 5",Henderson,NV,89052
CORNER OF RAINBOW BLVD AND OAKEY BLVD,"1772 S. Rainbow Blvd.
Suite 120",Las Vegas,NV,89146
LAS VEGAS,"8680 W. Warm Springs Road
Suite 115",Las Vegas,NV,89148
JUST NORTH OF FLAMINGO RD,"3900 Paradise Road
Ste. K",Las Vegas,NV,89169
BOCA PARK SHOPPING CENTER,"8780 W. Charleston Blvd. #102
Boca Park Shopping Center",Las Vegas,NV,89117
AT THE PREMIUM OUTLETS SOUTH,"7390 S Las Vegas Blvd
Ste. 105 - Corner of Warm Springs Rd and Las Vegas Blvd",Las Vegas,NV,89123
LAS VEGAS,8410 W. Cheyenne,Las Vegas,NV,89129
LAS VEGAS,9540 West Flamingo,Las Vegas,NV,89147
MCCARRAN INTERNATIONAL AIRPORT,5757 Wayne Newton Blvd.,Las Vegas,NV,89111
CENTENNIAL HILLS SHOPPING CENTER,"7901 W. Tropical Parkway
Suite 130",Las Vegas,NV,89149
LAS VEGAS,"1620 E. Craig Road
Suite101",Las Vegas,NV,89030
LAS VEGAS,"7959 Blue Diamond Rd
Suite 102",Las Vegas,NV,89178
LAS VEGAS,"9560 W Skye Canyon Park Drive
Suite 170",Las Vegas,NV,89166
LAS VEGAS,2202 W. Charleston Boulevard,Las Vegas,NV,89102
LAS VEGAS,"4860 Blue Diamond Road
Suite 110",Las Vegas,NV,89139
LAS VEGAS,"4380 W. Cactus Avenue
Suite 102",Las Vegas,NV,89141
MESQUITE,"300 N. Sandhill Boulevard
Suite A-B",Mesquite,NV,89027
ANN RD & SIMMONS ST.,"5595 Simmons St. - Corner of Ann Rd and Simmons St
Suite 5",North Las Vegas,NV,89031
NORTH LAS VEGAS,"6540 N Losee Road
Suite 105",North Las Vegas,NV,89086
RENO,4991 S. Virginia St.,Reno,NV,89502
RENO,537 S. Meadows Parkway,Reno,NV,89521
SPARKS,1370 Big Fish Drive,Sparks,NV,89434
CONCORD,4 Merchants Way,Concord,NH,03301
CONCORD,36 Fort Eddy Road,Concord,NH,03301
EPPING,"96 Calef Highway
Suite 3",Epping,NH,03042
EXETER,"141 Portsmouth Avenue
Unit C",Exeter,NH,03833
HUDSON,"6 Flagstone Drive
Unit A",Hudson,NH,03051
KEENE,348 Winchester Street,Keene,NH,03431
LITTLETON,"587 Meadow Street
Suite 302",Littleton,NH,03561
LONDONDERRY,4 Orchard View Drive,Londonderry,NH,03053
MANCHESTER,1229 South Willow Street,Manchester,NH,03103
NASHUA,"495 Amherst Street
Suite M",Nashua,NH,03063
NORTH CONWAY,1584 White Mountain Highway,North Conway,NH,03860
PORTSMOUTH,1600 Woodbury Avenue,Portsmouth,NH,03801
ROCHESTER,"155 Marketplace Blvd
Unit 3",Rochester,NH,03867
SEABROOK,"652 Lafayette Road
Suite #2",Seabrook,NH,03874
SOMERSWORTH,120 Tri City Road,Somersworth,NH,03878
TILTON,"120 Laconia Road
Unit 313",Tilton,NH,03276
WEST LEBANON,254 North Plainfield Road,West Lebanon,NH,03784
ATLANTIC HIGHLANDS,7 Bayshore Plaza,Atlantic Highlands,NJ,07716
BARNEGAT,770D-A Lighthouse Drive,Barnegat,NJ,08005
BAYONNE,901 Bayonne Crossing Way,Bayonne,NJ,07002
BAYWICK PLAZA,"333 Atlantic City Blvd.
Baywick Plaza",Bayville,NJ,08721
BELMAR,"500 Main Street
Suite 106",Belmar,NJ,07719
"CLOSED FOR THE SEASON, SEE YOU NEXT YEAR",1001 Ocean Avenue,Belmar,NJ,07719
BERNARDSVILLE,80 Morristown Road,Bernardsville,NJ,07924
BLOOMFIELD,224 Bloomfield Avenue,Bloomfield,NJ,07003
BOONTON,534 Myrtle Avenue,Boonton,NJ,07005
BORDENTOWN,266 Dunns Mill Road,Bordentown,NJ,08505
BRICK,2085 Route 88,Brick,NJ,08724
BRICK- MANTOLOKING RD.,602 Mantoloking Road,Brick,NJ,08723
BRICK PLAZA,"56 Chambers Bridge Road
Suite 101",Brick,NJ,08723
VILLAGE GREEN SHOPPING CTR.,100 Route 46 West,Budd Lake,NJ,07828
CHATHAM,641 Shunpike Road,Chatham,NJ,07928
HADDONFIELD & CHAPEL,512 Haddonfield Road,Cherry Hill,NJ,08002
THE STREETS OF CHESTER,390 US Highway 206,Chester,NJ,07930
THE SHOPPES AT CINNAMINSON,127 L Rt. 130,Cinnaminson,NJ,08077
CLARK,"301 Central Avenue
Unit 4",Clark,NJ,07066
CLIFFWOOD,311 Route 35,Cliffwood,NJ,07721
CLIFTON,850 Route 3 West,Clifton,NJ,07012
CLINTON,61 Walmart Plaza,Clinton,NJ,08809
CRESSKILL,"1 Union Ave.
Unit 4",Cresskill,NJ,07626
DELRAN,"1330 Fairview Boulevard
Unit E",Delran,NJ,08075
DENVILLE,"3130 Route 10 West
Suite 6-A",Denville,NJ,07834
ROCKAWAY RIVER COMMONS,437 US Highway 46,Dover,NJ,07801
EAST BRUNSWICK,285 Route 18 S.,East Brunswick,NJ,08816
EAST HANOVER,346 Route 10 West,East Hanover,NJ,07936
EAST RUTHERFORD,50 Route 17 North,East Rutherford,NJ,07073
EAST WINDSOR,319 Route 130,East Windsor,NJ,08520
EDGEWATER,725 River Road,Edgewater,NJ,07020
ELIZABETH,505 North Broad Street,Elizabeth,NJ,07208
EMERSON,"464 Kinderkamack Road.
Unit 812",Emerson,NJ,07630
PALISADES COURT,61 Nathaniel Place,Englewood,NJ,07631
CAMPUS TOWN AT TCNJ,"400 Main Blvd East
Suite 603",Ewing,NJ,08638
FAIR LAWN,3120 Promenade Blvd.,Fair Lawn,NJ,07410
FARMINGDALE,1175 Route 33,Farmingdale,NJ,07727
FLANDERS,"293 Route 206
Suite 1A",Flanders,NJ,07836
FLEMINGTON,75 Reaville Avenue,Flemington,NJ,08822
FLORHAM PARK,182 Ridgedale Ave.,Florham Park,NJ,07932
FORKED RIVER,1 Lacey Road,Forked River,NJ,08731
FORT LEE,2151 Lemoine Avenue,Fort Lee,NJ,07024
FREEHOLD,3528 Route 9 South,Freehold,NJ,07728
ROWAN UNIVERSITY,201 Mullica Hill Road,Glassboro,NJ,08028
HACKENSACK,"120 River Street
Unit 1B",Hackensack,NJ,07601
HACKETTSTOWN,1885 Rt 57,Hackettstown,NJ,07840
HAINESPORT,"1520 Route 38
Unit 6",Hainesport,NJ,08036
HAMILTON MARKETPLACE,620 Marketplace Blvd.,Hamilton,NJ,08691
HAMILTON SQUARE,950 Hwy. 33,Hamilton Square,NJ,08690
HILLSBOROUGH,"706 Route 206 D
Suite 1",Hillsborough,NJ,08844
HOBOKEN,202 Hudson Street,Hoboken,NJ,07030
HOLMDEL,2145 State Route 35,Holmdel,NJ,07733
HOWELL,3950 Route 9 and Aldrich Road,Howell,NJ,07731
HOWELL,991 Route 9 N,Howell,NJ,07731
BENNETTS MILL PLAZA,"2275 West County Line Road
Unit 27",Jackson,NJ,08527
KEARNY,"190 Passaic Avenue
Suite 102",Kearny,NJ,07032
LAKEWOOD,1195 Route 70,Lakewood,NJ,08701
LAVALLETTE,"604 Grand Central
Unit B.",Lavallette,NJ,08735
LAWRENCE,"2495 Brunswick Pike
Unit 28",Lawrence,NJ,08648
RIDER UNIVERSITY'S BART LUEDEKE CENTER,"The Bart Luedeke Center
2083 Lawrenceville Road",Lawrenceville,NJ,08648
LINCOLN PARK,275 Comly Road,Lincoln Park,NJ,07035
LINCROFT,728 Newman Springs Road,Lincroft,NJ,07738
AVIATION PLAZA,"683 W. Edgar Road
Store #5",Linden,NJ,07036
LITTLE EGG HARBOR,418 Rt. 9 South,Little Egg Harbor,NJ,08087
LITTLE FERRY,269 Route 46 West,Little Ferry,NJ,07643
LONG BRANCH,444 Ocean Blvd North,Long Branch,NJ,07740
LYNDHURST,548 New York Avenue,Lyndhurst,NJ,07071
MANAHAWKIN - ROUTE 9,25 South Main Street,Manahawkin,NJ,08050
MANASQUAN,2627 Highway 70,Manasquan,NJ,08736
MANASQUAN,82 Taylor Avenue,Manasquan,NJ,08736
MARLTON,908 Rt. 73 North,Marlton,NJ,08053
MATAWAN,251 Main Street,Matawan,NJ,07747
METUCHEN,"349 Lake Avenue
Suite115",Metuchen,NJ,08840
MIDDLETOWN,1209 Route 35,Middletown,NJ,07748
MONTCLAIR STATE UNIVERSITY,1 Normal Avenue,Montclair,NJ,07043
MONTVALE,12 Chestnut Ridge Road,Montvale,NJ,07645
EAST GATE SQUARE SHOPPING CENTER,1624 Nixon Dr.,Moorestown,NJ,08057
MORGANVILLE,450 Union Hill Rd.,Morganville,NJ,07751
MORRISTOWN,191 East Hanover Ave,Morristown,NJ,07960
CENTERTON SQUARE SHOPPING CENTER,"10 Centerton Road
Suite 202",Mt. Laurel,NJ,08054
NEPTUNE,71 South Main Street,Neptune,NJ,07753
ROUTE 66/ASBURY AVENUE,2305 State Highway 66,Neptune,NJ,07753
GATEWAY CENTER,"265 Market Street
Gateway Ctr. 3",Newark,NJ,07102
NEWARK,"52 New Street
Suite D",Newark,NJ,07102
NEWARK LIBERTY INTERNATIONAL AIRPORT,"6 Earhart Drive
Terminal 1, Unit 02.0110 Boardwalk Bites Food Court",Newark,NJ,07114
THE YARD,44 College Ave,New Brunswick,NJ,08901
VILLAGE SHOPPING CENTER,1260 Springfield Ave.,New Providence,NJ,07974
(88TH AND TONNELLE AVENUE),"2100 88th Street
Unit 13A",North Bergen,NJ,07047
NORTH HALEDON,475 High Mountain Road,North Haledon,NJ,07508
NORTHVALE,254C Livingston Street,Northvale,NJ,07647
OAKHURST,2100 Hwy 35,Oakhurst,NJ,07712
PARAMUS,"305 Route 17 South
Suite 3206",Paramus,NJ,07652
PARK RIDGE,185 Kinderkamack Road,Park Ridge,NJ,07656
PARLIN,1068 RT. 9 South,Parlin,NJ,08859
PARSIPPANY,317 Smith Rd.,Parsippany,NJ,07054
PISCATAWAY,"1322 Centennial Avenue
Unit 6",Piscataway,NJ,08854
POINT PLEASANT,2600 Bridge Avenue,Point Pleasant,NJ,08742
POINT PLEASANT BEACH,901 Richmond Avenue,Point Pleasant Beach,NJ,08742
POMPTON PLAINS,500 Rt. 23,Pompton Plains,NJ,07444
PRINCETON,"3495 Highway 1 South
Suite 118B",Princeton,NJ,08540
RAMSEY,557 North Franklin Turnpike,Ramsey,NJ,07446
RARITAN,"300 Route 202 South
Suite 3A",Raritan,NJ,08869
RED BANK,100 Water Street,Red Bank,NJ,07701
RIDGEWOOD,305 E Ridgewood Ave,Ridgewood,NJ,07450
RIVER EDGE,1045 Main Street,River Edge,NJ,07661
ROCHELLE PARK,"60 Essex St.
Suite 104",Rochelle Park,NJ,07662
ROSELAND,35 Eisenhower Parkway,Roseland,NJ,07068
SECAUCUS,200 Mill Creek Drive,Secaucus,NJ,07094
SEWELL,415 Egg Harbor Road,Sewell,NJ,08080
SHREWSBURY,10 Shrewsbury Plaza,Shrewsbury,NJ,07702
SICKLERVILLE,3421 Black Horse Pike,Sicklerville,NJ,08081
SILVERTON,1840 Hooper Avenue,Silverton,NJ,08753
SKILLMAN,1320 Van Horne Road,Skillman,NJ,08558
SOMERSET,"120 Cedar Grove Lane
Unit 16",Somerset,NJ,08873
SOMERSET,1165 Route 27,Somerset,NJ,08873
SETON HALL UNIVERSITY,400 S.Orange Avenue,South Orange,NJ,07079
SPARTA,"10 North Village Blvd.
Suite A",Sparta,NJ,07871
SPOTSWOOD,93 Old Stage Road,Spotswood,NJ,08884
SUCCASUNNA,275 State Route 10 E,Succasunna,NJ,07876
TOMS RIVER,1 Route 37 West,Toms River,NJ,08753
HOOPER COMMONS,"1362 Hooper Avenue
Suite 160",Toms River,NJ,08753
TOMS RIVER - FISCHER BLVD,"884 Fischer Blvd.
Suite 3A",Toms River,NJ,08753
ORCHARDS AT DOVER,1311 Rt 37 West,Toms River,NJ,08755
TOTOWA,160 Union Blvd,Totowa,NJ,07512
UNION,1350 Galloping Hill Rd,Union,NJ,07083
KEAN UNIVERSITY,1000 Morris Ave,Union,NJ,07083
VOORHEES,910 Haddonfield-Berlin Rd.,Voorhees,NJ,08043
WALL,1933 Highway 35 & Allaire Road,Wall,NJ,07719
WANAQUE (WANAQUE,1353 Ringwood Ave,Wanaque (Wanaque,NJ,07420
WARREN,177 Washington Valley Rd.,Warren,NJ,07059
HAMBURG TURNPIKE,1055 Hamburg Turnpike,Wayne,NJ,07470
WEST BELT PLAZA,57 Rt. 23,Wayne,NJ,07470
WEST CALDWELL,775 Bloomfield Ave,West Caldwell,NJ,07006
WEST LONG BRANCH,175 Monmouth Road,West Long Branch,NJ,07764
MONMOUTH UNIVERSITY,400 Cedar Avenue,West Long Branch,NJ,07764
K-MART PLAZA,235 Prospect Ave,West Orange,NJ,07052
WEST WINDSOR,43 Princeton Hightstown Road,West Windsor,NJ,08550
WHIPPANY,"456 Route 10
Unit 6",Whippany,NJ,07981
WHITING,"420 Lacey Road
Suite 2",Whiting,NJ,08759
WOODBRIDGE,899 B St. Georges Avenue,Woodbridge,NJ,07095
WYCKOFF,300 Godwin Ave.,Wyckoff,NJ,07481
ALBUQUERQUE,"2621 Coors Blvd. NW
Suite A",Albuquerque,NM,87120
ALBUQUERQUE,6060 San Mateo Blvd NE,Albuquerque,NM,87109
ALBUQUERQUE,"9500 Montgomery Blvd NE
Suite 6A",Albuquerque,NM,87111
ALBUQUERQUE,2608 Central Ave SE,Albuquerque,NM,87106
ALBUQUERQUE,"6400 Holly Avenue
Suite A",Albuquerque,NM,87113
ALBUQUERQUE,9411 Coors Blvd.,Albuquerque,NM,87114
ALBUQUERQUE,"3510 Coors Boulevard SW
Suite B",Albuquerque,NM,87121
LAS CRUCES,"4169 White Sage Arc
Suite B",Las Cruces,NM,88011
LOS LUNAS,1660 Main Street,Los Lunas,NM,87031
RIO RANCHO,1121 Unser Blvd SE,Rio Rancho,NM,87124
ROSWELL,"4504 North Main Street
Suite F",Roswell,NM,88201
SANTA FE,4980 Promenade Blvd.,Santa Fe,NM,87507
ALBANY,1206-10 Western Avenue,Albany,NY,12203
ALBANY,109 Wolf Road,Albany,NY,12205
ALBERTSON,1034 Willis Avenue,Albertson,NY,11507
AMHERST,"1595 Niagara Falls Blvd
Suite 500",Amherst,NY,14228
TOP'S PLAZA,"8100 Transit Rd
Suite 300",Amherst,NY,14221
EAST ROBINSON,3030 Niagara Falls Boulevard,Amherst,NY,14228
AMSTERDAM,4930 State Highway 30,Amsterdam,NY,12010
BATAVIA,8379 Lewiston Road,Batavia,NY,14020
BAYPORT,869 Montauk Highway,Bayport,NY,11705
BAY SHORE,585 Main Street (Montauk Highway),Bay Shore,NY,11706
BELLMORE,2756 Sunrise Hwy,Bellmore,NY,11710
BETHPAGE,"4025C Hempstead Turnpike
Suite 3",Bethpage,NY,11714
BINGHAMTON,1257 Upper Front Street,Binghamton,NY,13905
BOHEMIA,1500 Smithtown Ave,Bohemia,NY,11716
BROOKLYN,300 7th Ave,Brooklyn,NY,11215
BROOKLYN,131 5th Ave,Brooklyn,NY,11217
BROOKLYN,117 Livingston Street,Brooklyn,NY,11201
BROOKLYN,2115 Ralph Avenue,Brooklyn,NY,11234
CARLE PLACE,202 Glen Cove Road,Carle Place,NY,11514
WOODBURY COMMONS PREMIUM OUTLETS,"498 Red Apple Ct
Unit FC-8",Central Valley,NY,10917
CHEEKTOWAGA,"3385 Union Road
Suite 200",Cheektowaga,NY,14225
CICERO,7903 Brewerton Road,Cicero,NY,13039
CLIFTON PARK,5 Southside Dr.,Clifton Park,NY,12065
COMMACK,6224 Jericho Turnpike,Commack,NY,11725
DEER PARK,512 Commack Rd,Deer Park,NY,11729
DEWITT,3401 Erie Blvd. East,DeWitt,NY,13214
EAST MEADOW,2332A Hempstead Turnpike,East Meadow,NY,11554
EAST NORTHPORT,15 Hewitt Square,East Northport,NY,11731
FARMINGDALE,"1280 Broad Hollow Rd.(Rt 110)
Suite C",Farmingdale,NY,11735
FISHKILL,584 Rt. 9,Fishkill,NY,12524
FOREST HILLS,107-12 Continental Avenue,Forest Hills,NY,11375
FREEPORT,51 E Merrick Road,Freeport,NY,11520
FRESH MEADOWS,61-34 190th Street,Fresh Meadows,NY,11365
GARDEN CITY PARK,2345 Jericho Turnpike,Garden City Park,NY,11040
GLENMONT,"380 Feura Bush Rd.
Suite 200",Glenmont,NY,12077
GOSHEN PLAZA,105 Clowes Avenue,Goshen,NY,10924
GREECE,2838 West Ridge Road,Greece,NY,14626
HAMBURG,3670 McKinley Parkway,Hamburg,NY,14219
HAMBURG,"5340 Southwestern Blvd.
Suite 200",Hamburg,NY,14075
HARTSDALE,247 North Central Avenue,Hartsdale,NY,10530
HAUPPAUGE,"586 Veterans Memorial Hwy
Suite 5",Hauppauge,NY,11788
HAUPPAUGE,"410 Motor Parkway
Suite B",Hauppauge,NY,11788
HICKSVILLE,180 W Old Country Road,Hicksville,NY,11801
HORSEHEADS,"1642 County Road 64
Suite H-2B",Horseheads,NY,14845
HUNTINGTON STATION,"7 East Jericho Turnpike
STE 2",Huntington Station,NY,11746
LAKE RONKONKOMA,601-24 Portion Road,Lake Ronkonkoma,NY,11779
LATHAM,800 Loudon Road,Latham,NY,12110
LINDENHURST,"155 West Sunrise Hwy.
Unit 4",Lindenhurst,NY,11757
LIVERPOOL,115 Elwood Davis Road,Liverpool,NY,13088
LIVERPOOL,7567 Oswego Road,Liverpool,NY,13090
LOCKPORT,5746 South Transit Road,Lockport,NY,14094
LYNBROOK,643 Sunrise Highway,Lynbrook,NY,11563
MALTA,4 Kelch Drive,Malta,NY,12020
MASPETH,59-03 Maurice Ave,Maspeth,NY,11378
PARK PLAZA,5050 Sunrise Hwy,Massapequa Park,NY,11762
MIDDLETOWN,"444 Route 211 E.
Suite #6",Middletown,NY,10940
MOHEGAN LAKE,"3150 E Main Street
Suite 200",Mohegan Lake,NY,10547
NANUET,191 W. Route 59,Nanuet,NY,10954
NEWBURGH,"1223 Rt. 300
Suite 203",Newburgh,NY,12550
NEW HARTFORD,4759 Commercial Drive,New Hartford,NY,13413
NIMBUS MIDTOWN,307 W. 38th St,New York,NY,10018
WASHINGTON HEIGHTS,4055 Broadway,New York,NY,10032
NEW YORK,"30 Vandam St.
Nimbus Soho",New York,NY,10013
NIAGARA FALLS,"1550 Military Road
Suite 310",Niagara Falls,NY,14304
NORWICH,5631 State Highway 12,Norwich,NY,13815
OCEANSIDE,24 Atlantic Ave,Oceanside,NY,11572
ONEIDA,"122 Genesee Street
Suite 4",Oneida,NY,13421
ONEONTA,5001 State Highway 23,Oneonta,NY,13820
PENFIELD,2067 Fairport Nine Mile Point Road,Penfield,NY,14526
PLATTSBURGH,114 Consumer Square,Plattsburgh,NY,12901
PORT JEFFERSON STATION,"4600 Nesconset Hwy.
Suite C",Port Jefferson Station,NY,11776
POUGHKEEPSIE,"2627 South Rd
Suite #20",Poughkeepsie,NY,12601
POUGHKEEPSIE,"34 Winslow Gate Road
Space D4",Poughkeepsie,NY,12601
LAGUARDIA AIRPORT (LGA),"LaGuardia Airport, Terminal C",Queens,NY,11371
QUEENSBURY,"756 Upper Glen Street
Suite 8",Queensbury,NY,12804
RENSSELAER,307 Troy Road,Rensselaer,NY,12144
BRIGHTON MONROE,"2780 Monroe Avenue
Suite #207",Rochester,NY,14618
IRONDEQUOIT,1233 East Ridge Road,Rochester,NY,14621
GATES,20 Spencerport Road,Rochester,NY,14606
BRIGHTON SOUTH CLINTON,1865 S. Clinton Ave.,Rochester,NY,14618
ROCKY POINT,357 Route 25A,Rocky Point,NY,11778
ROTTERDAM,1410 Altamont Ave,Rotterdam,NY,12303
SARATOGA SPRINGS,"3057 NY State 50
Wilton Plaza",Saratoga Springs,NY,12866
SELDEN,280A Middle Country Road,Selden,NY,11784
SHIRLEY,800 Montauk Highway,Shirley,NY,11967
STATEN ISLAND,2714 Hylan Blvd,Staten Island,NY,10306
STATEN ISLAND,2795 Richmond Avenue,Staten Island,NY,10314
STONY BROOK,1113 Route 25A,Stony Brook,NY,11790
STONY POINT,22 Holt Drive,Stony Point,NY,10980
SUFFERN,218 Route 59,Suffern,NY,10901
SYOSSET,356 Jericho Turnpike,Syosset,NY,11791
SYRACUSE,3528 West Genesee Street,Syracuse,NY,13219
TONAWANDA,3611 Delaware Avenue,Tonawanda,NY,14217
UNIONDALE,988 Hempstead Turnpike,Uniondale,NY,11553
VESTAL,"4700 Vestal Parkway
Suite 13",Vestal,NY,13850
VESTAL,"2540 Vestal Parkway East
Suite 1A",Vestal,NY,13850
VICTOR,"405 Commerce Drive
Suite 200",Victor,NY,14564
WAPPINGER FALLS,1576 Route 9,Wappinger Falls,NY,12590
WEBSTER,975 Ridge Road,Webster,NY,14580
WEST HEMPSTEAD,621 Hempstead Turnpike,West Hempstead,NY,11552
MAIN STREET WILLIAMSVILLE,"5712 Main Street
Suite 120",Williamsville,NY,14221
YONKERS,2361B Central Park Avenue,Yonkers,NY,10710
CENTRAL PARK SHOPPING CENTER,"11109 US Hwy 15/501
Suite H",Aberdeen,NC,28315
ALBEMARLE,"718 Leonard Ave
Suite E",Albemarle,NC,28001
LAKE PINE PLAZA,922 Highway 64,Apex,NC,27523
PEAK PLAZA,1761 Highway 55,Apex,NC,27523
RUTLEDGE COMMONS SHOPPING CENTER,"300 Airport Rd.
Unit 70",Arden,NC,28704
RIVER HILLS SHOPS,104A River Hills Road,Asheville,NC,28805
ASHEVILLE,"1816 Hendersonville Road
# 20",Asheville,NC,28803
ASHEVILLE,"1341 Parkwood Road
Suite 103",Asheville,NC,28806
BEAUFORT,1506 Live Oak Street,Beaufort,NC,28516
BELMONT,"905 South Point Road
Suite H",Belmont,NC,28012
BENSON,305 South Walton Drive,Benson,NC,27504
BISCOE,521 E Main Street,Biscoe,NC,27209
BOONE,119 New Market Center,Boone,NC,28607
BREVARD,"192 Asheville Hwy.
Suite F",Brevard,NC,28712
BURLINGTON,2138 South Church Street,Burlington,NC,27215
BURLINGTON,"1433 University Drive
Suite 104",Burlington,NC,27215
CAMERON,1624 NC 24-87,Cameron,NC,28326
CAPE CARTERET,215 WB McLean Drive,Cape Carteret,NC,28584
CAROLINA BEACH,910 N Lake Park Blvd.,Carolina Beach,NC,28428
CARRBORO PLAZA,"104 NC-54
Suite GG",Carrboro,NC,27510
CARTHAGE,"444 Mill Creek Road
Suite D",Carthage,NC,28327
PRESTON CORNERS,957 High House Road,Cary,NC,27513
CARY VILLAGE SQUARE,"701 Cary Towne Blvd.
Cary Village Square",Cary,NC,27511
MILLPOND VILLAGE,"3490 Kildaire Farm Road
Suite 172",Cary,NC,27518
CARY,"280 Meeting Street
Suite 109",Cary,NC,27518
CARY,7177 O'Kelly Chapel Rd,Cary,NC,27519
EASTGATE CROSSING,"1800 E Franklin Street
Suite 21",Chapel Hill,NC,27514
CHAPEL HILL NORTH CENTER,1802 Martin Luther King Jr. Boulevard,Chapel Hill,NC,27514
FALCONBRIDGE CENTER,6118-C Farrington Road,Chapel Hill,NC,27517
CHATHAM CROSSING,"11312 Hwy 15 501 N
Suite 102",Chapel Hill,NC,27517
CHARLOTTE,"2908 Oak Lake Blvd.
Suite 101",Charlotte,NC,28208
PINEVILLE,"10110 Johnston Rd.
Suite 14",Charlotte,NC,28210
PECAN POINT SHOPPING CENTER,2001 East 7th Street,Charlotte,NC,28204
INDEPENDENCE SQUARE EAST,"7309-21 E. Independence Blvd.
Independence Square East",Charlotte,NC,28227
CHARLOTTE,11112-A South Tryon St.,Charlotte,NC,28273
MALLARD POINTE SHOPPING CENTER,"9211-12 North Tryon St.
Mallard Pointe Shopping Center (University UNC Charlotte Area)",Charlotte,NC,28262
STONE CREST,"7828 Rea Road
Suite A",Charlotte,NC,28277
DILWORTH,1300 East Blvd.,Charlotte,NC,28203
CHARLOTTE,"10125 Perimeter Parkway
Ste. C",Charlotte,NC,28216
CHARLOTTE,"4724 Sharon Corners Shops
Suite I",Charlotte,NC,28210
BEREWICK TOWN CENTER,4833 - C Berewick Town Center Drive,Charlotte,NC,28278
CHARLOTTE,"10018 Benfield Rd
Suite 207",Charlotte,NC,28269
CHARLOTTE AIRPORT ATRIUM,"5501 Josh Birmingham Parkway
Charlotte Douglas International Airport",Charlotte,NC,28208
OAKHURST COMMONS,1630 Oakhurst Commons Drive,Charlotte,NC,28205
CHARLOTTE,"9510 Riverbend Village Drive
Suite K1",Charlotte,NC,28216
COLONY ROAD,"7741 Colony Road
Suite A6",Charlotte,NC,28226
CHARLOTTE,8837 Albemarle Rd,Charlotte,NC,28227
SOUTH END,3609 South Blvd,Charlotte,NC,28209
ROCKY RIVER ROAD,9384 Sullivan Vale Lane,Charlotte,NC,28215
CHARLOTTE,"Ballantyne Commons East
15105-C John J. Delaney Drive",Charlotte,NC,28277
CLEMMONS,4192 Clemmons Rd.,Clemmons,NC,27012
CLINTON,"1275 Sunset Avenue
Suite E-03",Clinton,NC,28328
CORNER OF COPPERFIELD BLVD AND BRANCHVIEW,"300 Copperfield Blvd.
Suite 100",Concord,NC,28025
AFTON RIDGE,6028 Bayfield Parkway,Concord,NC,28027
CONCORD,"8680 Concord Mills Blvd.
Suite#30",Concord,NC,28027
CORNELIUS,20619 Torrence Chapel Road,Cornelius,NC,28031
DENVER,"7260 Highway 73
Suite 113",Denver,NC,28037
DUNN,"1165 East Cumberland Street
Suite 124",Dunn,NC,28334
DURHAM,"3600 North Duke Street
Suite 37",Durham,NC,27704
DURHAM,"2945 South Miami Blvd
Suite 101",Durham,NC,27703
DURHAM,"7005 Fayetteville Road
Suite 101",Durham,NC,27713
DURHAM FESTIVAL S/C,"3409-H Hillsborough Road
Suite A-1",Durham,NC,27705
UNIVERSITY COMMONS DURHAM,1835 Martin Luther King Jr. Pkwy.,Durham,NC,27707
DURHAM,"3219 Watkins Road
Suite 101",Durham,NC,27707
ELIZABETH CITY,"103 Tanglewood Parkway
Ste. F",Elizabeth City,NC,27909
ELIZABETHTOWN,"300 S Poplar St
Suite A",Elizabethtown,NC,28337
ELKIN,"544 CC Camp Road
Suite 500",Elkin,NC,28621
FAYETTEVILLE,"3041 Boone Trail Ext
Suite 110",Fayetteville,NC,28304
NEXT TO ALDI,4788 North Raeford Rd.,Fayetteville,NC,28304
FAYETTEVILLE,5815 Yadkin Road,Fayetteville,NC,28303
FAYETTEVILLE,4225-B Ramsey Street,Fayetteville,NC,28311
NEAR TRACTOR SUPPLY,8018 Raeford Rd.,Fayetteville,NC,28304
FAYETTEVILLE,"3011 Town Center Drive
Suite 100",Fayetteville,NC,28306
FAYETTEVILLE,161 Westwood Shopping Center,Fayetteville,NC,28314
FAYETTEVILLE,2138 Cedar Creek Rd,Fayetteville,NC,28312
FOREST CITY,176 Sparks Drive,Forest City,NC,28043
FUQUAY,701-A N. Main St.,Fuquay,NC,27526
GARNER,2345 Timber Drive,Garner,NC,27529
GARNER,"106-1 Bratton Drive
(At Highway 40 & Highway 42)",Garner,NC,27529
GARNER,166 Cabela Drive,Garner,NC,27529
FRANKLIN SQUARE PHASE III,"3754 East Franklin Blvd.
Franklin Square Phase III",Gastonia,NC,28056
JERSEY MIKE'S OF GOLDSBORO,2503 E. Ash Street,Goldsboro,NC,27534
GREENSBORO,"2104 Georgia Street
Suite 101",Greensboro,NC,27408
GREENSBORO,2939-B Battleground Avenue,Greensboro,NC,27408
GREENSBORO,425 Pisgah Church Rd.,Greensboro,NC,27455
GREENSBORO,"4016 Battleground Ave.
Suite C",Greensboro,NC,27410
GREENSBORO,6023-E W. Gate City Boulevard,Greensboro,NC,27407
GREENSBORO,1649 New Garden Road,Greensboro,NC,27410
GREENVILLE,310-D East Arlington Boulevard,Greenville,NC,27858
GREENVILLE,"1915 South East Greenville Blvd
Suite E",Greenville,NC,27858
GREENVILLE,796A Moye Boulevard,Greenville,NC,27834
GREENVILLE,1908 E. Firetower Road,Greenville,NC,27858
NEAR TOPSAIL HIGH SCHOOL - MAINLAND,"17230 US 17 North
Suite 200",Hampstead,NC,28443
HARRISBURG,"7234 Caldwell Rd.
Suite C3",Harrisburg,NC,28075
HAVELOCK,288 Hwy 70 WEST,Havelock,NC,28532
HENDERSON,997 South Beckford Drive,Henderson,NC,27536
HICKORY,2429 Highway 70 SE,Hickory,NC,28602
MAIN CHESTER CENTER,"2200 N. Main St
Suite 103",High Point,NC,27262
THE MARKETPLACE SHOPPING CENTER,"2620 S. Main Street
Suite 148",High Point,NC,27263
HIGH POINT,"4117 Brian Jordan Place
Suite 102",High Point,NC,27265
HILLSBOROUGH,"115 Oakdale Drive
Suite 5",Hillsborough,NC,27278
HOLLY SPRINGS,242 Grand Hill Place,Holly Springs,NC,27540
HOPE MILLS,3069 N Main Street,Hope Mills,NC,28348
BAYSHORE PLAZA SHOPPING CENTER,105 C South Statesville Rd.,Huntersville,NC,28078
HUNTERSVILLE,"14007 North Creek Village
Suite 300",Huntersville,NC,28078
INDIAN TRAIL,"6580 Old Monroe Road
Ste. E",Indian Trail,NC,28079
JACKSONVILLE,"301 Western Boulevard
Ste. E",Jacksonville,NC,28546
JACKSONVILLE,"3494 Western Blvd
Suite 120",Jacksonville,NC,28546
JACKSONVILLE,"2758 Richlands Highway
Suite A",Jacksonville,NC,28540
JAMESTOWN,4835 W. Wendover Ave. #144,Jamestown,NC,27282
KERNERSVILLE,"230 Market View Drive
Suite A",Kernersville,NC,27284
KERNERSVILLE,1511 Union Cross Road,Kernersville,NC,27284
KINGS MOUNTAIN,"110 W King Street
Unit 1",Kings Mountain,NC,28086
KNIGHTDALE,6727 - C Knightdale Blvd.,Knightdale,NC,27545
LAURINBURG,12280 McColl Road,Laurinburg,NC,28352
LELAND,2029 Olde Regent Way Suite 110,Leland,NC,28451
LENOIR,"112 Wilkesboro Blvd
Suite A-1",Lenoir,NC,28645
LEXINGTON,47 Plaza Pkwy,Lexington,NC,27292
LINCOLNTON,"102 Stanford Road
Suite A",Lincolnton,NC,28092
LOCUST,11606 Red Bridge Road,Locust,NC,28097
LOUISBURG,"505 Retail Way
Suite 116",Louisburg,NC,27549
LUMBERTON,3000 North Elm Street,Lumberton,NC,28358
MANTEO,110 South US Highway 64-264,Manteo,NC,27954
MATTHEWS FESTIVAL,"1909 Matthews Township Parkway
Suite #100",Matthews,NC,28105
PLANTATION MARKET,3116 Weddington Rd.,Matthews,NC,28105
DEERFIELD COMMONS SHOPPING CENTER,102 Millstead Dr.,Mebane,NC,27302
MINT HILL,7028 Brighton Park Dr.,Mint Hill,NC,28227
MOCKSVILLE,1045 Yadkinville Road,Mocksville,NC,27028
MONROE,2836 W Highway 74,Monroe,NC,28110
MOORESVILLE,"647 Brawley School Road
Suite 100",Mooresville,NC,28117
MOORESVILLE,"107 Commons Drive
Suite D",Mooresville,NC,28117
MOREHEAD CITY,"4950 Arendell Street
Marketplace Center",Morehead City,NC,28557
MORGANTON,B114 Morganton HTS Blvd,Morganton,NC,28655
MORRISVILLE,962D Airport Boulevard,Morrisville,NC,27560
MORRISVILLE,"3608 Davis Drive
Suite 100",Morrisville,NC,27560
RIVERTRACK CROSSING,"1025 Rockford St
Suite 100",Mount Airy,NC,27030
MOYOCK,102 D Moyock Commons Dr.,moyock,NC,27958
NAGS HEAD - MP 10.5,"2424 South Croatan Highway
Unit C",Nags Head,NC,27959
NEW BERN,"3029 Doctor Martin Luther King Jr Blvd
Unit 26",New Bern,NC,28562
OAK ISLAND,"5001 East Oak Island Drive
Suite 104",Oak Island,NC,28465
OAK RIDGE,"8001 Marketplace Dr
Suite C",Oak Ridge,NC,27310
OCEAN ISLE LOCATION,"6278 Beach Drive SW
Suite 9",Ocean Isle Beach,NC,28469
OXFORD,"1011 Lewis Street
Suite 115",Oxford,NC,27565
PEMBROKE,409 West 3rd Street,Pembroke,NC,28372
PINECROFT SHOPPING CENTER,235 Ivey Lane,Pinehurst,NC,28374
PITTSBORO,60 Mosaic Boulevard,Pittsboro,NC,27312
WILDERS GROVE SHOPPING CENTER,4121-101 New Bern Avenue,Raleigh,NC,27610
MINI CITY,"4542 Capital Boulevard
Mini City",Raleigh,NC,27604
DURALEIGH CENTER,5910-119 Duraleigh Rd.,Raleigh,NC,27612
BRENNAN STATION,"8111 Creedmoor Rd.
Brennan Station",Raleigh,NC,27613
RALEIGH,2320 Bale Street,Raleigh,NC,27608
RALEIGH,200 West Peace Street,Raleigh,NC,27603
MCCULLERS CROSSING,"7949 Fayetteville Road
McCullers Crossing",Raleigh,NC,27603
RALEIGH,1121-105 Falls River Ave.,Raleigh,NC,27614
WAKEFIELD COMMONS SHOPPING CENTER,14460-113 Falls of the Neuse Rd.,Raleigh,NC,27614
RALEIGH,"6176 Falls of Neuse Road
Suite 104",Raleigh,NC,27609
RALEIGH,"2712 Hillsborough Street
Suite 100",Raleigh,NC,27607
RALEIGH,3201 Edwards Mill Rd,Raleigh,NC,27612
RALEIGH,"4205 Corners Parkway
Suite 130",Raleigh,NC,27617
RALEIGH,"13220 Strickland Road
Suite 168",Raleigh,NC,27613
RALEIGH,"3510-B Wade Avenue
Unit 22",Raleigh,NC,27607
REIDSVILLE,1560-I Freeway Drive,Reidsville,NC,27320
ROANOKE RAPIDS,264 Premier Blvd.,Roanoke Rapids,NC,27870
ROCKINGHAM,"1219 E. Broad Ave
Suite A",Rockingham,NC,28379
ROCKY MOUNT,1469 Hunter Hill Rd.,Rocky Mount,NC,27804
ROXBORO,1015 Durham Road,Roxboro,NC,27573
JAKE ALEXANDER,"850 Jake Alexander Blvd.West, Ste. E",Salisbury,NC,28147
TOWNE CREEK COMMONS,914 E Innes Street,Salisbury,NC,28144
SANFORD,"3110 S. Horner Blvd.
Space D",Sanford,NC,27332
SANFORD,"2233 Jefferson Davis Highway
Suite 102A",Sanford,NC,27330
SHALLOTTE,111 Holden Beach Road,Shallotte,NC,28470
SHERRILLS FORD,7610 E NC-150,Sherrills Ford,NC,28673
SILER CITY,1119 E 11th Street,Siler City,NC,27344
SMITHFIELD,1233 N Brightleaf Blvd.,Smithfield,NC,27577
SNEADS FERRY,1246 NC Hwy 210,Sneads Ferry,NC,28460
SOUTHERN SHORES - MP 1,5597B N. Croatan Hwy.,Southern Shores,NC,27949
SOUTHPORT,5130 Southport-Supply Road,Southport,NC,28461
SPRING LAKE,"630 N. Bragg Blvd.
Suite 108",Spring Lake,NC,28390
STATESVILLE,"252 Turnersburg Hwy.
Suite H",Statesville,NC,28625
STONEY CREEK VILLAGE,6307-L Burlington Rd,Stoney Creek,NC,27377
SURF CITY - NEAR BRIDGE,"2770 NC Highway 210 East
Suite 103",Surf City,NC,28443
SWANSBORO,807-5 W. Corbett Ave.,Swansboro,NC,28584
SYLVA,"374 Walmart Plaza
Suite C-03",Sylva,NC,28779
RIVER OAKS LANDING,150 River Oaks Drive,Tarboro,NC,27886
THOMASVILLE,"1033 Randolph Street
Suite 30A",Thomasville,NC,27360
WAKE FOREST,"1009 Stadium Drive
Suite 116",Wake Forest,NC,27587
WAKE FOREST,"1040 Forestville Road
Suite 140",Wake Forest,NC,27587
WARSAW,2701 NC Highway 24 West,Warsaw,NC,28398
WASHINGTON,420 Pamlico Plaza,Washington,NC,27889
CURETON SHOPPING CENTER,8121 Kensington Drive,Waxhaw,NC,28173
WEDDINGTON CORNERS SHOPPING CENTER,13651 Providence Road,Weddington,NC,28104
WENDELL FALLS,"2240 Wendell Falls Parkway
Suite 130",Wendell Falls,NC,27591
WESLEY CHAPEL,"5922 Weddington Road
Suite A-11",Wesley Chapel,NC,28104
WHITEVILLE,22 Northfield Center,Whiteville,NC,28472
WILKESBORO,"1921 A W US-421
Suite 3",Wilkesboro,NC,28697
WILLIAMSTON SHOPPING CENTER,1075 Walmart Drive,Williamston,NC,27892
WILMINGTON,343-4 South College Rd.,Wilmington,NC,28403
WILMINGTON,1968 Eastwood Road,Wilmington,NC,28403
PORTER'S NECK CENTER,"8207 Market Street
Suite C",Wilmington,NC,28411
WILMINGTON,3905 G Independence Blvd.,Wilmington,NC,28412
NEAR ASHLEY HIGH SCHOOL,"6400 Carolina Beach Rd
Suite 6",Wilmington,NC,28412
WILMINGTON,3542 Oleander Drive,Wilmington,NC,28403
WILMINGTON,112 Princess Street,Wilmington,NC,28401
WILSON,5021 Raleigh Rd Pkwy W,Wilson,NC,27896
WILSON (TOWNSHIP OF),2338 Forest Hills Road,Wilson (Township of),NC,27893
CLOVERDALE PLAZA,2291 Cloverdale Ave,Winston,NC,27103
WINSTON,5940 University Parkway,Winston,NC,27105
WINSTON,1314 Creekshire Way,Winston,NC,27103
WINSTON,"5547 Robin Lark Circle
Unit 303",Winston,NC,27106
WINSTON,"5038 Peters Creek Parkway
Suite 160",Winston,NC,27127
WINTERVILLE,"4054 South Memorial Dr
Suite A",Winterville,NC,28590
FARGO,5050 Timber Parkway South,Fargo,ND,58104
GRAND FORKS,"1970 South Columbia Road
Suite 106",Grand Forks,ND,58201
MINOT,"304 4th Ave. NW
Suite 1",Minot,ND,58703
WEST FARGO,833 24th Ave E,West Fargo,ND,58078
WILLISTON,"3715 2nd Ave West
Suite 102",Williston,ND,58801
AKRON,637 Canton Rd,Akron,OH,44312
AKRON,"3100 Manchester Road
Suite 120",Akron,OH,44319
ALLIANCE,"320 West State Street
Suite D",Alliance,OH,44601
AMELIA,"1264 State Route 125
Suite 200",Amelia,OH,45102
ASHLAND,1049 Commerce Parkway,Ashland,OH,44805
ACROSS FROM TARGET,7037 N. Aurora Road,Aurora,OH,44202
AVON,"36320 Detroit Road
Suite 200",Avon,OH,44011
BEAVERCREEK,3510 Pentagon Blvd,Beavercreek,OH,45431
BLACKLICK,7175 East Broad Street,Blacklick,OH,43004
BLUE ASH,"4776 Cornell Road
Cornell Plaza",Blue Ash,OH,45241
BOARDMAN,813 Boardman Poland Road,Boardman,OH,44512
BROADVIEW HEIGHTS,4223 E. Royalton Road,Broadview Heights,OH,44147
BRUNSWICK,"3362 Center Road
Suite E10",Brunswick,OH,44212
CANAL WINCHESTER,6352 Gender Road,Canal Winchester,OH,43110
CANTON,7064 Fulton Road NW,Canton,OH,44718
CANTON,5105 Tuscarawas Street West,Canton,OH,44708
CENTERVILLE,6002 Far Hills Avenue,Centerville,OH,45459
CHAGRIN FALLS,8440 E Washington St,Chagrin Falls,OH,44023
CHARDON,"209 Center Street
Unit F",Chardon,OH,44024
CHILLICOTHE,1251 North Bridge Street,Chillicothe,OH,45601
HYDE PARK PLAZA,"3770 Paxton Rd.
Hyde Park Plaza",Cincinnati,OH,45209
CINCINNATI,8138 Beechmont Avenue,Cincinnati,OH,45255
CINCINNATI,5624 Cheviot Road,Cincinnati,OH,45247
CINCINNATI,"9525 Kenwood Rd.
Downtown Blue Ash",Cincinnati,OH,45242
CINCINNATI,8481 Winton Rd.,Cincinnati,OH,45231
CINCINNATI,5032 Glen Crossings Way,Cincinnati,OH,45238
CINCINNATI,"7346 Kenwood Rd.
Kenwood Plaza",Cincinnati,OH,45236
CINCINNATI,12133 Royal Point Dr.,Cincinnati,OH,45249
CINCINNATI,4530 EastGate Blvd.,Cincinnati,OH,45245
CINCINNATI,7205 Wooster Pike,Cincinnati,OH,45227
CINCINNATI,5500 Harrison Ave.,Cincinnati,OH,45248
XAVIER UNIVERSITY,"3800 Victory Parkway
Gallagher Student Center Building",Cincinnati,OH,45207
CINCINNATI,53 East Fourth Street,Cincinnati,OH,45202
CIRCLEVILLE,154 Summit Drive,Circleville,OH,43113
COLUMBUS,1293 West Lane Ave.,Columbus,OH,43221
COLUMBUS,4249 North High St.,Columbus,OH,43214
POLARIS TOWN CENTER,1489 Polaris Parkway,Columbus,OH,43240
COLUMBUS,1666 North High Street,Columbus,OH,43201
COLUMBUS,2480 E Main Street,Columbus,OH,43209
CORTLAND,"2170 Millennium Blvd.
Unit B-2",Cortland,OH,44410
CUYAHOGA FALLS,3469 Hudson Drive,Cuyahoga Falls,OH,44221
DAYTON,1512 Miamisburg Centerville Rd,Dayton,OH,45459
DELAWARE,"1740 Columbus Pike
Suite 101B",Delaware,OH,43015
DUBLIN,"6702 Perimeter Loop Road
Just left of Giant Eagle",Dublin,OH,43017
DUBLIN,7569 Sawmill Road,Dublin,OH,43016
ELYRIA,609 Chestnut Commons Drive,Elyria,OH,44035
ENGLEWOOD,537 S Main Street,Englewood,OH,45322
FAIRFIELD,"5440 Dixie Highway
Suite C",Fairfield,OH,45014
1 OF 2 STORES IN GAHANNA,"332 South Hamilton Road
By Planet Fitness and Edible Arrangements",Gahanna,OH,43230
GAHANNA,"1340 N. Hamilton Rd.
By Canes and Smoothie King",Gahanna,OH,43230
GROVE CITY,4114 Buckeye Parkway,Grove City,OH,43123
GROVE CITY,5919 Hoover Road,Grove City,OH,43123
HAMILTON,1430 Main St,Hamilton,OH,45013
HARRISON,10515 New Haven Road,Harrison,OH,45030
HEATH,609 Hebron Road,Heath,OH,43056
HILLIARD,"4664 Cemetery Road
Kroger Plaza at Leap Rd.",Hilliard,OH,43026
HILLIARD,"5454 Westpointe Plaza Drive
Space T",Hilliard,OH,43026
HUBER HEIGHTS,7630 Old Troy Pike,Huber Heights,OH,45424
HUDSON,"118 W. Streetsboro St.
Unit 7",Hudson,OH,44236
KENT,4100 Maplecrest Parkway,Kent,OH,44240
KETTERING,2831 Wilmington Pike,Kettering,OH,45419
LAKEWOOD,"16306 Detroit Avenue
Unit 121",Lakewood,OH,44107
LEBANON,"1248 Columbus Avenue
Suite 12",Lebanon,OH,45036
LEWIS CENTER,6464 Pullman Drive,Lewis Center,OH,43035
LIBERTY TOWNSHIP,7338 Yankee Road,Liberty Township,OH,45044
MACEDONIA,"8210 Macedonia Commons Blvd
Ste. 48",Macedonia,OH,44056
MAINEVILLE,5986 Ohio 48,Maineville,OH,45039
MARIETTA,19 Acme Street,Marietta,OH,45750
MARION,1426 Mt Vernon Avenue,Marion,OH,43302
MARYSVILLE,643 Coleman's Crossing Blvd,Marysville,OH,43040
MASON,6651 Western Row Road,Mason,OH,45040
MAYFIELD VILLAGE,6681 Wilson Mills Rd.,Mayfield Village,OH,44040
MEDINA,1176 North Court Street,Medina,OH,44256
CORNER OF HEISLEY AND MENTOR AVE,9372 Mentor Avenue,Mentor,OH,44060
ACROSS FROM GREAT LAKES MALL,7681 Mentor Ave,Mentor,OH,44060
MIDDLEBURG HEIGHTS,17887 Bagley Road,Middleburg Heights,OH,44130
MIDDLEFIELD,14950 S Springdale Ave,Middlefield,OH,44062
MILFORD,"5976 Meijer Drive
Suite B1",Milford,OH,45150
MONROE,1307 State Route 63,Monroe,OH,45050
MOUNT VERNON,1421 Coshocton Ave,Mount Vernon,OH,43050
NEW ALBANY,9725 Johnstown Rd,New Albany,OH,43054
NEWARK,1379 N. 21st Street,Newark,OH,43055
NEW PHILADELPHIA,127 Bluebell Dr. SW,New Philadelphia,OH,44663
NORTH CANTON,5448 Whipple Avenue,North Canton,OH,44720
NORTH OLMSTED,26433 Great Northern Shopping Center,North Olmsted,OH,44070
ONTARIO,783 N Lexington-Springmill Road,Ontario,OH,44906
PARMA,7468 Broadview,Parma,OH,44134
PATASKALA,380 East Broad Street,Pataskala,OH,43062
PICKERINGTON,1213 Hill Road North,Pickerington,OH,43147
THE MARKET AT LIBERTY CROSSING,3958 Powell Road,Powell,OH,43065
WESTGATE SHOPPING CENTER,20647 Center Ridge Rd.,Rocky River,OH,44116
ROSSFORD,10100 Olde US 20,Rossford,OH,43460
SALEM,2337 E. State Street,Salem,OH,44460
SANDUSKY,4315 Milan Rd,Sandusky,OH,44870
SOLON SHOPPING CENTER,33629 Aurora Rd,Solon,OH,44139
SOUTH EUCLID (TOWNSHIP OF),"13961 Cedar Rd
Unit #21",South Euclid (Township of),OH,44118
SPRINGBORO,24 W Central Ave,Springboro,OH,45066
SPRINGDALE,11409 Princeton Pike,Springdale,OH,45246
STOW,"3027 Graham Road
Unit 103",Stow,OH,44224
STREETSBORO,"9438 SR 14
Unit B",Streetsboro,OH,44241
STRONGSVILLE,13309 Pearl Road,Strongsville,OH,44136
SUNBURY,480 W Cherry Street,Sunbury,OH,43074
TOLEDO,"4558 Monroe Street
Suite A",Toledo,OH,43606
TOLEDO,"6710 West Central Avenue
Unit 6",Toledo,OH,43617
TOLEDO,1201 East Alexis Road,Toledo,OH,43612
TROY,1406 West Main Street,Troy,OH,45373
TWINSBURG,8870 Darrow Road,Twinsburg,OH,44087
UNIONTOWN,"3944 Massillon Road
Suite #104",Uniontown,OH,44685
WADSWORTH,"1154 Hinkle Drive
Suite E",Wadsworth,OH,44281
WEST CHESTER,8179-F2 Princeton Glendale Rd,West Chester,OH,45069
WESTERVILLE,5957 South Sunbury Road,Westerville,OH,43081
WESTERVILLE,7377 N State Route 3,Westerville,OH,43082
WESTERVILLE,"12 East Schrock Road
Unit 9",Westerville,OH,43081
WESTLAKE,30680 Detroit Rd.,Westlake,OH,44145
WILLOUGHBY,36295 Euclid Avenue (Route 20),Willoughby,OH,44094
WOODMERE,28450 Chagrin Boulevard,Woodmere,OH,44122
WOOSTER,"3853 Burbank Rd
Unit 1",Wooster,OH,44691
WORTHINGTON,905 N. High Street,Worthington,OH,43085
ALTUS,2221 N. Main Street,Altus,OK,73521
ARDMORE,1885 12th Ave NW,Ardmore,OK,73401
HILLSIDE CROSSINGS,854 E Hillside Dr,Broken Arrow,OK,74012
EDMOND,1724 S Broadway Extension,Edmond,OK,73013
HAMRA PLAZA,"2504 NW Cache Road
Hamra Plaza",Lawton,OK,73505
MIDWEST CITY,1940 S. Air Depot Blvd.,Midwest City,OK,73110
MOORE,660 SW 19th Street,Moore,OK,73160
NORMAN,"1204 N Interstate Dr, Norman, OK 73072",Norman,OK,73069
OKLAHOMA CITY,"1630 NW 23rd Street
Suite D & E",Oklahoma City,OK,73106
OKLAHOMA CITY,6815 SW 3rd Street,Oklahoma City,OK,73128
OKLAHOMA CITY,"7500 South Santa Fe Avenue
Suite 600",Oklahoma City,OK,73139
OKLAHOMA CITY,"2522 W. Memorial Rd.
Suite F",Oklahoma City,OK,73134
OKLAHOMA CITY,6719 North May Avenue,Oklahoma City,OK,73116
OWASSO,"9045 North 121st East Ave
Suite 1000",Owasso,OK,74055
SHAWNEE,"4832 Marketplace Boulevard
Suite 200",Shawnee,OK,74804
STILLWATER,"1717 N Perkins Rd
Space B",Stillwater,OK,74075
TULSA,10912 S. Memorial Drive,Tulsa,OK,74133
TULSA,7526 S. Olympia Avenue,Tulsa,OK,74132
TULSA,"4785 E 91st St
Suite F",Tulsa,OK,74137
TULSA,"10140 E 71st Street
Suite D",Tulsa,OK,74133
YUKON,1600 Garth Brooks Blvd.,Yukon,OK,73099
ALBANY,1250 Waverly Drive SE,Albany,OR,97322
BEAVERTON,"3205 SW Cedar Hill Blvd
Suite 20",Beaverton,OR,97005
PACIFIC PLACE CENTER,10035 SW Nimbus Ave,Beaverton,OR,97008
BEND,"143 SW Century Drive
Suite 100",Bend,OR,97702
BEND,222 NE Emerson Avenue,Bend,OR,97701
CLACKAMAS,"10117 SE Sunnyside Rd
Suite E",Clackamas,OR,97015
CORVALLIS,2051 Monroe Street,Corvallis,OR,97330
EUGENE,"3003 North Delta Hwy
Suite 304",Eugene,OR,97408
EUGENE,801 E. 13th Avenue,Eugene,OR,97401
EUGENE,2757 West 11th Avenue,Eugene,OR,97402
GRANTS PASS,"200 Terry Lane
Unit C",Grants Pass,OR,97526
HAPPY VALLEY,17015 SE Sunnyside Rd,Happy Valley,OR,97015
HILLSBORO,4544 NE Cornell Road,Hillsboro,OR,97124
HILLSBORO,2515 SE Tualatin Valley Hwy.,Hillsboro,OR,97123
KEIZER,5001 River Road North,Keizer,OR,97303
MEDFORD,"1421 Center Drive
Suite 101",Medford,OR,97501
NEWBERG,"4105 E Crestview Drive
Suite 115",Newberg,OR,97132
OREGON CITY,"19526 Molalla Avenue
Suite 133",Oregon City,OR,97045
CASCADE STATION,10123 NE Cascades Parkway,Portland,OR,97220
PORTLAND,2605 E Burnside St,Portland,OR,97214
PORTLAND,12243 North Center Avenue,Portland,OR,97217
PORTLAND,13543 NW Cornell Road,Portland,OR,97229
PORTLAND,"1450 NE 122nd Avenue
Suite C",Portland,OR,97230
SALEM,"4425 Commercial Street SE
Suite 180",Salem,OR,97302
SALEM,3815 Center Street NE,Salem,OR,97301
SHERWOOD,"21155 SW Baler Way
Suite 111",Sherwood,OR,97140
SPRINGFIELD,1131 Mohawk Blvd.,Springfield,OR,97477
TIGARD,"11705 SW Pacific Hwy.
Suite X",Tigard,OR,97223
TUALATIN,7698 SW Nyberg Road,Tualatin,OR,97062
WEST SALEM,555 Edgewater,West Salem,OR,97304
WOOD VILLAGE,"22401 NE Glisan Street
Suite B",Wood Village,OR,97060
ALLENTOWN-BROADWAY,"4670 Broadway Road
Suite A9",Allentown,PA,18104
ALLISON PARK,"4848 Route 8
Unit 5 A",Allison Park,PA,15101
ALTOONA,505 E. Plank Road,Altoona,PA,16602
BARTONSVILLE,"3578 Route 611
Suite 260",Bartonsville,PA,18321
BETHEL PARK,5255 Library Road,Bethel Park,PA,15102
BETHLEHEM,2415 Schoenersville Rd.,Bethlehem,PA,18017
BLAWNOX,171 Freeport Road,Blawnox,PA,15238
CENTRE SQUARE COMMONS,"960 Dekalb Pike
Suite210",Blue Bell,PA,19422
BRIDGEVILLE,1155 Washington Pike,Bridgeville,PA,15017
BUTLER,"340 New Castle Rd
Suite 2",Butler,PA,16001
CAMP HILL,25 North 32nd Street,Camp Hill,PA,17011
CAMP HILL,1120 Carlisle Road,Camp Hill,PA,17011
CHAMBERSBURG,"Pavillion Gateway
241 Walker Road",Chambersburg,PA,17201
CRANBERRY (TOWNSHIP OF),20300 Route 19,Cranberry (Township of),PA,16066
DALLAS,65 Dallas Village Shopping Center,Dallas,PA,18612
SCRANTON CARBONDALE HIGHWAY,539 Route 6,Dickson City,PA,18508
DOYLESTOWN,4347 W. Swamp Road,Doylestown,PA,18902
DUBOIS,1205 E DuBois Avenue,DuBois,PA,15801
LOWER NAZARETH,"3770 Dryland Way
Suite 500",Easton,PA,18045
FORKS TOWNSHIP,1512 Sullivan Trail,Easton,PA,18040
EAST STROUDSBURG,410 Lincoln Ave,East Stroudsburg,PA,18301
EPHRATA,"807 E. Main Street
Suite 300",Ephrata,PA,17522
ERIE,1215 Pittsburgh Ave.,Erie,PA,16505
ERIE,"6825 Peach Street
Suite A-9",Erie,PA,16509
ERIE,4005 Buffalo Road,Erie,PA,16510
FEASTERVILLE,182 West Street Road,Feasterville,PA,19053
GETTYSBURG,44 Natural Springs Road,Gettysburg,PA,17325
GREENSBURG,"2000 Lincoln Place
Suite 6",Greensburg,PA,15601
HAMLIN,569 Hamlin Hwy.,Hamlin,PA,18427
GATEWAY HANOVER SHOPPING CENTER,141 Wilson Avenue,Hanover,PA,17331
HARMARVILLE,"2825 Freeport Road
Suite B",Harmarville,PA,15238
HARRISBURG,"2057 EG Drive
Unit 200",Harrisburg,PA,17110
HARRISBURG,6301 Grayson Road,Harrisburg,PA,17111
HATFIELD,"500 Forty Foot Road
Suite 120",Hatfield,PA,19440
HELLERTOWN,1862 Leithsville Road,Hellertown,PA,18055
HERMITAGE,2427A E. State Street,Hermitage,PA,16148
HERSHEY,"151 West Chocolate Ave.
Suite 140",Hershey,PA,17033
HORSHAM CORNER S/C,575 Horsham Rd,Horsham,PA,19044
INDIANA,2242 Oakland Avenue,Indiana,PA,15701
KENNETT SQUARE,817 East Baltimore Pike,Kennett Square,PA,19348
LANCASTER,"1581 Fruitville Pike
Suite 2",Lancaster,PA,17601
LANCASTER,2232 Lincoln Highway East,Lancaster,PA,17602
LATROBE,"2401 Sharkys Drive
Suite C",Latrobe,PA,15650
LEBANON,"1960 Quentin Road
Unit 5",Lebanon,PA,17042
LEBANON,2203 West Cumberland Street,Lebanon,PA,17042
LEWISBURG,"7431 West Branch Hwy.
Suite 3",Lewisburg,PA,17837
LEWISTOWN,10405 US Highway 522 South,Lewistown,PA,17044
MEADVILLE,"18200 Conneaut Lake Road
Suite 2",Meadville,PA,16335
MECHANICSBURG,"6455 Carlisle Pike
Suite 4",Mechanicsburg,PA,17050
MONACA,90A Wagner Road,Monaca,PA,15061
MONROEVILLE,3975 William Penn Highway,Monroeville,PA,15146
MOON TOWNSHIP,"9898 University Boulevard
Suite 40",Moon Township,PA,15108
MOOSIC,15 Radcliffe Drive,Moosic,PA,18507
MOUNTAIN TOP,"43 S Mountain Boulevard
Unit 2",Mountain Top,PA,18707
MURRYSVILLE,304 Blue Spruce Way,Murrysville,PA,15668
NEW HOPE,334 West Bridge Street,New Hope,PA,18938
NORTH HUNTINGDON,"648 Mills Drive
Suite 3",North Huntingdon,PA,15642
WATER DAM CENTER,4123 Washington Road,Peters (Township of),PA,15317
PHILADELPHIA,3300 Fairmont Ave,Philadelphia,PA,19104
PHOENIXVILLE,1570 Egypt Road,Phoenixville,PA,19460
PITTSBURGH,7390 McKnight Road,Pittsburgh,PA,15237
PITTSBURGH,6508 Steubenville Pike,Pittsburgh,PA,15205
PITTSBURGH,5225 Liberty Avenue,Pittsburgh,PA,15224
PITTSBURGH,4582 Browns Hill Road,Pittsburgh,PA,15217
PITTSBURGH,1598 Cochran Road,Pittsburgh,PA,15220
PITTSBURGH,"987 Greentree Road
Suite 101",Pittsburgh,PA,15220
PLEASANT HILLS,619 Clairton Blvd,Pleasant Hills,PA,15236
POTTSVILLE,"378 Pottsville Saint Clair Highway
Suite 1",Pottsville,PA,17901
QUAKERTOWN,260 North West End Blvd,Quakertown,PA,18951
RADNOR,"550 E Lancaster Ave.
Suite C2",Radnor,PA,19087
5TH ST READING,3225 N 5th Street,Reading,PA,19605
WYOMISSING,"2733 Paper Mill Road
Suite 10",Reading,PA,19610
ROYERSFORD,"1837 E. Ridge Pike
Suite 20",Royersford,PA,19468
SHIPPENSBURG,"40 Shippensburg Shopping Center
Suite 15",Shippensburg,PA,17257
SHREWSBURY,"472 Shrewsbury Commons Ave.
Unit A",Shrewsbury,PA,17361
SOMERSET,1180 N Ctr Ave,Somerset,PA,15501
STATE COLLEGE,2135 S. Atherton Street,State College,PA,16801
STATE COLLEGE,"2009 N. Atherton Street
Suite 100",State College,PA,16803
STATE COLLEGE,454 Shiloh Road,State College,PA,16801
TREXLERTOWN,7150 Hamilton Blvd,Trexlertown,PA,18087
TUNKHANNOCK,"2 Lane Hill Road
Suite 3",Tunkhannock,PA,18657
UNIONTOWN,"712 W Main Street
Suite 106",Uniontown,PA,15401
WASHINGTON,92 Trinity Point Drive,Washington,PA,15301
WEST CHESTER,323 E Gay Street Unit A-1,West Chester,PA,19380
VILLAGE AT PINE,"11978 Perry Highway
Suite 404",Wexford,PA,15090
WHITEHALL,"2618 MacArthur Towne Center
Unit 4",Whitehall,PA,18052
WILKES,11 Bear Creek Blvd.,Wilkes,PA,18702
WILLIAMSPORT,"201 Basin Street
Unit 12",Williamsport,PA,17701
QUEENSGATE TOWNE CENTER,1911 Springwood Road,York,PA,17403
YORK,1401 Kenneth Road,York,PA,17408
YORK,"55 Memory Lane
Suite C",York,PA,17402
CRANSTON,261 Atwood Ave,Cranston,RI,02920
EAST GREENWICH,537 Main Street,East Greenwich,RI,02818
JOHNSTON,1412 Atwood Ave,Johnston,RI,02919
LINCOLN,622 George Washington Highway,Lincoln,RI,02865
MIDDLETOWN,7 East Main Road,Middletown,RI,02842
NARRAGANSETT,14 Woodruff Avenue,Narragansett,RI,02882
NORTH PROVIDENCE,1401 Douglas Ave.,North Providence,RI,02904
PROVIDENCE,66 Branch Avenue,Providence,RI,02904
RUMFORD,75 Newport Avenue,Rumford,RI,02916
SMITHFIELD,473 Putnam Pike,Smithfield,RI,02828
WARWICK,1350 Greenwich Avenue,Warwick,RI,02886
WARWICK,782 Warwick Avenue,Warwick,RI,02888
WESTERLY,"143 Franklin Street
Unit 8",Westerly,RI,02891
AIKEN,232 Eastgate Drive,Aiken,SC,29803
ANDERSON,"3319 N. Main Street
Suite D",Anderson,SC,29621
BEAUFORT,"272 Robert Smalls Pkwy
Suite 340",Beaufort,SC,29906
BEAUFORT,"277 Sea Island Parkway
Suite 107",Beaufort,SC,29907
BLUFFTON,"1019 Fording Island Road
Suite 105-G",Bluffton,SC,29910
BOILING SPRINGS,"4384 Highway 9
Unit A",Boiling Springs,SC,29316
CAMDEN,"2231 W. Dekalb St.
Suite B",Camden,SC,29020
CHAPIN,"1221 Chapin Road
Suite F",Chapin,SC,29036
CHARLESTON,"3875 West Ashley Circle
Suite 410",Charleston,SC,29414
CHARLESTON,1975 Magwood Drive,Charleston,SC,29414
POINT HOPE (PUBLIX CENTER),"1721 Clements Ferry Road
Bldg. A-1, Unit 112",Charleston,SC,29492
CHARLESTON,"595 King Street
Suite 131",Charleston,SC,29403
CHARLESTON,"1417 Folly Road
Suite 408",Charleston,SC,29412
CHARLESTON,"1145 Savannah Highway
Suite 205",Charleston,SC,29407
CLEMSON,"1067 Tiger Boulevard
Suite 40",Clemson,SC,29631
COLUMBIA,136-3 Forum Drive,Columbia,SC,29229
COLUMBIA,4717 Devine Street,Columbia,SC,29209
MURRAYWOOD SHOPPING CENTER,7001 St. Andrews Rd.,Columbia,SC,29212
COLUMBIA,"650 Lincoln Street
Suite 200",Columbia,SC,29201
COLUMBIA,"1033 Roberts Branch Parkway
Suite 205",Columbia,SC,29203
PARKER PLAZA,"2676 Church Street
Unit B, Parker Plaza",Conway,SC,29526
IN THE COLLEGE CENTER ON HWY 544,"1300 SC-544
Unit A-1",Conway,SC,29526
DILLON,"517 Radford Boulevard
Suite B",Dillon,SC,29536
DUNCAN,"1550 East Main Street
Suite 100",Duncan,SC,29334
EASLEY TOWN CENTER SHOPPING CENTER,"125 Rolling Hills Circle
Unit C.",Easley,SC,29640
EXIT160A OFF ROUTE 95,"110 Woody Jones Blvd
Suite E",Florence,SC,29501
EXIT 164 OFF ROUTE 95,"2106 West Lucas Street
Unit 60",Florence,SC,29501
FLORENCE,"211 Pamplico Highway
Unit B",Florence,SC,29505
FORT MILL,1710 Gold Hill Road,Fort Mill,SC,29708
FORT MILL,526 Mercantile Place,Fort Mill,SC,29715
GAFFNEY,1417 West Floyd Baker Blvd.,Gaffney,SC,29341
ST. JAMES PLAZA,"217-A St. James Ave.
St. James Plaza",Goose Creek,SC,29445
WE'RE IN A NEW LOCATION!,"3280 N Pleasantburg Drive
Suite D",Greenville,SC,29609
PELHAM COMMONS SHOPPING CENTER,"215 Pelham Rd.
B-203",Greenville,SC,29615
GREENVILLE,"1507 Woodruff Road
Suite A",Greenville,SC,29607
AUGUSTA VILLAGE,"1818 Augusta Street
Suite 106",Greenville,SC,29605
GREENWOOD,"481 Bypass 72 NW
Suite 103",Greenwood,SC,29649
PEACHTREE SHOPPING CENTER,1311-A West Wade Hampton Blvd.,Greer,SC,29650
PUBLIX AT THORNBLADE,"802-A South Batesville Road
Suite 2",Greer,SC,29650
HARTSVILLE,1439 Retail Row,Hartsville,SC,29550
HILTON HEAD ISLAND,"430 William Hilton Parkway
Suite 201",Hilton Head Island,SC,29926
INDIAN LAND,8431 Charlotte Hwy.,Indian Land,SC,29707
IRMO,7241 Broad River Road,Irmo,SC,29063
JAMES ISLAND,"520 Folly Road
Suite 20",James Island,SC,29412
JOHNS ISLAND,"1800 Produce Lane
Unit B",Johns Island,SC,29455
KIAWAH ISLAND,350 Freshfields Drive,Kiawah Island,SC,29455
LAKE WYLIE,"604 Nautical Drive
Suite 101",Lake Wylie,SC,29710
LAURENS,"900 East Main Street
Suite D",Laurens,SC,29360
LEXINGTON,"2440 Augusta Highway
Suite C",Lexington,SC,29072
LEXINGTON,"1766 South Lake Drive
Suite B2",Lexington,SC,29073
LITTLE RIVER,"111 Pavilion Drive
Unit 8",Little River,SC,29566
MAULDIN,"101 S. Main Street
Suite D",Mauldin,SC,29662
MONCKS CORNER,"418 Reid Hill Road
Suite A",Moncks Corner,SC,29461
NORTHCUTT PLAZA,"280D West Coleman Blvd.
Northcutt Plaza",Mount Pleasant,SC,29464
TOWN CENTER LOCATION,"1907 Hwy 17 N.
#101",Mount Pleasant,SC,29464
MARKET AT OAKLAND,"3010 S. Morgans Point Rd.
Building 33A, Unit C",Mount Pleasant,SC,29466
MURRELLS INLET,"4390 Hwy. 17 Bypass
Suite C-4",Murrells Inlet,SC,29576
MYRTLE BEACH,"9713 N. King's Highway (Hwy 17)
Unit 102",Myrtle Beach,SC,29572
MYRTLE BEACH,2602 N. King HIghway,Myrtle Beach,SC,29577
IN LOWE’S FOODS PLAZA ON INTERNATIONAL DR,825 B Market Place Drive,Myrtle Beach,SC,29579
MYRTLE BEACH,"7955 North Kings Hwy.
Suite 310",Myrtle Beach,SC,29572
IN THE KROGER CENTER ON HWY 501,"3771 Renee Drive
Suite 24",Myrtle Beach,SC,29579
MYRTLE BEACH,"1550 Farrow Parkway
Suite A",Myrtle Beach,SC,29577
NORTH AUGUSTA,1141 Knox Ave.,North Augusta,SC,29841
NORTH AUGUSTA,1069 Edgefield Rd.,North Augusta,SC,29860
ACROSS FROM WANAMAKER PARK,"8983 University Blvd.
Suite 101",North Charleston,SC,29406
NORTH CHARLESTON,"7225 Rivers Ave(across from Target)
Ste. 203",North Charleston,SC,29406
HARRIS TEETER CENTER,"9500 Dorchester Rd.
Ste. 186",North Charleston,SC,29485
MCCALL CENTER,"5070 International Boulevard
Suite 127",North Charleston,SC,29418
ACROSS FROM HARLEY DAVIDSON STORE,4031 Highway 17 South,North Myrtle Beach,SC,29582
ACROSS FROM GATOR HOLE PLAZA,515 Hwy 17 North,North Myrtle Beach,SC,29582
THE MARKETPLACE AT OKATIE,"101-F Commerce Place West
The Marketplace at Okatie",Okatie,SC,29909
PAWLEYS ISLAND,"10225 Ocean Hwy.
E6",Pawleys Island,SC,29585
POWDERSVILLE,3509 Highway 153,Powdersville,SC,29611
ROCK HILL,725 Cherry Road,Rock Hill,SC,29732
NORTHWOODS SQUARE SHOPPING CENTER,2748 Celanese Road,Rock Hill,SC,29732
ROCK HILL,1460 Meeting Boulevard,Rock Hill,SC,29730
SENECA,"1608 Sandifer Boulevard
Suite B",Seneca,SC,29678
SIMPSONVILLE,325 Harrison Bridge Rd.,Simpsonville,SC,29680
SIMPSONVILLE,"926 N.E. Main Street
Suite A1",Simpsonville,SC,29681
SIMPSONVILLE,"102 Batesville Road
Suite E",Simpsonville,SC,29681
SPARTANBURG,"1915 East Main Street
Suite 2",Spartanburg,SC,29307
SPARTANBURG,"1623 John B White Sr. Blvd.
Suite A",Spartanburg,SC,29301
TARGET CENTER,"310 Azalea Square Blvd.
Outparcel #11, Unit B",Summerville,SC,29483
PUBLIX SHOPPING CENTER,"1585 Central Ave
Unit C-3",Summerville,SC,29483
CANE BAY/NEXTON ACROSS FROM PUBLIX,117 D North Creek Drive,Summerville,SC,29486
CARNES CROSSROADS,"2509 N Main St.
Suite B",Summerville,SC,29486
SUMMERVILLE,"613 Old Trolley Road
Unit A",Summerville,SC,29485
SUMTER,1222 Alice Drive,Sumter,SC,29150
SURFSIDE,102-B Loyola Drive,Surfside,SC,29588
WEST COLUMBIA,"1720 Sunset Blvd.
Ste. D",West Columbia,SC,29169
WOODRUFF,916 N Main Street,Woodruff,SC,29388
YORK,"962 East Liberty Street
Suite A2",York,SC,29745
TIN LIZZIE GAMING RESORT,555 Main Street,Deadwood,SD,57732
RAPID CITY,"1745 Eglin St
Suite 120",Rapid City,SD,57701
SIOUX FALLS,4908 S Louise Ave,Sioux Falls,SD,57106
SIOUX FALLS,613 South Highline Place,Sioux Falls,SD,57110
SIOUX FALLS,7216 South Lyncrest Place,Sioux Falls,SD,57108
SPEARFISH,313 West Jackson Boulevard,Spearfish,SD,57783
BARTLETT,"7780 US Hwy. 64
Suite 108",Bartlett,TN,38133
BARTLETT,"5985 Stage Road
Suite 30",Bartlett,TN,38134
BRENTWOOD,"205 Franklin Road
Suite 170",Brentwood,TN,37027
BRISTOL,"1430 Volunteer Parkway
South Gate, Suite 9",Bristol,TN,37620
BRISTOL,420 Pinnacle Parkway,Bristol,TN,37620
CHATTANOOGA,"2260 Gunbarrel Road
Suite 205",Chattanooga,TN,37421
CLARKSVILLE,1960 L Madison Street,Clarksville,TN,37043
WE MOVED TO A NEW LOCATION!,"2298 Trenton Road
Suite 104",Clarksville,TN,37040
CLEVELAND,2416 N Ocoee St.,Cleveland,TN,37311
COLLIERVILLE,"1090 W Poplar Avenue
Suite 101",Collierville,TN,38017
COLUMBIA,"1202 S. James Campbell Blvd.
Suite 7B",Columbia,TN,38401
JACKSON SQUARE,447 South Jefferson Ave.,Cookeville,TN,38501
CROSSVILLE,40 The Crossings,Crossville,TN,38555
DICKSON,407 Highway 46 South,Dickson,TN,37055
ELIZABETHTON,"1528 West Elk Avenue
Suite 100",Elizabethton,TN,37643
FRANKLIN,"1010 Murfreesboro Rd.
Suite 150",Franklin,TN,37064
FRANKLIN,"2000 Mallory Lane
Suite 610",Franklin,TN,37067
FRANKLIN,"1175 Meridian Blvd.
Suite 110",Franklin,TN,37067
WOOD COMMONS,940 Memory Lane,Gallatin,TN,37066
GREENEVILLE,"2327 E Andrew Johnson Hwy
Unit A",Greeneville,TN,37745
HENDERSONVILLE,247 West Main Street,Hendersonville,TN,37075
NORTHLAKE CENTER,5506 Old Hickory Blvd.,Hermitage,TN,37076
HIXSON,"5510 Highway 153
Suite124-B",Hixson,TN,37343
THE COLUMNS,"1081 Vann Drive
Suite 100",Jackson,TN,38305
JEFFERSON CITY,644 E Broadway Boulevard,Jefferson City,TN,37760
KROGER SHOPPING CENTER,"1805 West State of Franklin
Suite 100",Johnson City,TN,37604
JOHNSON CITY,"2106 Mountcastle Drive
Suite 2",Johnson City,TN,37604
KINGSPORT,1127 B - N. Eastman Road,Kingsport,TN,37664
KINGSPORT,"4260 Fort Henry Drive
Suite 114",Kingsport,TN,37663
KINGSPORT,2633 E. Stone Dr.,Kingsport,TN,37660
KNOXVILLE,4839 Kingston Pike,Knoxville,TN,37919
KNOXVILLE,2415 University Commons Way,Knoxville,TN,37919
KNOXVILLE,10962 Parkside Drive,Knoxville,TN,37934
WEST MAIN COMMONS,1315 West Main St.,Lebanon,TN,37087
EASTGATE LEBANON,"6650 Eastgate Blvd
Suite 103",Lebanon,TN,37090
LENOIR CITY,"375 Kelsey Lane
Suite 3",Lenoir City,TN,37772
MADISON,"1706 Gallatin Pike N.
Suite 8A",Madison,TN,37115
MARYVILLE,733 Watkins Rd,Maryville,TN,37801
MEMPHIS,6139 Poplar Ave,Memphis,TN,38119
MEMPHIS,"7801 Winchester Road
Suite 102",Memphis,TN,38125
SELLARS PARK,2231 North Mt. Juliet Rd.,Mt. Juliet,TN,37122
MURFREESBORO,"2925 South Church Street
Suite C",Murfreesboro,TN,37127
MURFREESBORO,2705A Old Fort Parkway,Murfreesboro,TN,37128
MURFREESBORO,"2113 Memorial Blvd.
Suite C",Murfreesboro,TN,37129
ELLISTON & 23RD,2311 Elliston Place,Nashville,TN,37203
NASHVILLE,"73 White Bridge Road
Suite 101",Nashville,TN,37205
NASHBORO VILLAGE SHOPPING CENTER,2280 Murfreesboro Pike,Nashville,TN,37217
NASHVILLE,"7114 U.S.HWY 70-South
Suite113",Nashville,TN,37221
NASHVILLE,736 Thompson Lane,Nashville,TN,37204
NIPPERS CORNER,5527 Edmondson Pike,Nashville,TN,37211
NASHVILLE,2050 Rosa Parks Blvd,Nashville,TN,37228
NASHVILLE,2184 Bandywood Dr.,Nashville,TN,37215
THE CROSSINGS,2288 Lebanon Road,Nashville,TN,37214
OAK RIDGE,1568 Oak Ridge Turnpike,Oak Ridge,TN,37830
OOLTEWAH,"5975 Elementary Way
Suite 103",Ooltewah,TN,37363
PIGEON FORGE,"2656 Parkway
Suite 2",Pigeon Forge,TN,37863
SMYRNA,"479 Sam Ridley Parkway West
Suite 115",Smyrna,TN,37167
SPRINGFIELD,"2023 Memorial Blvd.
Suite A-1",Springfield,TN,37172
SPRING HILL,5018 Spedale Court,Spring Hill,TN,37174
TULLAHOMA,"1707 N. Jackson St.
Suite 2",Tullahoma,TN,37388
WHITE HOUSE,615 Hwy 76,White House,TN,37188
ALLEN 75 & EXCHANGE,"790 West Exchange Pkwy
Suite 3",Allen,TX,75013
AMARILLO,2311 S. Georgia Street,Amarillo,TX,79109
ANNA,"409 S Central Expy
Suite 105",Anna,TX,75409
ARLINGTON,4201 West Green Oaks Blvd,Arlington,TX,76016
ARLINGTON,"5005 S. Cooper Street
Suite 171",Arlington,TX,76017
ATASCOCITA,7118 FM 1960 E,Atascocita,TX,77346
GATEWAY PLAZA BY GOLF GALAXY,"10001 Research Blvd.
Suite 170",Austin,TX,78759
620/ANDERSON MILL RD,"11521 FM 620 North
Suite 350",Austin,TX,78726
"SOUTHPARK MEADOWS, W. SLAUGHER LN","9500 South IH-35,
Suite L600",Austin,TX,78748
AUSTIN,"4404 W. William Cannon, Suite K
Next to Gold's Gym",Austin,TX,78749
BETWEEN MOPAC AND BURNET,"2700 West Anderson Lane
Ste. 211",Austin,TX,78757
HANCOCK CENTER,"1000 East 41 Street
Suite 235",Austin,TX,78751
I-35 AND PARMER LANE BY CHICK-FIL-A,12901 North I-35,Austin,TX,78753
AUSTIN,"600 E. Ben White, Suite 350
corner of IH-35Fwy and Ben White",Austin,TX,78704
THE TRIANGLE LAMAR/GUADALUPE BY CHASE BANK,"4601 N. Lamar
Suite 504",Austin,TX,78751
BELTERRA VILLAGE,"165 Hargraves Drive
Suite M400",Austin,TX,78737
WESTLAKE - OFF WALSH TARRELTON,"3300 Bee Caves Road
Suite 730",Austin,TX,78746
CORNER OF MANCHACA AND SOUTH LAMAR,"3005 South Lamar Blvd.
Suite D-111",Austin,TX,78704
AUSTIN,"12407 North Mopac Expressway
Suite 150",Austin,TX,78727
BAYTOWN,6502 Garth Road,Baytown,TX,77521
BEDFORD,"2212 Central Drive
Suite 102",Bedford,TX,76021
HILL COUNTRY GALLERIA,"4005 Market St.
#140",Bee Cave,TX,78738
BELLAIRE,"5107 Bellaire Boulevard
Suite 115",Bellaire,TX,77401
BENBROOK,9475 Benbrook Boulevard,Benbrook,TX,76126
BOERNE,"1369 S. Main Street
Suite 107",Boerne,TX,78006
BRYAN,"3001 Wildflower Drive
Unit 711",Bryan,TX,77802
IN FRONT OF CABELA'S,"15550 S IH 35 Frontage Road
Suite 115",Buda,TX,78610
BURLESON,12629 South Freeway,Burleson,TX,76028
CARROLLTON,"4009 Old Denton Road
Suite 118",Carrollton,TX,75007
CEDAR HILL,"140 W FM 1382
Suite 100",Cedar Hill,TX,75104
CEDAR PARK,"905 E. Whitestone Blvd
Suite E",Cedar Park,TX,78613
CIBOLO,"813 Cibolo Valley Dr.
Suite 122",Cibolo,TX,78108
ROCK PRAIRIE BY BSW HOSPITAL,"4001 State Highway 6
Suite 900",College Station,TX,77845
JONES CROSSING CENTER BY HEB,"11663 FM 2154
Suite 200",College Station,TX,77845
COLLEYVILLE,"4712 Colleyville Blvd.
Suite 130",Colleyville,TX,76034
IN FRONT OF DICK’S SPORTING GOODS,"247 S Loop 336 West
Suite 200",Conroe,TX,77304
CONROE NORTH LOOP NEAR WAL-MART AND SAM'S,"1403 N Loop 336 W
Suite B-1",Conroe,TX,77304
CONROE,"9662 Highway 242
Suite 900",Conroe,TX,77385
COPPELL,143 S. Denton Tap Road,Coppell,TX,75019
COPPERAS COVE,3018 US Highway 190,Copperas Cove,TX,76522
CORPUS CHRISTI,"4938 South Staple Street
Unit E2",Corpus Christi,TX,78411
CORPUS CHRISTI,"1813 Ennis Joslin
Suite 101",Corpus Christi,TX,78412
CORPUS CHRISTI,"14221 Northwest Blvd.
Suite 101",Corpus Christi,TX,78410
CORPUS CHRISTI,3235 S Alameda Street,Corpus Christi,TX,78404
CYPRESS,"28610 US 290
Suite F17",Cypress,TX,77433
CYPRESS,"9822 Fry Road
Suite 160",Cypress,TX,77433
CYPRESS,"14044 Grant Road
Suite 240",Cypress,TX,77429
COLES CROSSING,"12343 Barker Cypress Rd
Suite 210",Cypress,TX,77429
BERRY CENTER,"8940 Barker Cypress Rd.
Suite 130",Cypress,TX,77433
DALLAS,"5610 Lemmon Avenue
Suite B2",Dallas,TX,75209
DALLAS,"14060 Dallas Parkway
Suite 400",Dallas,TX,75240
DALLAS,"5521 Greenville Avenue
Suites 108B & 109",Dallas,TX,75206
PRESTON CENTER (15020),"8411 Preston Road
Suite 118",Dallas,TX,75225
DALLAS,"3001 Knox Street
Suite 107",Dallas,TX,75205
DALLAS,"7170 Skillman Road
Suite 140",Dallas,TX,75231
DALLAS,"7324 Gaston Avenue
Suite 115",Dallas,TX,75214
PRESTON-FOREST (15164),"11661 Preston Road
Suite 149",Dallas,TX,75230
DALLAS,"4520 Frankford Rd
Suite A800",Dallas,TX,75287
DALLAS,2150 Fort Worth Avenue,Dallas,TX,75211
DENTON,"1800 S. Loop 288
Ste. 392",Denton,TX,76205
DENTON,"2200 West University Drive
Suite 130",Denton,TX,76201
EDINBURG,"1708 W. University Drive
Suite 5",Edinburg,TX,78539
EDINBURG,"201 E. Trenton Rd.
Suite 3",Edinburg,TX,78539
EL PASO,"6450 North Desert Blvd.
Suite D104",El Paso,TX,79912
EL PASO,"8889 Gateway Blvd. West
Suite 3020",El Paso,TX,79925
EL PASO,"13371 Eastlake Blvd.
Suite 205",El Paso,TX,79928
EL PASO,"14011 Pebble Hills Blvd.
Suite 110",El Paso,TX,79938
EULESS,"2401 State Highway 121
Suite 200",Euless,TX,76039
FATE,"4970 E. I-30
Suite 100",Fate,TX,75189
FLOWER MOUND,"2701 Cross Timbers Road
Suite 202",Flower Mound,TX,75028
FLOWER MOUND,"3651 Justin Road
Ste. 110",Flower Mound,TX,75028
FORNEY MARKETPLACE,"375 North FM 548
Suite 160",Forney,TX,75126
HULEN CORNER SHOPPING CENTER,"4833 South Hulen St.
Hulen Corner Shopping Center",Fort Worth,TX,76132
LINCOLN VILLAGE SHOPPING CENTER,6318 Camp Bowie Blvd.,Fort Worth,TX,76116
FORT WORTH,"14113 Trinity Blvd.
Ste.229",Fort Worth,TX,76155
ALLIANCE TOWN CENTER,"3400 Texas Sage Trail
Suite 160",Fort Worth,TX,76177
FORT WORTH,5325 McPherson Blvd.,Fort Worth,TX,76123
FORT WORTH,1624 Basswood Blvd.,Fort Worth,TX,76131
FORT WORTH,"5252 Golden Triangle Blvd.
Suite 200",Fort Worth,TX,76244
FORT WORTH,"2300 West 7th Street
Suite 120",Fort Worth,TX,76107
FORT WORTH,"9937 Blue Mound Road
Suite 140",Fort Worth,TX,76131
FRIENDSWOOD,"1765 S Friendswood Dr
Suite 105",Friendswood,TX,77546
MARKET STREET CENTER,5110 El Dorado Parkway#450,Frisco,TX,75033
KROGER CENTER,"15962 W. Eldorado Parkway
Suite 250",Frisco,TX,75035
FRISCO,"7410 Preston Rd
Suite#129",Frisco,TX,75034
FRISCO,"8161 FM 423
Suite 200",Frisco,TX,75036
FRISCO,"3555 Legacy Drive
Suite 130",Frisco,TX,75034
FRISCO,"12025 University Drive
Suite 150",Frisco,TX,75035
GEORGETOWN,"904 W. University Ave
Bldg. A, Unit 105",Georgetown,TX,78626
GEORGETOWN,"3303 Williams Drive
Suite 1050",Georgetown,TX,78628
GRANBURY,726 E Hwy 377,Granbury,TX,76048
GRAND PRAIRIE,"3154 State Hwy 161
Suite 645",Grand Prairie,TX,75052
GRAPEVINE,"845 E. Northwest Highway
Suite 300",Grapevine,TX,76051
GREENVILLE,3916 I-30,Greenville,TX,75402
HARLINGEN,2217 W. Lincoln Ave,Harlingen,TX,78552
KIRBY BOULEVARD & TANGLEY STREET,"5819 Kirby Drive
Suite B",Houston,TX,77005
HOUSTON,"1413 S Voss Rd
Suite D",Houston,TX,77057
HOUSTON,"1635 Eldridge Pkwy
Ste. 500",Houston,TX,77077
HOUSTON,"103 Yale Street
Unit 300",Houston,TX,77007
HOUSTON,"4765 FM 1960 West
Suite A",Houston,TX,77069
HOUSTON,"5815 E Sam Houston PKWY N
Unit 4",Houston,TX,77049
HOUSTON,11560 FM 1960 West,Houston,TX,77065
HOUSTON,10123 Louetta Rd,Houston,TX,77070
MARQ*E,7670 Katy Freeway,Houston,TX,77024
HOUSTON,"6887 Highway 6 North
Suite 500",Houston,TX,77084
HOUSTON,"5440 El Dorado Blvd.
Suite 1700",Houston,TX,77059
HOUSTON,"1907 West Gray Street
Suite 220",Houston,TX,77019
HOUSTON,"12661 W Lake Houston Pkwy
Suite B",Houston,TX,77044
HOUSTON,"9650 Westheimer Road
Suite 600",Houston,TX,77063
HOUSTON,"13740 East Freeway
Suite B",Houston,TX,77015
HOUSTON,120 Gulfgate Center Mall,Houston,TX,77087
HOUSTON,"12645 Tomball Parkway
Suite 100",Houston,TX,77086
HOUSTON,"9930 Katy Freeway
Suite 150A",Houston,TX,77055
HOUSTON,1358 West 43rd Street,Houston,TX,77018
HUDSON OAKS,"2733 U.S. Highway 180
Suite 100",Hudson Oaks,TX,76087
HUNTSVILLE,"211 I-45 South
Suite 200",Huntsville,TX,77320
THE SHOPS AT NORTH EAST MALL,1308 W. Pipeline Rd.,Hurst,TX,76053
HUTTO,"120 Chris Kelley Blvd
Suite 200",Hutto,TX,78634
IRVING,"6550 North MacArthur Blvd
Suite 140",Irving,TX,75039
IRVING,"3351 Regent Blvd.
Ste. 130",Irving,TX,75063
JACKSONVILLE,1314-C South Jackson Street,Jacksonville,TX,75766
CINCO RANCH - WHOLE FOODS PLAZA,6645 S Fry Rd. Ste 700,Katy,TX,77494
KATY,"94 West Grand Parkway South
Suite 280",Katy,TX,77494
KATY,"6445 FM 1463
Suite #200",Katy,TX,77494
KATY,"22219 FM 529
Suite 104",Katy,TX,77493
KELLER,"1431 Keller Parkway
Suite 600",Keller,TX,76248
KERRVILLE,"704 Junction Highway
Suite 2",Kerrville,TX,78028
KILLEEN,"3007 Central Texas Expressway
Suite 103",Killeen,TX,76543
KILLEEN,"2408 S Clear Creek Rd
Suite 105",Killeen,TX,76549
KINGWOOD,"30129 Rock Creek Drive
Suite 800",Kingwood,TX,77339
KINGWOOD,4572 Kingwood Drive,Kingwood,TX,77345
KYLE,151 Evans Drive,Kyle,TX,78640
LA MARQUE,"6608 Gulf Fwy
Suite 500",La Marque,TX,77568
LAPORTE ON W FAIRMONT AND HIGHWAY 146,1436 W Fairmont Pkwy,La Porte,TX,77571
LAREDO,"2019 NE Bob Bullock Loop
Suite C-350",Laredo,TX,78045
LEAGUE CITY,"2456 Marina Bay Drive
Suite B",League City,TX,77573
LEAGUE CITY,"2555 E. League City Pkwy
Suite 130",League City,TX,77573
LEANDER,"19372 Ronald W. Reagan Blvd
Suite 350",Leander,TX,78641
LEWISVILLE,4770 State Highway 121,Lewisville,TX,75056
LONGVIEW,"3312 N. Fourth Street
Ste. 100",Longview,TX,75605
LUBBOCK,"6319 82nd Street
Suite #300",Lubbock,TX,79424
LUBBOCK,"11417 Slide Road
Suite 150",Lubbock,TX,79424
LUBBOCK,3711 19th Street,Lubbock,TX,79410
LUCAS,"2650 West Lucas Road
Suite 140",Lucas,TX,75002
WESTWOOD VILLAGE,"6619 FM 1488
Suite 205",Magnolia,TX,77354
MAGNOLIA,"13654 FM 1488
Suite 400",Magnolia,TX,77354
KROGER'S SHOPPING CENTER,"1301 East Debbie Lane
Ste. 100",Mansfield,TX,76063
BROAD STREET CROSSING SHOPPING CENTER,"3540 East Broad Street
Suite 132",Mansfield,TX,76063
MANVEL TOWN CENTER,"17307 State Hwy 6
Suite 104",Manvel,TX,77578
MCALLEN,"7600 N 10th St
Suite 800-C",McAllen,TX,78504
MCALLEN,"2825 West Nolana Avenue
Suite 30",McAllen,TX,78504
MCALLEN,814 E. Expressway 83,McAllen,TX,78501
MCKINNEY,1821 North Lake Forest Drive,McKinney,TX,75071
MCKINNEY,6720 Alma Road & Route 121,McKinney,TX,75070
MCKINNEY,"4200 Eldorado Parkway
Suite 400",McKinney,TX,75070
MELISSA,"2617 Sentinel Way
Suite 100",Melissa,TX,75454
MESQUITE,"1515 N Town East Blvd.
Suite 120",Mesquite,TX,75150
MIDLAND,"4400 N. Midland Dr
#700",Midland,TX,79707
MIDLOTHIAN,2210 FM 663,Midlothian,TX,76065
MISSION,"201 S Shary Rd
Suite 400",Mission,TX,78572
SIENNA,"8840 Hwy. 6
Suite 100",Missouri City,TX,77459
MONTGOMERY,"20175 Eva Street
Suite F",Montgomery,TX,77356
MURPHY,119 N. Murphy Road,Murphy,TX,75094
NEW BRAUNFELS,1691 State Highway 46 West,New Braunfels,TX,78132
NEW BRAUNFELS,"237 FM 306
Suite 102",New Braunfels,TX,78130
NEW CANEY,"21690 US Highway 59
Suite 200",New Caney,TX,77357
NORTH ARLINGTON,"1707 N Collins Street
Suite 125",North Arlington,TX,76011
NORTH RICHLAND HILLS,9120 North Tarrant Parkway,North Richland Hills,TX,76182
ODESSA,"7270 E. Hwy 191
Ste. 214",Odessa,TX,79765
DEER PARK,"7730 Spencer Highway
Suite 145",Pasadena,TX,77505
PASADENA ON FAIRMONT AND BELTWAY 8,5675 Fairmont Pkwy,Pasadena,TX,77505
PEARLAND PARKWAY NEAR HEB,"2470 Pearland Parkway
Suite 150",Pearland,TX,77581
SILVERLAKE,"9811 West Broadway
Suite 121",Pearland,TX,77584
PFLUGERVILLE,"1608 Town Center Drive
Ste 500",Pflugerville,TX,78660
PLANO,"8100 Dallas Pkwy
Suite 103",Plano,TX,75024
IVY PARK CROSSING,"1881 N. Central Expressway
Suite 100; Ivy Park Crossing",Plano,TX,75075
PLANO,"7120 Coit Rd
Ste. 116",Plano,TX,75025
PLANO,"1855 Dallas Parkway
Suite 200",Plano,TX,75093
PLANO,"3100 Independence Parkway
Suite 102B",Plano,TX,75075
PORTLAND,"1581 US-181 Frontage
Suite 400",Portland,TX,78374
PRINCETON,"1301 W Princeton Drive
Suite 107",Princeton,TX,75407
PROSPER,"4740 West University Drive
Suite 150",Prosper,TX,75078
PROSPER,"2001 N. Preston Road
Suite 20",Prosper,TX,75078
RED OAK,"109 E. Ovilla Road
Suite 700",Red Oak,TX,75154
RICHARDSON,"1920 N. Coit Road
Corner of Coit & Cambell",Richardson,TX,75080
RICHARDSON,"2040 E. President George Bush Highway
Suite130",Richardson,TX,75082
RICHARDSON,"205 S Plano Road
Suite 200",Richardson,TX,75081
RICHMOND,"4818 Waterview Town Center Drive
Suite 300",Richmond,TX,77407
ROCKWALL,"3035 Ridge Rd.
Suite 109",Rockwall,TX,75032
ROSENBERG,"6726 Reading Road
Suite 130",Rosenberg,TX,77471
ROUND ROCK,2800 S IH 35,Round Rock,TX,78681
ROUND ROCK,"3800 East Palm Valley Blvd.
Suite 120",Round Rock,TX,78665
ROUND ROCK,"635 University Blvd
Suite 105",Round Rock,TX,78665
620/O CONNOR DR,"17220 N RM 620
Suite 120",Round Rock,TX,78681
ROWLETT,"4802 Lakeview Pkwy., Bldg. 200
Suite 201",Rowlett,TX,75088
SACHSE,"7900 North Woodbridge Pkwy
Suite 110",Sachse,TX,75048
SAN ANTONIO,8603 State Hwy 151 #206,San Antonio,TX,78245
SAN ANTONIO,7970 Fredricksburg Rd.,San Antonio,TX,78229
SAN ANTONIO,20323 Huebner Rd.,San Antonio,TX,78258
SAN ANTONIO,"5515 Tezel Road
Ste. 104",San Antonio,TX,78250
SAN ANTONIO,5886 DeZavala Road,San Antonio,TX,78249
"POTRANCO INSIDE LOOP 1604, SEASCAPE","10538 Potranco Road
Suite 204",San Antonio,TX,78251
SAN ANTONIO,"11841 Alamo Ranch Parkway
Suite 110",San Antonio,TX,78253
NEXT TO THE DOMINION,"23110 W I-10
Suite 205",San Antonio,TX,78257
SAN ANTONIO,"999 E Basse Road
Suite 178",San Antonio,TX,78209
SAN ANTONIO,"11309 Bandera Rd
Suite 104",San Antonio,TX,78250
SAN ANTONIO,"17202 Bulverde Rd
Suite 104",San Antonio,TX,78247
"POTRANCO RD. OUTSIDE 1604, STEVENS RANCH","14211 Potranco Rd
Suite 600",San Antonio,TX,78253
SAN ANTONIO,"13909 Nacogdoches Road
Suite 113-B",San Antonio,TX,78217
SAN ANTONIO,7511 S New Braunfels Ave.,San Antonio,TX,78209
SAN ANTONIO,"14124 Culebra Road
Suite 100",San Antonio,TX,78253
SAN ANTONIO,"21025 US Hwy 281
Unit 45",San Antonio,TX,78258
SAN ANTONIO,12730 NW Military Hwy,San Antonio,TX,78231
SAN MARCOS,"1430 N IH 35
Suite 108",San Marcos,TX,78666
SEGUIN,"1417 E. Walnut Street
Suite 700",Seguin,TX,78155
BICENTENNIAL PARK,"410 West Southlake Blvd.
Suite 130",Southlake,TX,76092
NOLAN CENTER,2645 Southlake Blvd.,Southlake,TX,76092
SPRING CYPRUS/2920,"2150 FM 2920
Suite D",Spring,TX,77388
CREEKSIDE,"25640 Kuykendahl Road
Suite C",Spring,TX,77375
INDIAN SPRINGS,"6777 Woodlands Parkway
Suite 318",Spring,TX,77382
SPRING TOWER CENTER,"20750 Kuykendahl Rd
Suite 140",Spring,TX,77379
SPRING,"525 Sawdust Road
Suite 100A",Spring,TX,77380
STAFFORD,"3607 South Main Street
Suite 106",Stafford,TX,77477
TELFAIR,"520 Highway 6
Ste. 100",Sugar Land,TX,77478
RIVER PARK,19824 Southwest Freeway,Sugar Land,TX,77479
RIVERSTONE,"18802 University Blvd
Suite 107",Sugar Land,TX,77479
TEMPLE,"7425 W. Adams Ave
Suite 160",Temple,TX,76502
TEMPLE,"2102 S. 31st Street
Suite 150",Temple,TX,76504
TERRELL,506 American Way,Terrell,TX,75160
COLLEGE PARK,"3091 College Park Drive
Suite 150",The Woodlands,TX,77384
WOODLANDS PINECROFT CENTER NEAR BEST BUY,"9300 Six Pines Drive
Suite 500",The Woodlands,TX,77380
TOMBALL MARKETPLACE NEAR KOHL'S AND ACADEMY SPORTS,"14245 FM 2920
Suite 140",Tomball,TX,77377
TROPHY CLUB,"2220 State Highway 114
Suite 410",Trophy Club,TX,76262
FOLEY'S PLAZA,"4754 S. Broadway
Macy's Plaza",Tyler,TX,75703
TYLER,1690 South Beckham Ave,Tyler,TX,75701
WACO,1515 North Hewitt Drive,Waco,TX,76712
WACO,"720 South 5th Street
Suite 108",Waco,TX,76706
WATAUGA,"7608 Denton Hwy
Suite 300",Watauga,TX,76148
WEATHERFORD,"1314 S. Main Street
Suite 112",Weatherford,TX,76086
WEBSTER,933 W Bay Area Blvd,Webster,TX,77598
WESLACO,"515 Expressway 83
Suite D",Weslaco,TX,78599
WICHITA FALLS,3801 Call Field Rd,Wichita Falls,TX,76308
WILLIS,"9611 W FM 1097
Suite 100",Willis,TX,77318
BRIGHAM,"1132 S 450 W
Suite 103",Brigham,UT,84302
CENTERVILLE,"331 West Parrish Lane
Suite 105",Centerville,UT,84014
CLINTON,"1737 N 2000 W
Suite A",Clinton,UT,84015
COTTONWOOD HEIGHTS,6985 Park Centre Drive,Cottonwood Heights,UT,84121
COTTONWOOD HEIGHTS,3422 Bengal Boulevard,Cottonwood Heights,UT,84121
EAGLE MOUNTAIN ACROSS FROM MACEYS,"1388 Eagle Mountain Boulevard
Unit B",Eagle Mountain,UT,84005
STATION PARK WEST,"1060 West Park Lane
Suite 115",Farmington,UT,84025
HERRIMAN,"5510 West 13400 South
Unit B-2",Herriman,UT,84096
LAYTON,"260 South Fort Lane
Suite 104",Layton,UT,84041
LAYTON,2065 N. Harris Boulevard,Layton,UT,84041
LEHI,"50 N 1200 East
Suite 110",Lehi,UT,84043
LEHI,"1851 W. Traverse Parkway
Building G, Suite A-2",Lehi,UT,84043
LOGAN,"756 South Main Street
Suite 110",Logan,UT,84321
MIDVALE,"7141 South Bingham Junction Blvd
Suite #101",Midvale,UT,84047
MILLCREEK,4744 South Highland Drive,Millcreek,UT,84117
MURRAY,5291 South State Street,Murray,UT,84107
OGDEN,"218 East 12th Street
Suite A",Ogden,UT,84404
OREM,73 South State St,Orem,UT,84058
PARK CITY,"6699 N Landmark Drive
Suite H-122",Park City,UT,84098
PLEASANT GROVE,"1882 W. Pleasant Grove Blvd
Suite A",Pleasant Grove,UT,84062
PROVO,"426 W Cougar Blvd
Riverside Plaza",Provo,UT,84604
RIVERDALE,829 W. Riverdale Road,Riverdale,UT,84405
RIVERTON,2053 West 12600 South,Riverton,UT,84065
SALT LAKE CITY,1400 South Foothill Drive,Salt Lake City,UT,84108
SALT LAKE CITY,510 East 400 South,Salt Lake City,UT,84102
SALT LAKE CITY,"1295 Miller Avenue
Units 2-3",Salt Lake City,UT,84106
SANDY,74 West 11400 South,Sandy,UT,84070
SANDY,1926 East 9400 South,Sandy,UT,84093
SANTA CLARA,"3687 Pioneer Parkway
Suite 2",Santa Clara,UT,84765
SARATOGA SPRINGS,923 N. Redwood Rd.,Saratoga Springs,UT,84045
SOUTH JORDAN,"3595 W. South Jordan Parkway
Suite 300",South Jordan,UT,84095
SOUTH JORDAN,"5398 W Daybreak Parkway
Suite B5",South Jordan,UT,84009
SPANISH FORK,1254 North Canyon Creek Parkway,Spanish Fork,UT,84660
SPRINGVILLE,"1129 W 400 S
Suite 405",Springville,UT,84663
ST. GEORGE,"1333 South Hilton Drive
Suite 308",St. George,UT,84770
ST. GEORGE,"619 South Mall Drive
J2-2",St. George,UT,84790
SYRACUSE,817 W 1700 S,Syracuse,UT,84075
TAYLORSVILLE,5586 South Redwood Road,Taylorsville,UT,84123
VINEYARD,"661 East 450 North
Suite 101",Vineyard,UT,84058
WEST JORDAN,"3857 West Campus View Drive
Suite 120",West Jordan,UT,84084
WEST VALLEY CITY,"5518 S 5600 W
Suite D",West Valley City,UT,84118
WEST VALLEY CITY,2993 S 5600 W,West Valley City,UT,84120
WOODS CROSS,"618 West 2600 South
Suite D",Woods Cross,UT,84010
SOUTH BURLINGTON,"225 Dorset Street
Unit E",South Burlington,VT,05403
WILLISTON,"69 Market Street
Unit 2",Williston,VT,05495
RELOCATING,,,VA,
ABINGDON,133 Cook Street,Abingdon,VA,24210
ALEXANDRIA,7732 D Richmond Highway,Alexandria,VA,22306
ALEXANDRIA,5890 Kingstowne Towne Ctr,Alexandria,VA,22315
ALEXANDRIA,360 S Pickett Street,Alexandria,VA,22304
ALEXANDRIA,3219 Duke Street,Alexandria,VA,22314
ANNANDALE,"7042 Little River Turnpike
Suite H",Annandale,VA,22003
ARLINGTON,3009 Clarendon Boulevard,Arlington,VA,22201
ASHBURN,"20070 Ashbrook Commons Plaza
Unit 197",Ashburn,VA,20147
ASHLAND,708 England Street,Ashland,VA,23005
ASHLAND,"10180 Lakeridge Pkwy
Suite 105",Ashland,VA,23005
ATLEE,"9325 Chamberlayne Road
Suite A150",Atlee,VA,23116
BLACKSBURG,"1450 S Main Street
Suite 100",Blacksburg,VA,24060
BONSACK,"3621 Blue Hills Village NE
Suite G",Bonsack,VA,24012
THE OLD BAKERY PLACE,"1281 Bonham Road
Suite 7A",Bristol,VA,24202
BRISTOW,"10322 Bristow Station Drive
Suite 105",Bristow,VA,20136
BURKE,6025-C Burke Centre Parkway,Burke,VA,22015
CHANTILLY,"5005 Westone Plaza Blvd.
Unit B.",Chantilly,VA,20151
CHARLOTTESVILLE,"2040 Abbey Rd
Suite 104",Charlottesville,VA,22911
CHARLOTTESVILLE,"265 Merchant Walk
Suite 1004",Charlottesville,VA,22902
GREENBRIER,"733 Eden Way North
Suite 412",Chesapeake,VA,23320
CHESAPEAKE,2400 Chesapeake Square Ring Rd,Chesapeake,VA,23321
GREAT BRIDGE,"146 South Battlefield Blvd.
Suite 140",Chesapeake,VA,23322
IRON BRIDGE,6945 Commons Plaza,Chesterfield,VA,23832
HANCOCK VILLAGE,7317 Hancock Village Drive,Chesterfield,VA,23832
CHRISTIANBURG,2745 Market Street,Christianburg,VA,24073
COLONIAL HEIGHTS,2011 Boulevard,Colonial Heights,VA,23834
CULPEPER,765 Nalles Mill Road,Culpeper,VA,22701
DANVILLE,"165 Holt Garrison Parkway
Suite 570-A",Danville,VA,24540
WASHINGTON DULLES INTERNATIONAL AIRPORT,"1 Saarinen Circle
Concourse A,Space A-MC4A",Dulles,VA,20166
FAIRLAKES LOCATION,12703 Shoppes Lane,Fairfax,VA,22033
FALLS CHURCH,1108-A West Broad Street,Falls Church,VA,22046
FARMVILLE,911 S Main Street,Farmville,VA,23901
FREDERICKSBURG,1607 Emancipation Hwy,Fredericksburg,VA,22401
FREDERICKSBURG,"5635 Plank Road
Suite 109",Fredericksburg,VA,22407
FREDERICKSBURG,"14 Stafford Lakes Pkwy
Suite 104",Fredericksburg,VA,22406
GAINESVILLE,8136 Stonewall Shops Square,Gainesville,VA,20155
SHORT PUMP,11444 West Broad Street,Glen Allen,VA,23060
NUCKOLS,"11321 Nuckols Road
Suite A",Glen Allen,VA,23059
GLOUCESTER,6828 Waltons Lane,Gloucester,VA,23061
GREAT FALLS,"1024 Seneca Road
Unit 1",Great Falls,VA,22066
HAMPTON,109 Coliseum Crossing,Hampton,VA,23666
HARRISONBURG,"563 University Blvd
#146",Harrisonburg,VA,22801
HAYMARKET,6424 Trading Square,Haymarket,VA,20169
GLENSIDE,"7000 Forest Ave.
Suite 400",Henrico County,VA,23230
KING GEORGE,16392 Consumer Row,King George,VA,22485
LAKE RIDGE,"3282 Old Bridge Road
Suite B",Lake Ridge,VA,22192
FORT EVANS PLAZA II,"522 Fort Evans Rd.
Fort Evans Plaza II",Leesburg,VA,20176
LEXINGTON,1225-A N Lee Highway,Lexington,VA,24450
SHOPPES OF LORTON VALLEY,"8971 Ox Road
Suite 190",Lorton,VA,22079
LORTON MARKETPLACE,9433 Lorton Market Street,Lorton,VA,22079
WARDS RD.,"3919 Wards Road
Suite D",Lynchburg,VA,24502
OLD FOREST RD.,"3901 Old Forest Rd
Ste. 105C",Lynchburg,VA,24501
TIMBERLAKE,"8000 Timberlake Road
Suite C",Lynchburg,VA,24502
MANASSAS,7418 Sudley Road,Manassas,VA,20109
MARTINSVILLE,"101 Commonwealth Blvd W
Suite D",Martinsville,VA,24112
MECHANICSVILLE,7262 Mechanicsville Turnpike,Mechanicsville,VA,23111
COMMONWEALTH SHOPPING CENTRE,"4500 Commonwealth Centre Parkway
Commonwealth Shopping Centre",Midlothian,VA,23112
MIDLOTHIAN,14201 Winterview Pkwy,Midlothian,VA,23113
NEWPORT NEWS,4994-B West Mercury Boulevard,Newport News,VA,23605
MILITARY HWY,1211 N. Military Highway,Norfolk,VA,23502
NORFOLK,"8245 Hampton Blvd.
Unit #B",Norfolk,VA,23505
LITTLE CREEK,"725 E. Little Creek Rd.
Suite 510",Norfolk,VA,23518
ODU,4710 Hampton Boulevard,Norfolk,VA,23508
NORTON,698 Commonwealth Dr,Norton,VA,24273
PURCELLVILLE,150 B Purcellville Gateway Drive,Purcellville,VA,20132
RESTON,"2254 Hunters Woods Plaza
#150",Reston,VA,20191
BON AIR,2709 Buford Road,Richmond,VA,23235
STAPLES MILL,8654 Staples Mill Road,Richmond,VA,23228
REGENCY MALL,"1420 N. Parham Road
Suite K206",Richmond,VA,23229
TOWN CENTER PLAZA,11413 Midlothian Turnpike,Richmond,VA,23235
SOUTHWEST PLAZA,2010 Electric Road,Roanoke,VA,24018
ROANOKE,"7000 Peters Creek Rd
Suite C",Roanoke,VA,24019
TANGLEWOOD,"4458 Electric Road
Suite B",Roanoke,VA,24018
ROCKY MOUNT,"400 Old Franklin Turnpike
Suite 106",Rocky Mount,VA,24151
SALEM,1228 West Main Street,Salem,VA,24153
SOUTH HILL,705 E. Atlantic Street South Hill,South Hill,VA,23970
SOUTH RIDING,"25360 Marketplace Plaza
Ste. 125",South Riding,VA,20152
SPRINGFIELD-RAVENSWORTH SHOPPING CENTER,5250-G Port Royal Road,Springfield,VA,22151
SPRINGFIELD,"8432 Old Keene Mill Road
Suite 2",Springfield,VA,22152
STAFFORD,"1495 Stafford Market Place
Unit. 119",Stafford,VA,22556
STAFFORD,"810 Wonder Road
Suite 110",Stafford,VA,22554
STAUNTON,"102 Crossing Way
Suite 102",Staunton,VA,24401
STERLING,21031 Triple Seven Rd. Ste. 160,Sterling,VA,20165
SUFFOLK-MAIN ST.,"1910 N Main St.
Suite 130",Suffolk,VA,23434
SUFFOLK-COLLEGE DR.,6216 College Drive,Suffolk,VA,23435
DUNN LORING,2672C Avenir Place,Vienna,VA,22180
VIENNA,1501C Cornerside Blvd.,Vienna,VA,22182
WILLIS SHOPPES BEACH BOULEVARD,"4224 Virginia Beach Blvd.
Willis Shoppes Beach Blvd.",Virginia Beach,VA,23452
VIRGINIA BEACH,"5832 Northhampton Blvd.
Suite 401",Virginia Beach,VA,23455
LYNNHAVEN,"687 Lynnhaven Parkway
Ste. 110",Virginia Beach,VA,23452
LANDSTOWN,"1909 Landstown Centre Way
Suite 115",Virginia Beach,VA,23456
NEX FOOD COURT,"1170 Amphibious Dr. Bldg. 3443
Food Court-Navy Exchange",Virginia Beach,VA,23459
HILLTOP,"561 First Colonial Rd
Suite 103",Virginia Beach,VA,23451
KEMPSVILLE,"5394 Kempsriver Drive
Suite 104",Virginia Beach,VA,23464
WARRENTON,"135 W. Lee Hwy.
Suite 235",Warrenton,VA,20186
WAYNESBORO,"831 Lew Dewitt Blvd.
Suite 103",waynesboro,VA,22980
WILLIAMSBURG,"4655 Monticello Ave.
Suite 202",Williamsburg,VA,23188
LIGHTFOOT,6493 Centerville Road,Williamsburg,VA,23188
WINCHESTER,1855 South Pleasant Valley Road,Winchester,VA,22601
WOODBRIDGE,2954 Prince William Parkway,Woodbridge,VA,22192
WOODSTOCK,"526 W Reservoir Rd
Suite 105",Woodstock,VA,22664
WYTHEVILLE,246 Commonwealth Drive,Wytheville,VA,24382
YORKTOWN,"4508 George Washington Memorial Hwy
Suite G",Yorktown,VA,23692
GATEWAY SHOPPING CENTER,3704 172nd St NE,Arlington,WA,98223
AUBURN,920 15th Street SW,Auburn,WA,98001
BONNEY LAKE,"21180 SR 410 East
Suite 180",Bonney Lake,WA,98391
LAKESIDE AT CANYON PARK,"24016 Bothell Everett Hwy.
Suite B300",Bothell,WA,98021
BURIEN,"15830 First Avenue S.
B-104",Burien,WA,98148
SKAGEN PLAZA NEXT TO THE ROCK,"17309 SE 270th Place
Suite A-119",Covington,WA,98042
ENUMCLAW,"1040 Stevenson Avenue
Unit L",Enumclaw,WA,98022
EVERETT,4817 Evergreen Way,Everett,WA,98203
FEDERAL WAY,"2020 South 320th Street
Suite 3",Federal Way,WA,98003
FEDERAL WAY,"1401 S 348th Street
Suite M105",Federal Way,WA,98003
FIFE,"4756 Pacific Hwy East
Suite 130",Fife,WA,98424
POINT FOSDICK SQUARE SHOPPING CENTER,4819 Point Fosdick Drive NW,Gig Harbor,WA,98335
ISSAQUAH,"Heritage Square Shopping Center
730 NW Gilman Blvd",Issaquah,WA,98027
KENNEWICK,"1659 N Columbia Center Blvd.
Suite 124",Kennewick,WA,99336
KENT,"18119 E. Valley Highway South
Suite 107",Kent,WA,98032
KENT,"12964 Kent Kangley Rd,",Kent,WA,98030
KIRKLAND,11631 98th Avenue NE,Kirkland,WA,98034
LACEY,"1401 Marvin Rd Northeast
Suite 102",Lacey,WA,98516
LACEY,"5116 Yelm Highway SE
Suite E",Lacey,WA,98503
LAKE STEVENS,"8933 Market Place NE
Suite 202-MN",Lake Stevens,WA,98258
LAKEWOOD,6020 Main Street SW,Lakewood,WA,98499
LYNNWOOD,"19620 Highway 99
Suite 103",Lynnwood,WA,98036
MAPLE VALLEY,"26300 238th Lane SE
Suite 101",Maple valley,WA,98038
MARYSVILLE,"8820 36th Ave NE
Suite 101",Marysville,WA,98270
MILL CREEK,"1018 164th Street SE
Suite A12",Mill Creek,WA,98012
MONROE,19555 Rt 2,Monroe,WA,98272
MOSES LAKE,"2345 Maiers Road
Suite B",Moses Lake,WA,98837
MOUNT VERNON,115 E. College Way,Mount Vernon,WA,98273
MUKILTEO,"11815 Mukilteo Speedway
Suite C",Mukilteo,WA,98275
COAL CREEK MARKETPLACE,"6920 Coal Creek Pkwy SE
Suite 7",Newcastle,WA,98059
NORTH BEND,"249 Main Avenue South
Suite 103",North Bend,WA,98045
OAK HARBOR,"31595 SR 20
Suite A5",Oak Harbor,WA,98277
NEAR HOBBY LOBBY,4131 Martin Way East,Olympia,WA,98516
OLYMPIA,"1309 Cooper Point Road SW
Suite 120",Olympia,WA,98502
PASCO,"5326 Road 68
Suite 102",Pasco,WA,99301
POULSBO,"19045 Highway 305
Suite 210",Poulsbo,WA,98370
PUYALLUP,4009 S Meridian,Puyallup,WA,98373
PUYALLUP,"10306 156th St. E
Building B1",Puyallup,WA,98374
PUYALLUP,"716 Shaw Road
Suite C",Puyallup,WA,98372
OVERLAKE/REDMOND,"15230 NE 24th Street
#1G",Redmond,WA,98052
REDMOND,17181 Redmond Way,Redmond,WA,98052
REDMOND,"23535 NE Novelty Hill Road
Suite D310",Redmond,WA,98053
RENTON,4710 NE 4th Street,Renton,WA,98059
RICHLAND,2729 Queensgate Drive,Richland,WA,99352
SAMMAMISH,"22704 SE 4th Street
Suite 206",Sammamish,WA,98074
SEATTLE,"13242 Aurora Avenue N
Suite 105",Seattle,WA,98133
SHORELINE,1289 N. 205th St.,Shoreline,WA,98133
AT THE TRAILS,"11065 Pacific Crest Place NW
Suite B109",Silverdale,WA,98383
SPOKANE,4919 South Regal Street,Spokane,WA,99223
SPOKANE,4805 N. Division Street,Spokane,WA,99207
SPOKANE,"9746 W. Highway 2
Suite B",Spokane,WA,99224
SPOKANE VALLEY,15609 E Sprague Avenue,Spokane Valley,WA,99037
TACOMA,"4301 South Steele Street
Suite 101",Tacoma,WA,98409
TACOMA,"212 Garfield Street South
Suite 101",Tacoma,WA,98444
SOUTH CENTER PLAZA,385 Strander Blvd.,Tukwila,WA,98188
UNIVERSITY PLACE,3555 Market Place,University Place,WA,98466
VANCOUVER,"7902 NE 6th Ave
Suite 100",Vancouver,WA,98665
VANCOUVER,"11600 SE Mill Plain Blvd.
Suite 3D",Vancouver,WA,98684
WOODINVILLE,17321 140th Avenue NE,Woodinville,WA,98072
THE VALLEY MALL PLAZA,"2401 S 1St Street
Suite 100",Yakima,WA,98903
RIVER PLACE PLAZA,"6007 US Route 60 East
Suite 107",Barboursville (Magisterial District),WV,25504
SOUTH RIDGE PLAZA,210 RHL Blvd,Charleston,WV,25309
CHARLES TOWN,71-C Jefferson Crossing Way,Charles Town,WV,25414
CLARKSBURG,270 Emily Drive,Clarksburg,WV,26301
LIBERTY SQUARE SHOPPING CENTER,6 Liberty Plaza,Hurricane,WV,25526
MARTINSBURG,"245 Retail Commons Parkway
C-16A",Martinsburg,WV,25403
MARTINSBURG,"5462 Williamsport Pike
Suite A",Martinsburg,WV,25404
MORGANTOWN,525 Granville Square,Morgantown,WV,26501
TRIADELPHIA,211 Cabela Drive,Triadelphia,WV,26059
VIENNA,718 Grand Central Ave.,Vienna,WV,26105
APPLETON,"W3216 County KK
Suite 103",Appleton,WI,54915
BEAVER DAM,"106 Frances Ln
Suite D",Beaver Dam,WI,53916
BELLEVUE,"2298 Costco Way
Suite 110",Bellevue,WI,54311
BROOKFIELD,"17550-C W. Bluemound Rd.
Suite 80",Brookfield,WI,53045
DELAVAN,"1823 East Geneva Street
Suite J",Delavan,WI,53115
EAU CLAIRE,945 W. Clairemont Avenue,Eau Claire,WI,54701
EAU CLAIRE,4732 Golf Road,Eau Claire,WI,54701
FITCHBURG,"6291 McKee Road
Suite E",Fitchburg,WI,53719
FOND DU LAC,221 North Peters Avenue,Fond du Lac,WI,54935
FRANKLIN,6531 S. 27th St.,Franklin,WI,53132
GERMANTOWN,"N112 W16510 Mequon Road
Unit 2",Germantown,WI,53022
GLENDALE,"5530 N. Port Washington Road
Suite B",Glendale,WI,53217
GRAND CHUTE (TOWN OF),149 N Mall Drive,Grand Chute (Town Of),WI,54913
GREEN BAY,2476 South Oneida Street,Green Bay,WI,54304
GREENFIELD,7925 W. Layton Ave,Greenfield,WI,53220
HARTFORD (TOWN OF),1582 E Sumner Street,Hartford (Town of),WI,53027
HOWARD,"2485 Lineville Rd
Suite 104",Howard,WI,54313
HUDSON,2310 Badger Drive,Hudson,WI,54016
JANESVILLE,2228 Humes Rd,Janesville,WI,53545
JOHNSON CREEK,"485 Wright Road
Unit 103",Johnson Creek,WI,53038
KENOSHA,"5836 A 75th Street
Unit 17",Kenosha,WI,53142
LAKE DELTON,"1300 Great Wolf Drive
Suite 120",Lake Delton,WI,53940
MADISON,4704 E. Towne Blvd.,Madison,WI,53704
MADISON,"434 Gammon Place
Suite 3",Madison,WI,53717
MADISON,449 State Street,Madison,WI,53703
MEQUON,10930 N. Port Washington Road,Mequon,WI,53092
MIDDLETON,1601 Deming Way,Middleton,WI,53562
MILWAUKEE,544 E. Ogden Ave.,Milwaukee,WI,53202
MT. PLEASANT,"2860 S. Green Bay Road
Suite 300",Mt. Pleasant,WI,53406
NEENAH,"1169 West Winneconne Ave.
Suite C",Neenah,WI,54956
OAK CREEK,8880 S. Howell Ave.,Oak Creek,WI,53154
ONALASKA,1200 County Road PH,Onalaska,WI,54650
OSHKOSH,1694 S. Koeller Street,Oshkosh,WI,54902
PEWAUKEE,1450 Capitol Dr.,Pewaukee,WI,53072
PLOVER,176 Crossroads Drive,Plover,WI,54467
DEARTRACE KOHLER CENTER,4017 State Highway 28,Sheboygan,WI,53085
SHOREWOOD,3530 N. Oakland Ave.,Shorewood,WI,53211
SOMERS,3625 Market Lane,Somers,WI,53144
SUN PRAIRIE,"485 S. Legacy Way
Suite 1",Sun Prairie,WI,53590
WAUKESHA,1190 West Sunset Dr.,Waukesha,WI,53189
WAUKESHA-MAIN ST,"1660 East Main Street
Suite 110",Waukesha,WI,53186
WAUSAU,225434 Rib Mountain Drive,Wausau,WI,54401
WAUWATOSA,2751 N Mayfair Rd,Wauwatosa,WI,53222
WEST BEND,1025 South Main Street,West Bend,WI,53095
WEST MILWAUKEE,1232 South Miller Park Way,West Milwaukee,WI,53214
WHITEWATER,1116 West Main St,Whitewater,WI,53190
CASPER,"3095 Talon Drive
Suite 200",Casper,WY,82604
CASPER,4851 E. 2nd Street,Casper,WY,82609
CHEYENNE,"1616 Prairie Avenue
Unit 3",Cheyenne,WY,82009
LARAMIE,"3225 E Grand Avenue
Unit #2",Laramie,WY,82070
